Firm Name,Address Line 1,City,State,Zip Code,Country,Firm URL
"Guenther Mills Keating Architects, Inc.",6532 Blue Ridge Cut Off,Raytown,MO,64133-4835,UNITED STATES,www.gmkarchitects.com
"Guerin Associates, Inc.",PO BOX 285,Millington,NJ,07946-0285,UNITED STATES,www.guerinassociates.com
Guerin Glass Architects,"20 Jay St , Ste 1110",Brooklyn,NY,11201-8356,UNITED STATES,gueringlass.com
Guerin Glass Architects,"20 Jay St , Ste 1110",Brooklyn,NY,11201-8356,UNITED STATES,www.gueringlass.com
"Guerin Glass Architects, PC",20 Jay St Ste 1110,Brooklyn,NY,11201,UNITED STATES,www.gueringlass.com
Guernsey,5555 N Grand Blvd,Oklahoma City,OK,73112-5693,UNITED STATES,www.chguernsey.com
Guernsey,5555 N Grand Blvd,Oklahoma City,OK,73112-5693,UNITED STATES,www.guernsey.us
Guernsey Engineering Architecture,"5555 North Grand Boulevard, Oklahoma City",Oklahoma City,OK,73112,UNITED STATES,guernsey.us
Guernsey Tingle Architects,4350 New Town Ave Ste 101,Williamsburg,VA,23188-2810,UNITED STATES,www.guernseytingle.com
Guggenheim Architecture and Design Studio,"925 NW 19th Ave , Ste F",Portland,OR,97209-1418,UNITED STATES,www.guggenheimstudio.com
"GUIDE Architecture, LLC",9639 Greenville Ave,Dallas,TX,75243-4118,UNITED STATES,www.guidearch.com
"Guillot-Vivian-Viehmann Architects, Inc.",284 S Union St,Burlington,VT,05401-4965,UNITED STATES,gvvarchitects.com
Gulf Coast Architectural Group,2510 W Cervantes St,Pensacola,FL,32505-7153,UNITED STATES,www.gcarchgroup.com
Gulf Design Group,"633 S Federal Hwy , Fl 5",Fort Lauderdale,FL,33301-3164,UNITED STATES,
"GUMA Architects, LLC","222 Chalan Santo Papa Juan Pablo Dos , Reflection Center | Suite 203",Hagatna,GU,96910,UNITED STATES,www.guma.space
"Gumbinger Avram Architects, Inc.",625 Plymouth Lane,Foster City,CA,94404,UNITED STATES,www.gumbingeravram.com
"Gunar Ejups, AIA, Architect","3720 Wendwood Ln , Apt 200",Charlotte,NC,28211-4187,UNITED STATES,
"Gund Partnership, Inc.",47 Thorndike St,Cambridge,MA,02141-1799,UNITED STATES,www.gundpartnership.com
"Gunn & Smith Architects, Inc.","4814 Washington BLVD, STE 110",Saint Louis,MO,63108,UNITED STATES,www.gunnandsmith.com
Gunn Meyerhoff Shay Architects,12 E Bay St,Savannah,GA,31401-1225,UNITED STATES,www.savannaharchitects.com
"Gunnar Andersen, AIA Architecture",2425 Polk St,San Francisco,CA,94109-1602,UNITED STATES,
GunnLevine Architects,726 Lothrop Rd,Detroit,MI,48202-2715,UNITED STATES,
Gunsul Clark Iverson,"1402 3rd Ave , Ste 808",Seattle,WA,98101-2113,UNITED STATES,
GUNZELMAN architecture + interiors,333 Stewart Ave,Columbus,OH,43206,UNITED STATES,www.gunzelmanai.com
"Gurel Architecture, Inc.","1145 Executive Cir , Ste B",Cary,NC,27511-4586,UNITED STATES,
"Gurri Matute, P.A.","5001 SW 74th Ct , Ste 208",Miami,FL,33155-4453,UNITED STATES,gurrimatute.com
Gus Duffy Architect,4645 Van Nuys Blvd Ste 201,Sherman Oaks,CA,91403-5781,UNITED STATES,www.gusduffyarchitect.com
Gustafson & Associates,PO Box 1532,Clarksburg,WV,26302-1532,UNITED STATES,
Gustavson-Dundes Architecture and Design,"192 Lexington Ave , Ste 1400",New York,NY,10016-6823,UNITED STATES,www.gdarchitects.com
Guthrie & Associates Architects,4517 Angelina Way,Fort Worth,TX,76137-5611,UNITED STATES,
Gutman Associates,1846 Preuss Rd,Los Angeles,CA,90035-4314,UNITED STATES,www.ga-architecture.com
Guy Cass Architect Inc.,1919 1/2 19th St,Santa Monica,CA,90404-4707,UNITED STATES,www.guyarchitect.com
"Guy Dixon, Architect",12 Johnson Rd,Winchester,MA,01890-2252,UNITED STATES,
"Guy G. Gabrielson, AIA",672 Flanders Rd,Woodbury,CT,06798-1713,UNITED STATES,
"Guy Gronberg Architects, P.C.",113 SE 3rd St,Lees Summit,MO,64063-2719,UNITED STATES,www.guygronberg.com
"Guy L. Ford, Jr. Architect",PO BOX 1033,Deer Park,TX,77536-1033,UNITED STATES,
Guy V. Mangogna Architect,503 Mosely Ave Lowr Level,Staten Island,NY,10312-4126,UNITED STATES,
Guyon Architects Inc.,"401 W Main St , Ste 333",Lexington,KY,40507-1646,UNITED STATES,www.guyonarchitects.com
"Guzzo & Guzzo Architects, LLC",608 Ridge Rd,Lyndhurst,NJ,07071-3206,UNITED STATES,www.gg-architect.com
GW Architecture LLC,100 Sharpsburg Dr,Lafayette,LA,70508-7746,UNITED STATES,www.gwarchitecture.com
GWWO Architects,1215 E. Fort Ave. Liberty Building Suite 24,Baltimore,MD,21230,UNITED STATES,www.gwwoinc.com
GWWO inc./ Architects,"71 Raymond Road, Suite #113",West Hartford,CT,06107,UNITED STATES,
Gwynne Pugh Urban Studio,"8758 Venice Boulevard
Suite 200",Los Angeles,CA,90034,UNITED STATES,www.gwynnepugh-us.com/
GYA Architects Inc.,220 Imi Kala St Ste 201,Wailuku,HI,96793-1209,UNITED STATES,
"GYA Architects, Inc.",1821 Ranstead St,Philadelphia,PA,19103-3707,UNITED STATES,www.gyaarchitects.com
GYDE Architects PC,PO Box 4735,Jackson,WY,83001,UNITED STATES,www.gydearchitects.com
"Gyed Architects, P.C.",PO BOX 4735,Jackson,WY,83001-4735,UNITED STATES,www.gildayarchitects.com
Gyllstrom Architecture & Consulting Inc.,8602 SW 5th Pl,Gainesville,FL,32607-1471,UNITED STATES,www.gyllarch.com
Gymo Architecture Eng. & Land Surveying,18969 US Route 11,Watertown,NY,13601-6758,UNITED STATES,www.gymopc.com
Gyroscope Inc.,"283 4th St , Ste 201",Oakland,CA,94607-4320,UNITED STATES,www.gyroscopeinc.com
