Firm Name,Address Line 1,City,State,Zip Code,Country,Firm URL
OutsideIn Architecture LLC,"12906 Tampa Oaks Blvd , Ste 120",Temple Terrace,FL,33637-1154,UNITED STATES,www.oiarchitecture.com
Overcash Demmitt Architects,2010 S Tryon St Ste 1A,Charlotte,NC,28203-5286,UNITED STATES,www.oda.us.com
Overland Partners,"203 East Jones Ave, Ste 104",San Antonio,TX,78215,UNITED STATES,www.overlandpartners.com
Overland Partners,203 E Jones Ave Ste 104,San Antonio,TX,78215-1355,UNITED STATES,www.overlandpartners.com
Overland Partners Architects,203 E. Jones Ave. STE 104,San Antonio,TX,78215,UNITED STATES,www.overlandpartners.com
Overway + Partners,"601 Montgomery St , Ste 500",San Francisco,CA,94111-2607,UNITED STATES,www.overwaypartners.com
Overway Partners,630 Austin Ave,Sonomia,CA,94576,UNITED STATES,www.overwaypartners.com
OW3 Architects,726 S 15th St,Philadelphia,PA,19146-2101,UNITED STATES,www.ow3architects.com
"Owen Architects Collaborative, LLC",333 Touraine Rd,Grosse Pointe Farms,MI,48236-3310,UNITED STATES,
Owen Chock AIA Architectural Consultant,1431 Hiikala Pl,Honolulu,HI,96816-5607,UNITED STATES,
"Owen Richards Architects, PLLC","1221 E Pike St , Ste 300",Seattle,WA,98122-3930,UNITED STATES,www.orarchitects.com
OWPR Architects and Engineers,200 Country Club Dr SW,Blacksburg,VA,24060-5400,UNITED STATES,www.owpr.com
Oxford Architecture,"2934 Sidco Dr , Ste 120",Nashville,TN,37204-3744,UNITED STATES,www.oxfordarchitecture.com
Oxley Williams Tharp Architects,911 Houston Street,Fort Worth,TX,76102,UNITED STATES,www.owtarchitects.com
OZ Architects,531 N Higgins Ave,Missoula,MT,59802-4534,UNITED STATES,www.oza.com
OZ Architecture,3003 Larimer St,Denver,CO,80205-2310,UNITED STATES,www.ozarch.com
OZ Architecture,3003 Larimer St,Denver,CO,80205-2310,UNITED STATES,www.ozarch.com
OZ Collaborative,4818 Baltimore Ave,Philadelphia,PA,19143,UNITED STATES,www.bwa-architects.com
O|X Studio Inc.,2373 Oak Valley DR Ste 180,Ann Arbor,MI,48103-8943,UNITED STATES,www.oxstudioinc.com
P&W Architects,,,,,,
"P-O-D Studio, LLC",12824 Maywood Ln,Minnetonka,MN,55343-8790,UNITED STATES,www.p-o-d.us
P. A. Clark Architects,,,,,,
P. Miles Kappes,8845 E 146th St,Fishers,IN,46038-5088,UNITED STATES,www.gimmeshelterofsmithfield.com
"P. Richard Frantz, AIA, Architect","127 N Hanover St , Ste A",Pottstown,PA,19464-5411,UNITED STATES,prfrantz.com
P.A. Studio,553 Meteor St,Jacksonville,FL,32205-5456,UNITED STATES,www.pa-studio.net
"P.A.F. Architecture, LLC",310 Groveland Ave,Minneapolis,MN,55403-3598,UNITED STATES,www.pafarc.com
"P.K. VanderBeke, Architect","155 W Burton Pl , Apt 16",Chicago,IL,60610-1326,UNITED STATES,www.pkvanderbeke.com
P.W. Schieffer Architect,2419 Stutz Dr,Dallas,TX,75235-6513,UNITED STATES,www.schiefferstudio.com
P2 Design Group,"1402 3rd Ave , Ste 730",Seattle,WA,98101-2123,UNITED STATES,www.p2designgroup.com
Pablo Maida Architect,"933 20th St , Unit D",Santa Monica,CA,90403-3331,UNITED STATES,www.pma-architect.com/
PAC Architecture & Design,75 Albertson Avenue,Albertson,NY,11507,UNITED STATES,www.pac-architecture.com
Pace Architects 2,175 S 1200 E,Salt Lake City,UT,84102-1609,UNITED STATES,
Pace Architecture and Design,1221 S Warnock St,Philadelphia,PA,19147,UNITED STATES,www.pace-ad.com
PACE International,7601 Quintana Ct,Bethesda,MD,20817-2042,UNITED STATES,
Pacheco Architecture PLLC,"4990 SW 72nd Ave , Ste 101",Miami,FL,33155-5524,UNITED STATES,www.pachecomartinez.com
Pacheco Robb Architects LLC,19 Franklin St,Provincetown,MA,02657-2023,UNITED STATES,pachecorobb.com
"Pacheco Ross Architects, P.C.",PO Box 558,Voorheesville,NY,12186-0558,UNITED STATES,www.pra-pc.com
Paci+Mears Architects P.C.,32 Park Pl,Brooklyn,NY,11217-3208,UNITED STATES,
"PACIFIC 33 architects, Inc.","5090 Shoreham Pl, Studio 104",San Diego,CA,92122-5933,UNITED STATES,pacific33architects.com
"Pacific Architects, Inc.",2020 S King St,Honolulu,HI,96826-2219,UNITED STATES,www.architectspacificinc.com
"Pacific Asia Design Group, Inc.","680 Iwilei Rd , Ste 528",Honolulu,HI,96817-5389,UNITED STATES,www.padgroup.com
Pacific Atelier International,"735 Bishop Street, Ste. 309",Honolulu,HI,96813-4735,UNITED STATES,www.pacificatelier.com
Pacific Design Group,"265 Magnolia Ave , Ste 200",Larkspur,CA,94939-2084,UNITED STATES,www.pacificdesigngroup.com
"Pacific Design Systems, Inc.","6-52-303, Honcho, Naka-ku",Yokohama,,231-0005,JAPAN,www.pdsi.co.jp
Pacific Rim Architects,"16835 Algonquin St , Ste 268",Huntington Beach,CA,92649-3810,UNITED STATES,
Pacific Rim Architecture LLC,PO Box 2967,Wailuku,HI,96793-7967,UNITED STATES,
PACS Architecture,"153 W 27th St , Ste 606",New York,NY,10001-6256,UNITED STATES,www.pacsarch.com
PACt Design Studio,209A W Villa Maria Rd,Bryan,TX,77801-3030,UNITED STATES,www.pactdesignstudio.com
PACT Design Studio,P.O. BOX 1629,Bryan,TX,77806,UNITED STATES,www.pactdesignstudio.com
Pact Studios,8512 N 48th Cir,Omaha,NE,68152-1954,UNITED STATES,www.pact-studios.com
