Firm Name,Address Line 1,City,State,Zip Code,Country,Firm URL
Chipman Design Architecture,1350 E Touhy Ave Ste 100,Des Plaines,IL,60018-3303,UNITED STATES,www.chipmandesignarch.com/
"CHJ3 Architecture, Inc.",191 Bookers Ct,Oak Hill,VA,25405,UNITED STATES,www.chj3architecture.com
Cho & Urano,360 W Broadway #228,Salt Lake City,UT,84101,UNITED STATES,www.chourano.com
"Cho Benn Holback, A Quinn Evans Company","100 N Charles St , Fl 14",Baltimore,MD,21201-3805,UNITED STATES,www.quinnevans.com
Choate Associates Architects,1808 Sawtelle Blvd,Los Angeles,CA,90025-5516,UNITED STATES,www.choateassociates.com
Choctaw Construction Management,"11032 Quail Creek Road, Suite 155",Oklahoma City,OK,73120,UNITED STATES,
"Choeff Levy Fischman, P.A.","8425 Biscayne Blvd , Ste 201",Miami,FL,33138-3673,UNITED STATES,www.clfarchitects.com
Choi & Robles Architecture,2251 Harbor Bay Pkwy,Alameda,CA,94502-3026,UNITED STATES,www.cra-arch.com
"Choo & Company, Inc.",1 Billings Rd,Quincy,MA,02171-2456,UNITED STATES,www.choo-design.com
"Choo Architects, Inc.",Olympic-ro 8 Gil 32,Seoul,,92604-3653,"KOREA, SOUTH",
Chord Architecture,695 Calle Espejo,Santa Fe,NM,87505-4948,UNITED STATES,chordarchitecture.com
ChoShields Studio,388 Parkside Ave,Brooklyn,NY,11226-1406,UNITED STATES,www.choshields.com
"Choura Architecture, PC",1 Barker Ave,White Plains,NY,10601-1517,UNITED STATES,www.choura.com
Chow McDonough Architecture,PO Box 642906,Los Angeles,CA,90064-8317,UNITED STATES,
Choy Associates,901 El Centro St,South Pasadena,CA,91030-3179,UNITED STATES,www.cordovaarchitects.com
Choy Design,3035 Windsor Ave,Los Angeles,CA,90039-3035,UNITED STATES,
ChoyAssociates,PO Box 2778,Redondo Beach,CA,90278-8178,UNITED STATES,choyassociates.com
"Chrestia and Staub, Inc.",7219 Perrier St,New Orleans,LA,70118-3529,UNITED STATES,www.cspdesign.com
"Chris A. Rador, Architect Inc",1101 Westwood Dr,Plano,TX,75075-8501,UNITED STATES,www.architectplano.com
Chris Alan Lindsay Architect,850 Cleveland Rd,Bogart,GA,30622-6805,UNITED STATES,
Chris Blake Architect,150 Engle Street,Englewood,NJ,07631,UNITED STATES,www.chrisblakearchitect.com
Chris Chiei Architect LLC,"308 G St , Ste 302",Anchorage,AK,99501-2148,UNITED STATES,
Chris Cobb Architecture,720 S Lamar Blvd Ste B,Austin,TX,78704-1551,UNITED STATES,www.chriscobbarchitecture.com
Chris Dawson Architect,"300 N 2nd St , Ste 701",Harrisburg,PA,17101-1374,UNITED STATES,chrisdawsonarchitect.com
"Chris Dikeakos Architects, Inc.","3989 Henning Dr , Ste 212",Burnaby,BC,V5C 6P8,CANADA,www.dikeakos.com
"Chris Doehrmann Architect, Inc.",1500 21st Ave NW,New Brighton,MN,55112-5536,UNITED STATES,www.doehrmann.com
Chris Ferger Architects,226 Monticello Ave,Salisbury,MD,21801-6352,UNITED STATES,www.chrisfergerarchitects.com
Chris Ford Office,61 Olmsted Rd,Stanford,CA,94305-7173,UNITED STATES,
"Chris Hawley, Architect P.L.L.C.","2534 University Dr S , Ste 3",Fargo,ND,58103-5700,UNITED STATES,
Chris K. Greenwald AIA Architect,1233 Prospers Ln,Estes Park,CO,80517,UNITED STATES,www.candndesigns.com
Chris LaShorne Architecture,"323 State St , Apt 307",La Crosse,WI,54601-3337,UNITED STATES,www.chrislashornearchitects.com
Christensen Design Management,"PO Box 5068
1211 Mill Ave. Suite 205",Bellingham,WA,98227,UNITED STATES,www.masterplanning.com
Christiaan Semmelink AIA LEED AP,9 Pickering Way,Salem,MA,01970-5160,UNITED STATES,
Christian Bergum & Associates,"14450 Park Ave , Ste 140",Victorville,CA,92392-2901,UNITED STATES,
"Christian C. Carey, Architect, P.C.",PO Box 516,Stowe,VT,05672-0516,UNITED STATES,www.cccarchitect.com
"Christian Rae Studio, LLC",365 Center Rd,Easton,CT,06612-1605,UNITED STATES,www.christianraestudio.com
"Christian Rice Architects, Inc.",300 7th St,Coronado,CA,92118-2002,UNITED STATES,www.christianrice.com
Christian Zapatka Architect PLLC,1656 33rd St NW,Washington,DC,20007-2749,UNITED STATES,www.christianzapatka.com
"Christie & Christie, Inc",7539 131st Way,Seminole,FL,33776-3922,UNITED STATES,
Christina Amey Architect LLC,"761 Asbury Ave, Second Floor",Ocean City,NJ,08226,UNITED STATES,www.ameyarchitect.com
Christina Griffin Architect / CGA Studio,12 Spring Street,Hastings on Hudson,NY,10706,UNITED STATES,www.christinagriffinarchitect.com
"Christina Griffin Architect, P.C.",10 Spring St,Hastings On Hudson,NY,10706-1511,UNITED STATES,www.christinagriffinarchitect.com
"Christine Dandeneau, Architect",20 Coldstream Ln,Pinehurst,NC,28374-6864,UNITED STATES,www.dandeneauarchitecture.com
Christine G. H. Franck | STUDIO LLC,1200 S Williams St,Denver,CO,80210-1824,UNITED STATES,www.christinefranck.com
"Christine Gomes Shalloway, Architect",10248 Hunt Club Ln,Palm Beach Gardens,FL,33418-4573,UNITED STATES,www.cgsarchitects.net
"Christine Hennessey, AIA",1501 State Route 96,Victor,NY,14564-9645,UNITED STATES,www.flooraccents.com
"Christine M. Dayton Architect, P.A.",413B Needwood Ave,Easton,MD,21601-3436,UNITED STATES,www.cdaytonarchitect.com
Christine Matheu Architect,205 N College Ave Ste 010,Bloomington,IN,47404-3951,UNITED STATES,www.matheuarchitects.com
Christine Williamson LLC,115 S Clinton Ave,Dallas,TX,75208-5119,UNITED STATES,www.christine-williamson.com/
Christner Inc.,621 N SKINKER BLVD,Saint Louis,MO,63130,UNITED STATES,www.christnerinc.com
