Firm Name,Address Line 1,City,State,Zip Code,Country,Firm URL
Scarmack Architecture |:-),800 Valley View Dr NW,Lancaster,OH,43130-9102,UNITED STATES,www.scarmack.com
Scatterday Architecture,113 Edgwood St,Wheeling,WV,26003-6038,UNITED STATES,www.scatterdayarchitecture.com
Scattergood Design,"80 Middle St , Ste 212",Portland,ME,04101-4232,UNITED STATES,www.scattergooddesign.com
Scattergood Design,80 Middle St,Portland,ME,04101-4232,UNITED STATES,www.scattergooddesign.com
SCB,"625 N Michigan Ave, Suite 800",Chicago,IL,60611,UNITED STATES,www.scb.com
SCB,625 N Michigan Ave Ste 800,Chicago,IL,60611-3110,UNITED STATES,
SCB,"255 California St , Fl 3",San Francisco,CA,94111-4907,UNITED STATES,www.scb.com
SCDA Architects,8 Teck Lim Rd.,Singapore,,088385,SINGAPORE,scdaarchitects.com
SCDS Consulting Design,2518 W 157th St,Gardena,CA,90249-4627,UNITED STATES,www.santacruzcadd.net
"SCF Architecture, LLC",3515 Sunnyside Rd,Center Valley,PA,18034-8103,UNITED STATES,www.scf-arch.com
ScF Designs,264 S Van Pelt St,Philadelphia,PA,19103-4813,UNITED STATES,www.scf-designs.com
SCFelton Design,6 Bennett Ave,Lexington,MA,02421-6208,UNITED STATES,
Schachne Architects & Builders,10101 Sw 40Th St,Davie,FL,33328-2254,UNITED STATES,www.flbuilders.com
"Schadler Selnau Associates, PC",5 Waterville Rd,Farmington,CT,06032-1646,UNITED STATES,www.hsa-architects.com
Schaefer Architects,13446 N Lakewood Dr,Mequon,WI,53097-2411,UNITED STATES,
"Schaefer Johnson Cox Frey Architecture, Inc.",257 N Broadway Ave,Wichita,KS,67202-2303,UNITED STATES,www.sjcf.com
Schapiro Associates,1150 Kane Concourse Ste 300,Bay Harbor Islands,FL,33154-2046,UNITED STATES,www.schapiroassociates.com
Scharnett Associates Architects LLC,"118 W. Washington St., None",Bloomington,IL,61701,UNITED STATES,
Schatelier,5 Glen Dr,Center Barnstead,NH,03225-3325,UNITED STATES,
Schaub + Srote Architects,2900 S Brentwood Blvd,Brentwood,MO,63144-2714,UNITED STATES,www.schaubsrote.com
Schaub+Srote Architects,2900 S Brentwood Blvd,Brentwood,MO,63144-2714,UNITED STATES,www.schaubsrote.com
Schaum/Shieh Architects,"122 W 30th St , Rm 305",New York,NY,10001-4009,UNITED STATES,www.schaumshieh.com
Scheid Architectural,223 Taylor ST Ste 128,Punta Gorda,FL,33950-4453,UNITED STATES,
Schemata Architecture,360 Springfield Ave,Summit,NJ,07901-4608,UNITED STATES,www.schemataworkshop.com
Schemata Workshop,1720 12th Ave,Seattle,WA,98122,UNITED STATES,www.schemataworkshop.com/
Schemmer,1840 Northwest 118th Street,Clive,IA,50325,UNITED STATES,www.schemmer.com
Schemmer,1044 N 115Th St Ste 300,Omaha,NE,68154-4410,UNITED STATES,www.schemmer.com
"Schenkel + Shultz, Inc.",200 E Robinson St Ste 300,Orlando,FL,32801-1954,UNITED STATES,www.schenkelshultz.com
Schenkel Shultz,834 N Orange Ave,Winter Park,FL,32789,UNITED STATES,www.schenkelshultz.com
Schenkel Shultz - Orlando,"200 E Robinson St , Ste 300",Orlando,FL,32801-1954,UNITED STATES,www.schenkelshultz.com
Schenkel Shultz Architecture,200 E Robinson St,Orlando,FL,32801-1945,UNITED STATES,www.schenkelshultz.com
Schenkel Shultz Architecture,"5405 Cypress Center Dr , Ste 310",Tampa,FL,33609-1026,UNITED STATES,
Schenkel Shultz Architecture,"200 E Robinson St , Ste 300",Orlando,FL,32801-1954,UNITED STATES,www.schenkelshultz.com/
Schenkel Shultz Architecture,"3800 Paramount Pkwy , Ste 200",Morrisville,NC,27560-6950,UNITED STATES,www.schenkelshultz.com
Schenkel Shultz Architecture-Ft. Wayne,111 E Wayne St Ste 555,Fort Wayne,IN,46802-2600,UNITED STATES,
Schenkel Shultz Architecture-Orlando,200 E Robinson St Ste 300,Orlando,FL,32801-1954,UNITED STATES,www.schenkelshultz.com
SchenkelShultz Architecture,"9510 Corkscrew Palms Circle, #1",Estero,FL,33928,UNITED STATES,
"Schindler Architects, Inc.","2100 Coral Way, Suite 306",Miami,FL,33145,UNITED STATES,www.schindlerarchitects.com
"Schindler Architects, Inc.",2964 Aviation Ave,Coconut Grove,FL,33133-3862,UNITED STATES,www.schindlerarchitects.com
Schism Design Architecture & Interiors,938 MIller Ave,Los Angeles,CA,90063,UNITED STATES,www.schismdesign.com
Schizzo Architecture & Design,23 Ceiba St. Mansion Del Sur,Coto Laurel,PR,00780,UNITED STATES,
Schlegel Design Group,2845 Carroll Southern Rd,Carroll,OH,43112-9727,UNITED STATES,
Schley Architects,PO Box 19640,Kalamazoo,MI,49019-0640,UNITED STATES,www.schley-aia.com
"Schmid Architects, Inc.",422 Columbus Avenue,Sandusky,OH,44870,UNITED STATES,www.psdg.us
Schmidt Architecture,4380 Irvine Ave,Studio City,CA,91604-2704,UNITED STATES,www.schmidtarchitecture.com/
Schmidt Associates,415 Massachusetts Ave,Indianapolis,IN,46204-1501,UNITED STATES,www.schmidt-arch.com
"Schmidt Associates, Inc.",415 Massachusetts Ave,Indianapolis,IN,46204-1501,UNITED STATES,www.schmidt-arch.com
"Schneider & Coleman, Architects",5512 E 9th St,Tulsa,OK,74112-2941,UNITED STATES,
Schneider & Smith,833 S Center St,Royal Oak,MI,48067-3229,UNITED STATES,www.schneidersmith.com
Schneider Architects & Associates,20292 SW Cypress St,Newport Beach,CA,92660-0715,UNITED STATES,www.twincitiesmuskiesinc.org
