Firm Name,Address Line 1,City,State,Zip Code,Country,Firm URL
"Corner Stone Design, LLC",1009 4th ST,Platte City,MO,64079-9359,UNITED STATES,www.csdesignllc.com
Cornerstone Architects,"7000 FM 2244 Rd , Ste 200",Austin,TX,78746-5007,UNITED STATES,www.cgapartners.net
Cornerstone Architects Inc.,440 Bridge St NW,Grand Rapids,MI,49504-5322,UNITED STATES,www.cornerstone-arch.com
Cornerstone Architects PLC,211b W 7th ST,Richmond,VA,23224,UNITED STATES,www.csarch.com
Cornerstone Architectural Group,6161 Ne 175Th St Ste 101,Kenmore,WA,98028-4800,UNITED STATES,www.cornerstonearch.com
Cornerstone Architectural Group,202 Hamilton Blvd,South Plainfield,NJ,07080-3419,UNITED STATES,www.cornerstoneagllc.com
"Cornerstone Architecture, PLLC","1601 SW 89th St , Ste G100",Oklahoma City,OK,73159-6358,UNITED STATES,www.ca-ok.com
"Cornerstone Consulting Engineers & Architectural, Inc.",1176 N Irving St,Allentown,PA,18109-3498,UNITED STATES,cornerstonenet.com/
Cornerstone Design Architects,48-50 W Chestnut St,Lancaster,PA,17603-3791,UNITED STATES,www.cornerstonedesign.com
Cornerstone Design Inc.,"310 Depot St , Ste 2",Ann Arbor,MI,48104-1069,UNITED STATES,www.cdiarchitects.com
Cornerstone Designs Architects,1362 E 2nd St,Brooklyn,NY,11230-4602,UNITED STATES,
"Cornwell Architects, P.C.",3050 Sunset Lane,Traverse City,MI,49684,UNITED STATES,www.cornwell-architects.com
"Corporate Architectural Service, PC",1105 Foxtail Ct,Darien,IL,60561-3885,UNITED STATES,
"Corporate Design + Development Group, L.L.C.",2675 Pratum Ave,Hoffman Estates,IL,60192-3703,UNITED STATES,www.cdg-llc.com
Corporate Facilities Consultants,300 Lost District Dr,New Canaan,CT,06840-2014,UNITED STATES,
Corporate Facility Planning,6642 Deloache Ave,Dallas,TX,75225-2507,UNITED STATES,
Corpus Christi Total Design Four Inc,"5700 S Staples St , Ste F5",Corpus Christi,TX,78413-3784,UNITED STATES,
Corridor Architects LLC,6437 140th Ave,Holland,MI,49423-9760,UNITED STATES,www.corridorarchitects.com
Corsini Stark Architects,3630 Tyburn St,Los Angeles,CA,90065-1422,UNITED STATES,www.corsinistark.com
"Cortland Morgan, Architect, AIA",711 N Fielder Rd,Arlington,TX,76012-4636,UNITED STATES,
Cortner Architectural Company,1903 W 3rd Ave,Spokane,WA,99201-7615,UNITED STATES,www.cortner-ps.com
Corwin Eberting A I A E,"819 N Harbor Dr , Ste 360",Redondo Beach,CA,90277-2086,UNITED STATES,
Cory Smith Architecture,1049 Royal Bombay Ct,Naperville,IL,60563-2238,UNITED STATES,www.corysmitharchitecture.com
Coscia Moos Architecture,"1616 Walnut St , Ste 101",Philadelphia,PA,19103-5313,UNITED STATES,www.cosciamoos.com
Coscia Moos Architecture,"123 South Broad Street
Suite 220, South Lobby",Philiadelphia,PA,19109,UNITED STATES,www.cosciamoos.com
"Costa Brown Architecture, Inc.","1620 Montgomery St , Ste 300",San Francisco,CA,94111-1016,UNITED STATES,costa-brown.com/
COTERA+REED ARCHITECTS,"2010 East Sixth St., Ste. 200",Austin,TX,78702,UNITED STATES,www.coterareed.com
Cothran Harris Architecture,5725 Oleander Dr Ste E1,Wilmington,NC,28403-4746,UNITED STATES,www.cothranharris.com
"Cotner Associates, Inc.",9 S 3rd St,Fernandina Beach,FL,32034-4206,UNITED STATES,www.cotnerassociates.net
Cotten Architects,8206 Seashore Dr,Corpus Christi,TX,78412-5312,UNITED STATES,
"Cottle Carr Yaw Architects, Ltd.",PO Box 529,Basalt,CO,81621-0529,UNITED STATES,www.ccyarchitects.com
Cotton Fontana Architects,1430 Flower St,Glendale,CA,91201-2422,UNITED STATES,www.fontanaarchitects.com
COULSON,"132 E Superior St , Ste 3D",Duluth,MN,55802-2151,UNITED STATES,www.coulson.co
Coulter Architects,PO Box 2323,Chelan,WA,98816-2323,UNITED STATES,
Countryman&Co,"108 S Stanton, Third Floor",El Paso,TX,79901,UNITED STATES,www.countrymanandcoarchitecture.com
Coupard Architects & Builders,701 W. Broad Street #302,Falls Church,VA,22046,UNITED STATES,www.coupardarchitects.com
Court Atkins Architects,"29 Plantation Park Dr , Ste 504",Bluffton,SC,29910-9005,UNITED STATES,www.courtatkins.com/
Court Atkins Architects,PO Box 3978,Bluffton,SC,29910-3978,UNITED STATES,www.courtatkins.com
Courter Architects,245 Great Bay Blvd,Little Egg Harbor Twp,NJ,08087-2066,UNITED STATES,
"Courtney Christy Kelly, Architect, LLC",3748 N Woodridge Rd,Mountain Brk,AL,35223-2112,UNITED STATES,
"Courtney Design Group, LLC",464 Springfield Rd,Mount Pleasant,SC,29464-6225,UNITED STATES,
Courtney Harper + Partners,"3801 Kirby Dr , Ste 244",Houston,TX,77098-4159,UNITED STATES,www.courtneyharperpartners.com
"Couture Design Associates, Inc.","200 Allens Ave , Ste 5A",Providence,RI,02903-4943,UNITED STATES,www.couturedesignassociates.com
Covington Hendrix Anderson Architects,,,,,,
Covington Hendrix Architects,"360 Southport Cir , Ste 104",Virginia Beach,VA,23452-1180,UNITED STATES,www.covingtonhendrix.com
"Cowart Group, P.C.",5618 White Bluff Rd,Savannah,GA,31405-5520,UNITED STATES,www.cowartgroup.com
"Cowie Associates, P.C.","4400 MacArthur Blvd NW , Ste 300",Washington,DC,20007-2521,UNITED STATES,
"Cowperthwaite Architecture, LLC",PO Box 6324,Denver,CO,80206-0324,UNITED STATES,www.cowarch.com
Cox Design Associates,5121 Bee Caves RD Ste 203,Austin,TX,78746-5097,UNITED STATES,coxdesignassociates.com
Cox Graae & Spack Architects,2909 M St Nw,Washington,DC,20007-3714,UNITED STATES,www.cgsarchitects.com
