Firm Name,Address Line 1,City,State,Zip Code,Country,Firm URL
Brown Design,4726 129th Ave E,Edgewood,WA,98372-9200,UNITED STATES,
"Brown O'Dell & Partners Architects, P.C.",415 Church St NW,Huntsville,AL,35801-5573,UNITED STATES,www.boarchitects.com
"Brown Reynolds Watford Architects, Inc.",175 Century Square DR Ste 350,College Station,TX,77840-4163,UNITED STATES,www.brwarch.com
Brown Sprague LLC,117 Pennsylvania Ave,Bryn Mawr,PA,19010-3110,UNITED STATES,brownsprague.com
Brown Studio Architecture,401 Madison Ave,Montgomery,AL,36104-3629,UNITED STATES,www.brownstudio.com
brownarchitects,4310 Westside Dr,Dallas,TX,75209-6500,UNITED STATES,
Browne Group Architects,1351 King Ave,Columbus,OH,43212-2220,UNITED STATES,www.brownegroup.com
"Browne McGregor Architects, Inc.",520 Post Oak Blvd Ste 880,Houston,TX,77027-9479,UNITED STATES,www.bpmarch.com
Browning Day,626 N Illinois St,Indianapolis,IN,46204,UNITED STATES,
Browning Day,"626 N Illinois St, 623 E 11th St",Indianapolis,IN,46204-1239,UNITED STATES,www.browningday.com
Browning Day Mullins Dierdorf,626 N Illinois St,Indianapolis,IN,46204-1239,UNITED STATES,www.bdmd.com/
Browning Day Mullins Dierdorf Architects,626 N Illinois St,Indianapolis,IN,46204-1239,UNITED STATES,www.bdmd.com
Browning Moore Associates Inc,"210 South St , Ste 106",Bennington,VT,05201-2894,UNITED STATES,www.bma-architects.com
"Brownstone Architects & Planners, Inc.","750 Bering Drive
Suite 400",Houston,TX,77057,UNITED STATES,www.brownstonegroup.net
"BRPH Architects & Engineers, Inc.","5700 N Highway 1 , Ste 400",Melbourne,FL,32940-7265,UNITED STATES,www.brph.com
BRPH Architects - Engineers,2727 Paces Ferry Rd Se Bldg 1,Atlanta,GA,30339-4053,UNITED STATES,www.brph.com
BRPH Architects Engineers Inc,"3670 Maguire Blvd , Ste 300",Orlando,FL,32803-3012,UNITED STATES,www.brph.com
"BRPH Architects-Engineers, Inc.","5700 N Highway 1 , Ste 400",Melbourne,FL,32940-7265,UNITED STATES,www.brph.com
BRPH Companies,"1475 Centrepark Blvd , Ste 275",West Palm Beach,FL,33401-7446,UNITED STATES,www.brph.com
BRPH Companies,"One University Park, 12800 University Park Dr, Suite 625",Fort Myers,FL,33907,UNITED STATES,
BRPH Companies,"5700 N Highway 1 , Ste 400",Melbourne,FL,32940-7265,UNITED STATES,www.brph.com
BRR Architecture,400 Trabert Ave NW,Atlanta,GA,30309-2245,UNITED STATES,brrarch.com
BRR Architecture,"250 Sutter St , Ste 350",San Francisco,CA,94108-4463,UNITED STATES,
BRR Architecture,915 W Mary St,Austin,TX,78704-4141,UNITED STATES,www.brrarch.com
BRR Architecture,"700 SE 5th St , Ste 4",Bentonville,AR,72712-7598,UNITED STATES,www.brrarch.com
BRR Architecture,"8131 Metcalf Ave
Suite 300",Overland Park,KS,66204,UNITED STATES,www.brrarch.com
BRR Architecture,"3 Rector St , Ste 1",Philadelphia,PA,19127-1506,UNITED STATES,www.brrarch.com
BRR Architecture,8131 Metcalf Ave,Overland Park,KS,66204,UNITED STATES,www.brrarch.com
BRR Architecture,"600 Chestnut St., Suite 630",Philadelphia,PA,19106,UNITED STATES,www.brrarch.com
BRR Architecture,"1700 Pacific Avenue, Suite 4350",DALLAS,TX,75201,UNITED STATES,www.brrarch.com
BRR Architecture Inc.,8131 Metcalf Ave,Overland Park,KS,66204-3846,UNITED STATES,www.brrarch.com
"BRR Architecture, Inc","600 Chestnut St , Ste 630",Philadelphia,PA,19106-3414,UNITED STATES,www.brrarch.com/
"BRR Architecture, Inc.","2400 E Arizona Biltmore Cir , Ste 1360",Phoenix,AZ,85016-2196,UNITED STATES,www.brrarch.com
"BRR Architecture, Inc.",8131 Metcalf Avenue Suite 300,Overland Park,KS,66204,UNITED STATES,www.brrarch.com/
"BRR Architecture, Inc.",915 W Mary St,Austin,TX,78704-4141,UNITED STATES,www.brrarch.com
BRS Architects,"1010 S Allante Pl , Ste 100",Boise,ID,83709-1660,UNITED STATES,www.brsarchitects.com
"Brubaker Architects, Inc.",3460 N Soldier Trl,Tucson,AZ,85749-9099,UNITED STATES,www.brubakerarchitects.com
Bruce Becket and Associates,"2014 S Sepulveda Blvd , Ste 100",Los Angeles,CA,90025-5600,UNITED STATES,www.becketandassociates.com
Bruce Bolander,2710 Las Flores Canyon Rd,Malibu,CA,90265-3419,UNITED STATES,www.brucebolander.com
"Bruce Bond, Architect",609 N Buchanan St,Arlington,VA,22203-1426,UNITED STATES,
"BRUCE CARLSON AIA, Inc.",5851 SW 51st St,Miami,FL,33155-6319,UNITED STATES,
Bruce D. Robinson Design Group,28 W Central Pkwy,Cincinnati,OH,45202-2299,UNITED STATES,www.bdrdesign.com
"Bruce D. Turner, Architect",1889 Roosevelt Blvd,Vineland,NJ,08361-6558,UNITED STATES,www.usgbc.org
"Bruce D. Vander Wiele Architect, Inc.",260 NE 28th Rd,Boca Raton,FL,33431-6827,UNITED STATES,
Bruce Dammann Architect,"3620 30th St , Ste A",San Diego,CA,92104-3555,UNITED STATES,
Bruce Henderson Architects,162 Toorak Road,Melbourne,,3141,AUSTRALIA,
"Bruce J. Spiewak, AIA, Consulting Architect, LLC","375 Morgan Ln , Ste 405",West Haven,CT,06516-4159,UNITED STATES,www.conncode.com
Bruce Johnson Architecture,66 Forest Rd,Asheville,NC,28803-2941,UNITED STATES,www.brucejohnsonaia.com
Bruce Kahle-Architecture & Interiors,119 Jones Rd,Pine Bush,NY,12566-5301,UNITED STATES,
Bruce Logan W. Architect,1037 Sunset Rd,Napa,CA,94558-5315,UNITED STATES,
