Firm Name,Address Line 1,City,State,Zip Code,Country,Firm URL
"Dore & Whittier Architects, Inc.","260 Merrimac St , Ste 7",Newburyport,MA,01950-2192,UNITED STATES,www.doreandwhittier.com
"Dore & Whittier Architects, Inc.",212 Battery St,Burlington,VT,05401-5281,UNITED STATES,www.doreandwhittier.com
"Dore & Whittier, Inc.",260 Merrimac St,Newburyport,MA,01950-2192,UNITED STATES,www.doreandwhittier.com
Doreve Nicholaeff Architect,PO Box 1034,Osterville,MA,02655-1034,UNITED STATES,www.nicholaeff.com
Dorgan Architecture & Planning,10 Eastwood Rd,Storrs,CT,06268-2402,UNITED STATES,www.kdorgan.net
Doris Erdman Architect,1045 Seven Oaks Ln,Mamaroneck,NY,10543-4720,UNITED STATES,
"Dorland Carol Shelton, AIA, CCS, Architect",432 Meadow Hill Rd,Fort Worth,TX,76108-9518,UNITED STATES,
"Dorman Associates, Inc.",229 Flamingo Rd,Mill Valley,CA,94941-3603,UNITED STATES,www.dormanassociates.com
Dorschner/Associates Inc.,"122 E Washington Ave , Ste 100",Madison,WI,53703-4674,UNITED STATES,www.dorschnerassociates.com
"Dorsey Architects & Associates, Inc.",2301 1St Ave N Ste 101,Birmingham,AL,35203-4319,UNITED STATES,www.dorseyarchitects.com
Dorsky Yue International,6105 Parkland Blvd Suite 130,Cleveland,OH,44124,UNITED STATES,www.dorskyyue.com
Dorsky Yue International LLC,"101 NE 3rd Ave , Ste 500",Fort Lauderdale,FL,33301-1100,UNITED STATES,www.dorskyyue.com
Dorsky Yue International LLC,"101 NE 3rd Ave , Ste 500",Fort Lauderdale,FL,33301-1100,UNITED STATES,www.dorskyyue.com
Dorwin Thomas Architect,16900 S Tamiami Trl,Fort Myers,FL,33908-4509,UNITED STATES,
Double Jack Design Workshop PLLC,"230 E Superior St , Ste 102A",Duluth,MN,55802-2162,UNITED STATES,www.doublejackdesign.com
Doug Hanson Architecture Inc.,4507 North 2nd Ave,Phoenix,AZ,85013,UNITED STATES,.
Doug Mayo Architect,212 W Robert E Lee Blvd,New Orleans,LA,70124-2414,UNITED STATES,www.mayoarchitects.com
Doug Walton / Architect PLLC,4810 W University Ave,Las Vegas,NV,89103-3827,UNITED STATES,www.dwaltonarch.com
"Dougherty Architecture, PA","4475 Legendary Dr
Ste D",Destin,FL,32541-8602,UNITED STATES,www.doughertyarchitecture.com
Douglas A. McQuillan - Architect,820 Orange Blossom Way,Danville,CA,94526-4908,UNITED STATES,www.damcquillan.com
"Douglas A. Neal Architect, Inc",107 Marina Dr,Saint Simons Island,GA,31522-2242,UNITED STATES,
"Douglas Architects, Inc.","1320 E Houston St , Ste 102",San Antonio,TX,78205-2035,UNITED STATES,www.douglasarchitects.net
Douglas Architecture & Planning PC,4400 N Civic Center Plz,Scottsdale,AZ,85251-3593,UNITED STATES,www.douglasarchitects.com
"Douglas Burtu Kearley, Architect, Inc.",10 Wisteria Ave,Mobile,AL,36607-3102,UNITED STATES,www.kearleyarchitects.com
Douglas Charles Phillips Architect LLC,PO Box 724,Brownstown,PA,17508-0724,UNITED STATES,www.dcparchitect.com
Douglas Franz Architects,"4001 Westerly Pl , Ste 108",Newport Beach,CA,92660-2302,UNITED STATES,www.dfranzarchitects.com
Douglas Fredrikson Architects,"727 E Bethany Home Rd , Ste D123",Phoenix,AZ,85014-2194,UNITED STATES,dfarchitects.com
Douglas G. MacDuff AIA Architect,468 Webster St,Needham,MA,02494-1211,UNITED STATES,
Douglas Hassebroek Architect,993 Lorimer St,Brooklyn,NY,11222-2911,UNITED STATES,
"Douglas J. Coleman AIA Architect and Associates,LLC","266 King George Rd, King George Plaza",Warren,NJ,07059-5120,UNITED STATES,www.djcarchitecture.com
"Douglas J. Lister, Architect","95 Madison Avenue, Suite 1201",New York,NY,10016,UNITED STATES,www.djlister.com
Douglas Keys Architects,"5657 Wilshire Blvd , Ste 272",Los Angeles,CA,90036-3760,UNITED STATES,
"Douglas Mader, AIA",PO Box 187,Garrett Park,MD,20896-0187,UNITED STATES,
Douglas Meyer Architect,146 S Larchmont Blvd,Los Angeles,CA,90004-3709,UNITED STATES,www.dmeyerarchitect.com
"Douglas Moyer AIA Architect, PC",4284 Noyac Rd,Sag Harbor,NY,11963-2810,UNITED STATES,
Douglas P. Luna AIA/Architect,4155-B Black Point Road,Honolulu,HI,96816,UNITED STATES,
Douglas P. Murray Associates,287 High St,Abington,MA,02351-2370,UNITED STATES,
"Douglas Pancake Architects, Inc.","19000 MacArthur Blvd , Ste 500",Irvine,CA,92612-1460,UNITED STATES,www.pancakearchitects.com
"Douglas Peters, Architect","3810 Wilshire Blvd , Apt 1103",Los Angeles,CA,90010-3218,UNITED STATES,www.dp-arc.net/
"Douglas R. Hurlbert, Architect, PLLC",161 Carbandy Dr,Inman,SC,29349-7138,UNITED STATES,www.douglasrhurlbert.com
"Douglas R. Schotland Architect, LLC",131 E Delaware Ave,Pennington,NJ,08534-2304,UNITED STATES,drsarchitect.com
"Douglas Reynolds Architect, Inc","1765 Maple St , Ste 200",Northfield,IL,60093-3026,UNITED STATES,www.reynoldsarchitecture.com
Douglas Ruther Architect,"7714 N Eastlake Ter , Apt 2S",Chicago,IL,60626-7284,UNITED STATES,www.drutherarch.com
"Douglas Snider, Architect, P.C.","45 Hawthorne St , Ste 1",Medford,OR,97504-7166,UNITED STATES,www.douglassnider.com
"Douglas Stanton, Architects",401 N Robertson Blvd,West Hollywood,CA,90048-1735,UNITED STATES,
Douglas Teiger Consulting,1509 S Crest Dr,Los Angeles,CA,90035-3313,UNITED STATES,www.abramsonteiger.com
"Douglas Walker Companies, Inc.",5521 E 87th St,Tulsa,OK,74137-2958,UNITED STATES,www.douglaswalkercompanies.com
"Douglas/Crane Architects, Inc.","1146 N Central Ave , Ste 267",Glendale,CA,91202-2506,UNITED STATES,
Dov Hadas Architect pc,"70 E Sunrise Hwy , Ste 500",Valley Stream,NY,11581-1233,UNITED STATES,www.dovhadasarchitect.com
Dow Patterson Architect,1630 Lockhill Selma Rd,San Antonio,TX,78213-1929,UNITED STATES,www.tandtcleaning.net
