Firm Name,Address Line 1,City,State,Zip Code,Country,Firm URL
"Afterhours Design, PA",109 S 4th St,Bellevue,ID,83313-6038,UNITED STATES,
"AG Architects, PC",634 Central Ave,Dover,NH,03820-3414,UNITED STATES,www.agarchitects.com
AG Architecture,"1414 Underwood Ave , Ste 301",Wauwatosa,WI,53213-2653,UNITED STATES,www.agarch.com
AG Architecture,1414 Underwood Ave Ste 301,Wauwatosa,WI,53213-2653,UNITED STATES,www.agarch.com
AG/ENA,701 Laurel Rd,New Canaan,CT,06840-2721,UNITED STATES,
"AGA (Alimam Gonzalez Associates, Inc.)",1658 Autumn Breeze Ln,Lewisville,TX,75077-2428,UNITED STATES,
AGA Architects,"4040 Del Rey Ave , Ste 7A",Marina del Rey,CA,90292-5600,UNITED STATES,www.aga-architects.com
Agate Architecture,3360 Kincaid St,Eugene,OR,97405-4233,UNITED STATES,www.agatearchitecture.com
"Ageless Design, Inc.",212 Whitfield St,Guilford,CT,06437-3430,UNITED STATES,
Ageloff + Associates,"628 E 14th St , Apt 17",New York,NY,10009-3356,UNITED STATES,www.ageloff.com
Agencie Group,"211 SW 2nd St , Ste J",Fort Lauderdale,FL,33301-1820,UNITED STATES,
AGGA Architecture & Urban Design,602 S Harrison Ln,Denver,CO,80209-3519,UNITED STATES,
Aggregate Architecture and Design PLLC,"900 2nd St NE , Ste 218",Washington,DC,20002-3559,UNITED STATES,www.aggregatellc.com
"Ago Studios, Inc.",PO Box 6053,Eagle,CO,81631,UNITED STATES,www.agostudios.com/
"Agora Architectural Design, LLC.","800 Main St , Ste 308",Winfield,KS,67156-2860,UNITED STATES,www.agoraarchitecture.com
"Agora Architectural Design, LLC.","800 Main St , Ste 308",Winfield,KS,67156-2860,UNITED STATES,www.agoraarchitecture.com
AGP,"201 N Broadway St , Ste 210",Moore,OK,73160-5135,UNITED STATES,
"AGP Architect, P.C",4859 58th St,Woodside,NY,11377-5542,UNITED STATES,www.agparchitect.com
AGPS Architecture,6009 Rodgerton Dr,Los Angeles,CA,90068-1961,UNITED STATES,www.agps.ch/
Agrait Betancourt Arquitectos,1431 Ave Ponce De Leon Ste 502,San Juan,PR,00907-4039,UNITED STATES,
"Aguilar Architects, Inc.","30131 Town Center Dr , Ste 104",Laguna Niguel,CA,92677-2010,UNITED STATES,www.aguilararchitects.com
AH2 Studio,"760 Pilot House Dr , Ste D",Newport News,VA,23606-2068,UNITED STATES,
Ahearn & Kwock Architects,600 N 3rd St,San Jose,CA,95112-5119,UNITED STATES,www.japantownsanjose.org
"Ahern & Associates Architects, P.A.",2674 SE Willoughby Blvd,Stuart,FL,34994-4700,UNITED STATES,
AHL,,,,,UNITED STATES,https://www.ahl.design/
AHL,"733 Bishop Street
Suite 3100",Honolulu,HI,96813,UNITED STATES,https://www.ahl.design/
AHL,733 Bishop St. Suite 3100,Honolulu,HI,96813,UNITED STATES,www.ahl.design
"AHM Architects, LLC",281 Main St,Millburn,NJ,07041-1162,UNITED STATES,www.ahmarchitects.com
"AHM Architects, LLC","281 Main St , Ste 2",Millburn,NJ,07041-1110,UNITED STATES,www.ahmarchitects.com
Ahmann LLC,4408 Beechwood Rd,University Park,MD,20782-1129,UNITED STATES,ahmannarchitects.com
AHMM Architects,"2nd Floor, Block B, 5-23 Old Street",London,,ECIV 9HL,UNITED KINGDOM,www.ahmm.co.uk
"Aho Architects, LLC","1855 Data Drive, Suite 150",Hoover,AL,35244,UNITED STATES,www.ahoarch.com
ahp Architects,"116 John Street, Suite 115",Lowell,MA,01852,UNITED STATES,www.ahparchitects.com
ahp Architects Inc.,9 Gailor Ln,Hooksett,NH,03106-2132,UNITED STATES,www.ahparchitects.com
"AHT Architects, Inc.","2120 Wilshire Blvd , Ste 200",Santa Monica,CA,90403-5708,UNITED STATES,www.pettettarchitects.com
Ai,"2100 M St NW , Ste 800",Washington,DC,20037-1229,UNITED STATES,www.acelint.com
"Ai + Architecture, LLC",90 Belknap St,Concord,MA,01742-2302,UNITED STATES,www.ai-architecture.com
"Ai Collaborative, Inc.",1907 E 7Th Ave,Tampa,FL,33605-3809,UNITED STATES,www.aicoll.com
"ai Design Group, a Progressive AE company",330 S Tryon St Ste 500,Charlotte,NC,28202-2041,UNITED STATES,aidginc.com/
AI Spacefactory,"298 5th Ave , # 4FL",New York,NY,10001-4522,UNITED STATES,www.spacefactory.io
AI3,"916 Joseph E Lowery Blvd Nw, 1 Puritan Mill",Atlanta,GA,30318-5280,UNITED STATES,www.ai3online.com
Ai3 Architects LLC,"111 Speen Street, Suite 300",Framingham,MA,01701,UNITED STATES,www.ai3architects.com
"AI3, Inc.",1 Joseph E Lowery Blvd Nw,Atlanta,GA,30314,UNITED STATES,www.ai3online.com
Aiello Associates,"46 Bayard St , Ste 421",New Brunswick,NJ,08901-2152,UNITED STATES,www.aielloassociates.net
Ailtire Studio LLC,113 Arbor Blvd,Perkasie,PA,18944-1217,UNITED STATES,www.ailtirestudio.com
Ainslie Design,121 Nelson Rd,Ithaca,NY,14850-8926,UNITED STATES,
"Ainsworth Canizaro Design Concepts, PA","1030 Northpark Dr , Ste B",Ridgeland,MS,39157-5226,UNITED STATES,www.acdesignconcepts.com
AIP Architects,"3028 Mitchellville Rd , Ste 104",Bowie,MD,20716-6331,UNITED STATES,www.aiparchitects.org
"Aisha Densmore-Bey, Designer",PO BOX 990863,Boston,MA,02199-0863,UNITED STATES,www.aishadb.com
Aiton Anderson Architecture,P.O. Box 219,Black Mountain,NC,28711,UNITED STATES,www.aitonanderson.com
