Firm Name,Address Line 1,City,State,Zip Code,Country,Firm URL
"Zingrich and Associates, Architects",2250 Carlysle Cove Dr,Lawrenceville,GA,30044-2260,UNITED STATES,
"Zink and Associates, Inc.",713 Cherokee Dr,Fort Collins,CO,80525-1516,UNITED STATES,zinkandassociates.com/
Zinn Architecture + Design,"1022 Park St , Ste 407",Jacksonville,FL,32204-3921,UNITED STATES,www.officeofarchitecture.com
"Zipper Architecture, P.L.L.C.","1800 E Franklin St , Ste 25",Chapel Hill,NC,27514-5816,UNITED STATES,www.zipperarchitecture.com
"Zito Russell Architects, PC",820 S University Blvd Ste 2G,Mobile,AL,36609-7860,UNITED STATES,www.zitorussell.com
ZMM Architects and Engineers,222 Lee St W,Charleston,WV,25302-2225,UNITED STATES,www.zmm.com
ZMM Inc,222 Lee St W,Charleston,WV,25302-2225,UNITED STATES,www.zmm.com
"ZMM, Inc.","200 Country Club Dr Sw Bldg E, Plaza I, Building E",Blacksburg,VA,24060-5400,UNITED STATES,www.owpr.com
"ZMM, Inc.",222 Lee St W,Charleston,WV,25302-2225,UNITED STATES,www.zmm.com
"ZNA/ Zeybekoglu and Associates, Inc.","46 Waltham St , Ste 108",Boston,MA,02118-2176,UNITED STATES,www.znarch.com
Zody Architecture LLC,4004 SE Francis Street,Portland,OR,97202,UNITED STATES,www.zodyarch.com
Zoelly Ruegger Holenstein Architekten,Seestrasse 78,Erlenbach-Zurich,,8703,SWITZERLAND,www.zrh.ch
Zoller Associates Architects & Interior Designers,6375 McKown Rd,Sarasota,FL,34240-9676,UNITED STATES,www.zollerengineering.net
Zoller Autrey Architects PA,914 Tamiami Trl,Bradenton,FL,34205-6646,UNITED STATES,jnzarchitect.com
"Zona & Associates, P.A.",2600 Belfort Rd,Jacksonville,FL,32216-5302,UNITED STATES,www.zona-associates.com
ZP Architects Engineers,"2727 Bryant St , Ste 610",Denver,CO,80211-4153,UNITED STATES,www.zeilerpennock.com
ZPD+A,"67 E Madison St , Ste 1814",Chicago,IL,60603-3014,UNITED STATES,www.zpdarch.com
ZPD+A,"542 S Dearborn St , Ste 1400",Chicago,IL,60605-1564,UNITED STATES,www.zpdarch.com
ZS Architecture,75-6081 Alii Dr,Kailua Kona,HI,96740-2374,UNITED STATES,
Zubick Design,PO Box 931810,Los Angeles,CA,90093-1810,UNITED STATES,
Zumaooh,121 Theresa St,San Francisco,CA,94112-1931,UNITED STATES,www.zumaooh.com
Zwirko & Ortmann Architects,219 Pantigo Rd,East Hampton,NY,11937-6100,UNITED STATES,www.zoarchitects.com
Zyscovich,100 Biscayne Blvd Ste 2700,Miami,FL,33132-2306,UNITED STATES,zyscovich.com
Zyscovich Architects,"121 S Orange Ave , Ste 1500",Orlando,FL,32801-3241,UNITED STATES,
Zyscovich Architects PLLC,"270 Lafayette St , Ste 905",New York,NY,10012-3384,UNITED STATES,www.zyscovich.com
Zyscovich Inc.,"100 Biscayne Boulevard, 27th Floor",Miami,FL,33132,UNITED STATES,https://www.zyscovich.com
"Zyscovich, Inc.",100 Biscayne Blvd Fl 27,Miami,FL,33132-2304,UNITED STATES,www.zyscovich.com
"Ã¦ architecture, Inc.","7288 W Sunset Blvd , Ste 201",Los Angeles,CA,90046-3434,UNITED STATES,www.aeala.com
