Firm Name,Address Line 1,City,State,Zip Code,Country,Firm URL
ROMA Architecture,912 Roma Ave Nw,Albuquerque,NM,87102-1942,UNITED STATES,romaarc.com
ROMA Design Group,1527 Stockton St,San Francisco,CA,94133-3359,UNITED STATES,www.roma.com
Romano Architects,40 Triangle Ctr,Yorktown Heights,NY,10598-4188,UNITED STATES,
"Romberger Associates, Architects, PA",6486 Windover Way,Titusville,FL,32780-7414,UNITED STATES,www.romassoc.com
ROMD Architects,11815 Dinwiddie Dr,Rockville,MD,20852-4459,UNITED STATES,
Rome Office LLC,"400 N Peters St., Suite 212",New Orleans,LA,70130,UNITED STATES,www.romeoffice.us
Romero VanRell Jeng McMillen & Associates,415 West Pine Avenue,Longwood,FL,32750,UNITED STATES,rvja.co
Rommel Architectural Partnership,"1200 NW Naito Pkwy , Ste 550",Portland,OR,97209-2890,UNITED STATES,www.rommelarch.com
"Ron D'Aurelio, Architect",42 Cherry St,Milford,CT,06460-3413,UNITED STATES,www.arhouse.net
Ron Helton AIA Architect,"9433 FM 2244 Rd , Bldg 2",Austin,TX,78733-6135,UNITED STATES,www.qaconsultinginc.com
"Ron Hobbs Architecture & Interior Design, LLC.","614 Main St , Ste 200",Garland,TX,75040-6309,UNITED STATES,www.ronhobbsarchitects.net
"Ron Johnson, Inc.",4820 169th Ave SE,Snohomish,WA,98290-9360,UNITED STATES,
"Ron Kwaske, Architect","11 W Illinois St , Fl 4",Chicago,IL,60654-8173,UNITED STATES,www.kwaske.com
"Ron Shattil, AIA Architect",9200 Skyline Blvd,Oakland,CA,94611-1735,UNITED STATES,www.shattil.com
"Ron Wright & Associates/Architects, P.S.",2003 Western Ave Ste 610,Seattle,WA,98121-3133,UNITED STATES,www.rwaa.com
"Ron Yeo, FAIA, Architect",500 Jasmine Ave,Corona del Mar,CA,92625-2308,UNITED STATES,
"Rona G. Rothenberg, FAIA, Architect",1307 Broadway,Alameda,CA,94501-4619,UNITED STATES,
Ronald Anthony Posey AIA & Associates,121 W 48th St,Kansas City,MO,64112-2678,UNITED STATES,
Ronald B. Kull FAIA,"900 Adams Crossing , Ste 4600",Cincinnati,OH,45202-1675,UNITED STATES,
"Ronald Berlin Architect, P.C.",245 Jefferson Rd,Princeton,NJ,08540-3417,UNITED STATES,www.ronaldberlin.com
Ronald D. Sipe Architect,31 Cherry Hills E,Abilene,TX,79606-5114,UNITED STATES,
Ronald D. Victorio R.A.,694 Forest Ave,Staten Island,NY,10310-2508,UNITED STATES,www.statenlaw.com
ronald e dulaney architect,1705 Lakeside Vlg,Morgantown,WV,26508-5612,UNITED STATES,www.redarchitecture.com
Ronald E Zocher Architect,9 Shore Dr,Branford,CT,06405-4734,UNITED STATES,
Ronald E. Rheaume Architect,4 Hidden Hollow Dr,Trenton,NJ,08620-9513,UNITED STATES,www.ronrheaume.com
"Ronald F. DiMauro Architects, Inc.",11 Howland Ave,Jamestown,RI,02835-1212,UNITED STATES,www.rondimauroarchitects.com
"Ronald Frink Architects, Inc.",12 Valverde Lane,Santa Fe,NM,87506,UNITED STATES,www.rfa-architects.com
"Ronald H. Albert, AIA-Architect",69 Island Rd,Lunenburg,MA,01462-1169,UNITED STATES,
"Ronald H. Banco, Architect","4695 MacArthur Ct , Fl 11",Newport Beach,CA,92660-1882,UNITED STATES,
Ronald Kuoppala Architecture,48 McKinley Steeet,Massapequa Park,NY,11762,UNITED STATES,
"Ronald L. Grimes, Architect, PC",14 N Central Ave Ste 106,Medford,OR,97501-5912,UNITED STATES,www.medforddesignarchitect.com
Ronald Lu & Partners (Hong Kong) Ltd.,"33/F, Wu Chung House,, 213 Queen's Road East,",Wanchai,,,CHINA,
Ronald Lu & Partners HK Ltd.,"33/F, Wu Chung House,, 213 Queen's Road East, Wanchai,",Hong Kong,,,CHINA,www.rlphk.com
"Ronald M. Schneider & Associates, LLC",1263 River Ave,Lakewood,NJ,08701-5666,UNITED STATES,www.archrms.com
"Ronald M. Schneider & Associates, LLC",PO Box 612,Howell,MI,48844-0612,UNITED STATES,
Ronald Mark Fuote Architect Inc.,6641 Santa Susana Pass Rd,Simi Valley,CA,93063-4921,UNITED STATES,
"Ronald Meeks, Architect",404 Central Ave,Cranford,NJ,07016-2304,UNITED STATES,
"Ronald S. Lawson, Architect",167 Rue Chene,Crowley,LA,70526-0846,UNITED STATES,
"Ronald S. Omilian, Architect",1435 Grayton St,Grosse Pointe Park,MI,48230-1129,UNITED STATES,www.omilianmorin.com
"Ronald W. Gell, AIA Architect",157 Jefferson Ct,Norristown,PA,19401-1860,UNITED STATES,
Ronan Associates Inc.,316 Lagoon Dr,Copiague,NY,11726-5409,UNITED STATES,
"Ronda H. Wang, AIA",2007 Ottawa Ln,Houston,TX,77043-2412,UNITED STATES,www.usebluebox.com
Ronnette Riley Architect,"494 8th Ave , Fl 15",New York,NY,10001-2557,UNITED STATES,www.ronnetteriley.com
Roof Consultants,PO BOX 54197,Tulsa,OK,74155-4197,UNITED STATES,www.roofnowoklahoma.com
"Rooks Environmentally Conscious Architecture, PC",2382 Van Dyke St,Conklin,MI,49403-9596,UNITED STATES,
Roost Architecture Inc.,151 S Hanover St,Carlisle,PA,17013,UNITED STATES,www.roostarchitecture.com
Root Architects,810 Texas Ave,El Paso,TX,79901-1504,UNITED STATES,www.arcroot.com
Root Architects,1006 Madeline Dr,El Paso,TX,79902-2408,UNITED STATES,www.rootarc.com
Root Architects Inc.,"311 Montana Avenue, Suite #A2-100",El Paso,TX,79902,UNITED STATES,
Root Rosenman Architects,2190 E 17th Ave,Denver,CO,80206-1126,UNITED STATES,
