Firm Name,Address Line 1,City,State,Zip Code,Country,Firm URL
"Phillips Sekanick Architects, inc.",142 E Market St,Warren,OH,44481-1121,UNITED STATES,www.phillips-sekanick.com
Phillips Win Architecture,3032 Magnolia St,Oakland,CA,94608-4447,UNITED STATES,www.phillipswin.com
"Phillips/Ryburn Associates, Inc.","4305 MacArthur Ave , Ste K",Dallas,TX,75209-6543,UNITED STATES,
"Phillips/Sekanick Architects, Inc",142 E Market St,Warren,OH,44481-1121,UNITED STATES,phillips-sekanick.com
"Phillips/Sekanick Architects, Inc.",142 E Market St,Warren,OH,44481-1121,UNITED STATES,www.phillips-sekanick.com
Philo Wilke Partnership,11275 S Sam Houston Pkwy W Ste 200,Houston,TX,77031-2358,UNITED STATES,www.pwarch.com/
PhiloWilke Partnership,"11275 S Sam Houston Pkwy W , Ste 200",Houston,TX,77031-2358,UNITED STATES,www.pwarch.com
PhiloWilke Partnership,11275 S Sam Houston Pkwy W Ste 200,Houston,TX,77031-2358,UNITED STATES,www.pwarch.com
Phinney Design Group,142 Grand Ave,Saratoga Springs,NY,12866-4016,UNITED STATES,www.phinneydesign.com
PHN Architects,"2280 White Oak Cir , Ste 100B",Aurora,IL,60502-4802,UNITED STATES,www.williams-architects.com
Phog Architecture,PO Box 332,Gallatin Gateway,MT,59730-0332,UNITED STATES,
"Phorma Designs, Inc.",2000 McDonough P.O. Box 2098,Joliet,IL,60434,UNITED STATES,www.phormadesigns.com
PHX Architecture,15990 N Greenway Hayden Loop Ste C-100,Scottsdale,AZ,85260-1763,UNITED STATES,phxarch.com
Pi Architects,"6010 Balcones Dr , Ste 200",Austin,TX,78731-4297,UNITED STATES,www.piarch.com
PI.KL Studio,1916 Fleet St,Baltimore,MD,21231-3021,UNITED STATES,www.piklstudio.com
Piazza Architecture Planning,"847 Galvez St , Ste 200",Mandeville,LA,70448-4948,UNITED STATES,www.usgbc.org
Piches Architecture,115 Taylor St,Roseville,CA,95678-2624,UNITED STATES,www.pichesarchitecture.com
Pickard Chilton,980 Chapel St,New Haven,CT,06510-2515,UNITED STATES,www.pickardchilton.com
Pickard Chilton,980 Chapel St,New Haven,CT,06510-2515,UNITED STATES,www.pickardchilton.com
Pickard Chilton,980 Chapel St,New Haven,CT,06510-2515,UNITED STATES,www.pickardchilton.com
Pickard Chilton Architects,980 Chapel St,New Haven,CT,06510-2515,UNITED STATES,www.pickardchilton.com/
"Pickell Architecture, LLC",115 Main St,Flemington,NJ,08822-1679,UNITED STATES,www.pickellarchitecture.com
Pickering Architects,14 Prospect Ave,Sag Harbor,NY,11963-3111,UNITED STATES,
Pickering Associates,11283 Emerson Ave,Parkersburg,WV,26104-8572,UNITED STATES,www.pickeringusa.com
Pickering Associates Inc,"320 Adams St , Ste 102",Fairmont,WV,26554-3174,UNITED STATES,www.pickeringusa.com
"Pickering Associates, Inc.","318 Lee St W , Ste 200",Charleston,WV,25302-2136,UNITED STATES,www.pickeringusa.com
"Pickering Firm, Inc.","6363 Poplar Avenue
Suite 300",Memphis,TN,38119,UNITED STATES,www.pickeringfirm.com
"Pickering Firm, Inc.",6363 Poplar Ave Ste 300,Memphis,TN,38119-4848,UNITED STATES,www.pickeringfirm.com
"Piedmont Geotechnical, Inc.",14735 Wrights Ln,Waterford,VA,20197-1601,UNITED STATES,
"Piekarz Associates, P.C.",2880 N Elston Ave,Chicago,IL,60618-7906,UNITED STATES,www.piekarz.com
Pieper O'Brien Herr,800 Vinial St Ste B314,Pittsburgh,PA,15212-5152,UNITED STATES,www.poharchitects.com
Pieper O'Brien Herr Architects,"800 Vinial St , Ste B314",Pittsburgh,PA,15212-5152,UNITED STATES,www.poharchitects.com
"Pieper O'Brien Herr Architects, Ltd.",3000 Royal Blvd S,Alpharetta,GA,30022-4432,UNITED STATES,poharchitects.com
Pier Fine Associates,18 E 16Th St Rm 501,New York,NY,10003-3111,UNITED STATES,www.pierfine.com
Pierce & Cooley Architects,11871 Gonsalves St,Cerritos,CA,90703-7522,UNITED STATES,www.piercecooley.com
Pierce Architects,"1650 Fallridge Rd , Apt C-1",Vail,CO,81657-3957,UNITED STATES,www.vailarchitects.com
Pierce Austin Architects,"2077 N Frontage Rd W, Unit G",Vail,CO,81657,UNITED STATES,www.vailarchitects.com
Pierce Goodwin Alexander Linville (PGAL),"791 Park of Commerce Blvd , Ste 400",Boca Raton,FL,33487-3630,UNITED STATES,www.pgal.com
Pierce Lamb Architects,128 Westland Ave,West Newton,MA,02465,UNITED STATES,www.piercelambarchitects.com/index.html
Pierce Lamb Architects,1075 Washington St,Newton,MA,02465-2185,UNITED STATES,www.piercelambarchitects.com
"Pieri + Associates, PSC","100 Boulevard Gran Paseo, Suite 112, MSC 390",San Juan,PR,00926,UNITED STATES,www.pieriarchitects.com
Pierluigi Serraino Architecture LLP,502 Lagunaria Ln,Alameda,CA,94502-6705,UNITED STATES,www.pierluigiserraino.com
Piero F. Gabucci Architect LLC,539 Laurel Rd,Ridgewood,NJ,07450-5211,UNITED STATES,
Pierz Associates,115 Garden St,Wethersfield,CT,06109-3116,UNITED STATES,
Pigeon-Studio LLC,"18 W 18th St , Fl 5",New York,NY,10011-4653,UNITED STATES,
"Pike McFarland Hall Associates, Inc.",1300 Professional Dr Ste 201,Myrtle Beach,SC,29577-5768,UNITED STATES,www.pmharchitects.com
"Pili Design + Build, LLC","2070 W Vineyard St , Ste 6",Wailuku,HI,96793-1699,UNITED STATES,www.pilidesignbuild.com
Pill-Maharam Architects,PO Box 1300,Shelburne,VT,05482-1300,UNITED STATES,www.pillmaharam.com
Pilot Corporation,5508 Lonas Dr,Knoxville,TN,37909-3221,UNITED STATES,www.pilotflyingj.com
"Pilot Development Partners, Inc.","6 Pleasant St , # 508",Malden,MA,02148-5100,UNITED STATES,www.pilotdevelopment.com
