Firm Name,Address Line 1,City,State,Zip Code,Country,Firm URL
LRK Inc.,"671 Front St , Ste 220",Celebration,FL,34747-4973,UNITED STATES,www.lrk.com
LRK Inc.,"1680 Lobdell Ave , Ste E",Baton Rouge,LA,70806-8273,UNITED STATES,
"LRK, Inc","150 S. Independence Mall West, Public Ledger Building Suite 756",Philadelphia,PA,19106,UNITED STATES,www.lrk.com
"LRK, Inc.",175 Toyota Plz Ste 500,Memphis,TN,38103-2518,UNITED STATES,www.lrk.com
"LRK, Inc.","200 River Market Ave , Ste 300",Little Rock,AR,72201-1770,UNITED STATES,www.lrk.com
LRM Architect,PO Box 224,Delhi,NY,13753-0224,UNITED STATES,
LRS Architects,720 Nw Davis St Ste 300,Portland,OR,97209-3664,UNITED STATES,www.lrsarchitects.com
"LS Architecture, PC",PO Box 127,Manhattan,MT,59741-0127,UNITED STATES,www.loveschackarchitecture.com
LS Design Group,109 Pineur Road,Richmond,KY,40475,UNITED STATES,www.lsdesigngroup.biz
LS3P,14 O'Henry Avenue,Asheville,NC,28801,UNITED STATES,www.ls3p.com
LS3P,3067 Deville Street,Myrtle Beach,SC,29577,UNITED STATES,www.ls3p.com
LS3P,"227 West Trade Street, Suite 700",Charlotte,NC,28202,UNITED STATES,www.ls3p.com
LS3P,"2 W Washington St , Ste 600",Greenville,SC,29601-2774,UNITED STATES,www.ls3p.com
LS3P,"101 N 3rd St , Ste 500",Wilmington,NC,28401,UNITED STATES,www.ls3p.com
LS3P,"227 W Trade St., #700",Charlotte,NC,28202,UNITED STATES,www.ls3p.com
LS3P,"321 West Congress Street, Suite 301",Savannah,GA,31401,UNITED STATES,www.ls3p.com
LS3P,"227 W. Trade Street, Suite 700",Charlotte,NC,28202,UNITED STATES,www.ls3p.com
LS3P,"421 North Harrington Street
Suite 700",Raleigh,NC,27603,UNITED STATES,www.ls3p.com
LS3P,701 Lady ST Ste A,Columbia,SC,29201-3077,UNITED STATES,www.ls3p.com
LS3P Associates Ltd.,"227 West Trade St., suite 700",Charlotte,NC,28202,UNITED STATES,www.ls3p.com
"LS3P Associates, LTD.",205 1/2 King St,Charleston,SC,29401-3129,UNITED STATES,www.ls3p.com
"LS3P Associates, Ltd.",205 1/2 King ST,Charleston,SC,29401-3129,UNITED STATES,www.ls3p.com
"LS3P Associates, Ltd.",205 1/2 King Street,Charleston,SC,29401,UNITED STATES,www.ls3p.com
"LSA Design, Inc.","120 S 6th St , Ste 1700",Minneapolis,MN,55402-1819,UNITED STATES,
"LSC Design, Inc.",320 N George St Ste 100,York,PA,17401-5314,UNITED STATES,www.lscdesign.com
"LSE Architects, Inc.",1401 Glenwood Avenue,Minneapolis,MN,55405,UNITED STATES,www.lse-architects.com
LSM,22 W 19th St,New York,NY,10011,UNITED STATES,
LSW Architects,610 Esther St Ste 200,Vancouver,WA,98660,UNITED STATES,www.lsw-architects.com
LSW Architects,"610 Esther Street, Suite 200",Vancouver,WA,98660,UNITED STATES,www.lswarchitects.com
LSW Architecture,201 N Colonial Rdg,Moorestown,NJ,08057-1630,UNITED STATES,www.lswarchitecture.com
LSY Architects,"8484 Georgia Ave , Ste 650",Silver Spring,MD,20910-5672,UNITED STATES,www.lsyarchitects.com
LSY Architects & Laboratory Planners,"8484 Georgia Ave , Ste 650",Silver Spring,MD,20910-5672,UNITED STATES,www.lsyarchitects.com/
LT Architecture,1400 Hartford Ave,Charlotte,NC,28209-2757,UNITED STATES,www.ltarch-pllc.com
"LTBa, LLC",235 Krameria St.,Denver,CO,80220,UNITED STATES,
"LTL Architects, PLLC","11 Broadway, Suite 1530",New York,NY,10004,UNITED STATES,www.ltlarchitects.com
"Lubrano Ciavarra Architects,PLLC","45 Main St, Studio 1016",Brooklyn,NY,11201-1000,UNITED STATES,www.lcnyc.com
Luca Construction and Design,1026 Lakeside Dr,Mc Donald,PA,15057-3055,UNITED STATES,www.lucaconstruction.com
Lucas Associates Architects PC,1505 Berwick Rd,Ruxton,MD,21204-6511,UNITED STATES,www.lucasarchitects.com
Luce Architects,5502 Easton Rd,Doylestown,PA,18902,UNITED STATES,www.lucearchitects.com
Lucilla Schiraldi Residential Design,602 Sonrisa St,Solana Beach,CA,92075-2437,UNITED STATES,
Luckenbach/Ziegelman Architects PLLC,36800 Woodward Ave Ste 100,Bloomfield Hills,MI,48304-0916,UNITED STATES,lzarch.com
Luckett & Associates,1048 E. Chestnut Street,Louisville,KY,40204-1019,UNITED STATES,www.luckett.us
Luckett & Farley,737 S 3rd St,Louisville,KY,40202-2483,UNITED STATES,www.luckett-farley.com
Luckett & Farley,737 S 3rd St,Louisville,KY,40202-2483,UNITED STATES,www.luckett-farley.com
Luckett & Farley Architects,737 S 3Rd St,Louisville,KY,40202-2101,UNITED STATES,www.luckett-farley.com
Luckett and Farley,737 S 3rd St,Louisville,KY,40202-2483,UNITED STATES,www.luckett-farley.com
"Lucy C. Williams, Architect",13281 Takara Dr.,Saint Louis,MO,63131,UNITED STATES,www.lucywilliamsarchitecture.com
Lucy Design Associates,1856 Lancaster Rd.,Birmingham,AL,35209-2576,UNITED STATES,www.timlucydesign.com
Luddeke : ADG,"518 S Enterprize Pkwy , Ste C",Corpus Christi,TX,78405-3900,UNITED STATES,
Ludwig Steel Buildings,P. O. Box 23142,Harahan,LA,70123,UNITED STATES,
