Firm Name,Address Line 1,City,State,Zip Code,Country,Firm URL
FS Group Architects,"9111 Katy Fwy , Ste 307",Houston,TX,77024-1615,UNITED STATES,www.fsdesignbuild.com
FS&L Architects,"1600 Genessee St , Ste 837",Kansas City,MO,64102-1103,UNITED STATES,www.fslarch.com
"FSA, LLC",12209 Big Bend RD,Saint Louis,MO,63122-6837,UNITED STATES,www.fsastl.com
FSB,"5801 Broadway Ext , Ste 500",Oklahoma City,OK,73118,UNITED STATES,www.fsb-ae.com/
FSC Architects,32 Merchant St Ste 204B,Honolulu,HI,96813-4308,UNITED STATES,www.fscarchitects.com
"FSEC, Inc.",PO Box 802905,Santa Clarita,CA,91380-2905,UNITED STATES,
FSI Architecture,"307 7th Ave , Rm 1001",New York,NY,10001-6055,UNITED STATES,www.fsi-architecture.com
"FSI Form Space Image Architecture, PC","307-7th Avenue, Suite 1001",New York,NY,10001,UNITED STATES,www.fsi-architecture.com
"FSY Architects, Inc.","2902 Knox Ave , Fl 2",Los Angeles,CA,90039-3435,UNITED STATES,www.fsyarchitects.com
"FSY Architects, Inc.",2902 Knox Ave FL 2nd,Los Angeles,CA,90039-3435,UNITED STATES,www.fsyarchitects.com
"FTA Design Studio, Inc.","400 E Royal Ln , Ste 208",Irving,TX,75039-3512,UNITED STATES,www.fernando-teruya.com
FTC Architects PC,PO Box 864,Georgetown,TX,78627-0864,UNITED STATES,www.ftcarch.com
FTL Design Engineering Studio,44 East 32nd St Third Fl,New York,NY,10016,UNITED STATES,www.ftlstudio.com
Fu Wilmers Architects PLLC,"101 Warren St , Fl 19",New York,NY,10007-1366,UNITED STATES,fuwilmersdesign.com
Fu Wilmers Design,"101 Warren St , Apt 1920",New York,NY,10007-1371,UNITED STATES,www.fuwilmersdesign.com
Fucello Architects,"4200 N Marshall Way , Ste 10",Scottsdale,AZ,85251-3223,UNITED STATES,www.fucelloarchitects.com
Fuel Architects,350 Birch St,Denver,CO,80220-4948,UNITED STATES,ww.fuelarchitects.com
Fuel Design Collaborative,"17 N State St , Ste 1350",Chicago,IL,60602-2012,UNITED STATES,www.bxstudios.com
"fuentesdesign, LLC","1301 Yellow Pine Ave , Unit C",Boulder,CO,80304-0886,UNITED STATES,www.fuentesdesign.com
Fugleberg Koch Architects,2555 Temple Trl,Winter Park,FL,32789-1110,UNITED STATES,www.fuglebergkoch.com
Fujita + Netski Architecture LLC,1060 Noio St,Honolulu,HI,96816-5117,UNITED STATES,www.fujitanetski.com
Fukui Architects,205 Ross ST FL 2,Pittsburgh,PA,15219-2029,UNITED STATES,www.farpc.com
Fukui Architecture,"300 E Pike St , Ste 1000",Seattle,WA,98122-3695,UNITED STATES,
Fulcrum Consulting Services,207 E Magnolia Ave,La Feria,TX,78559,UNITED STATES,
Fulcrum Design Group,701 New England Road,Cape May,NJ,08204,UNITED STATES,www.fulcrumdesigngroup.com
"Full Circle Architects, LLC",737 Saint Johns Ave,Highland Park,IL,60035-4650,UNITED STATES,www.fullcirclearchitects.com
Full Circle Architecture,6228 Perrin Dr,Crestwood,KY,40014-8983,UNITED STATES,
"Fuller & D'Angelo, P.C. Architects",45 Knollwood Rd,Elmsford,NY,10523-2815,UNITED STATES,fullerdangelo.com
Fuller & Sadao PC,3338 10th St,Long Island City,NY,11106-4909,UNITED STATES,
Fuller Architects,"326 W 1st North St , # A",Morristown,TN,37814-4639,UNITED STATES,
"Fuller Architecture, Inc.","68 Court Sq , Ste 200",Mocksville,NC,27028-2415,UNITED STATES,www.fullerarchitecture.com
Fuller Fuller & Associates,3320 E 2nd Ave,Denver,CO,80206-5302,UNITED STATES,fullerarch.com
"Fullerton Architects, PC",PO Box 2770,Bigfork,MT,59911-2770,UNITED STATES,www.nfullerton.com
Fultz & Singh Architects,3412 W Leigh St Suite 200,Richmond,VA,23230,UNITED STATES,www.fultzsingharchitects.com
"Fumo & Associates, Inc.","101 Route 130 S , Ste 401",Cinnaminson,NJ,08077-2842,UNITED STATES,www.fumoassociates.com
"FUNChitecture, LLC","111 E Court St , Ste 3D",Flint,MI,48502-1649,UNITED STATES,www.funarchitecture.com
"Funes Architecture, inc.",5812 Compass Dr,Los Angeles,CA,90045-1704,UNITED STATES,
"Fung + Blatt Architects, Inc.",3927 N Figueroa St,Los Angeles,CA,90065-3007,UNITED STATES,www.fungandblatt.com
Fung Associates,"1600 Kapiolani Blvd, #1700",Honolulu,HI,96814,UNITED STATES,www.funghawaii.com
Funktion Design Studio,207 Windtree Dr,Wausau,WI,54401-4813,UNITED STATES,www.funktiondesignstudio.com
Fuqua & Partners Architects PC,100 Church St Sw Ste 700,Huntsville,AL,35801-4962,UNITED STATES,www.fuquaarchitects.com
Fuqua and Partners Architects,"100 Church St SW , Ste 700",Huntsville,AL,35801-4962,UNITED STATES,www.fuquaarchitects.com
Furbush Architect,PO Box 619,Hunt,TX,78024-0619,UNITED STATES,
Furkis Architectural Consulting,8013 Smith Rd,Berrien Center,MI,49102-9729,UNITED STATES,www.furkis.com
Furman & Furman Architects,"180 Varick St , Rm 910",New York,NY,10014-5479,UNITED STATES,www.ffarch.com
Furman + Keil Architects,"1211 E. 11th St, Ste. 200",Austin,TX,78702,UNITED STATES,www.fkarchitects.net
"Furman Architects, Inc.","129 Oregon Ave , Ste 100",Greenwood,SC,29646-2273,UNITED STATES,www.furmanarchitects.com
"Furr & Wegman Architects, P.A.",625 E Orange St,Lakeland,FL,33801-5027,UNITED STATES,www.furrandwegman.com
Further Architecture Office PLLC,626 Huntington Road,Stratford,CT,06614,UNITED STATES,www.furtherarchitecture.com
"Fusch Architects, Inc.","4308 Avondale Ave , Ste 200",Dallas,TX,75219-3177,UNITED STATES,www.fuscharchitects.com
