Firm Name,Address Line 1,City,State,Zip Code,Country,Firm URL
"Troy D. Rhodes & Company, Inc.","4323 NW 63rd St , Ste 201",Oklahoma City,OK,73116-1513,UNITED STATES,www.troydrhodes.com
"Troy Mock Architects, LLC",107 W Church St,Libertyville,IL,60048-2149,UNITED STATES,www.troymarkarchitects.com
"Trudeau Architects, pllc",219 Forts Ferry Rd,Latham,NY,12110-1208,UNITED STATES,www.truarchs.com
Trudeau/Architects,219 Forts Ferry Rd,Latham,NY,12110-1208,UNITED STATES,www.truarchs.com
TRUDEAUarchitects PLLC,219 Forts Ferry Rd,Latham,NY,12110-1208,UNITED STATES,www.truarchs.com
True Craft Architects,8224 Argosy Ct,Baton Rouge,LA,70809-1242,UNITED STATES,www.truecraftarchitects.com
Trueb Architecture Service,1040 Linkside Dr,Birmingham,AL,35242-6429,UNITED STATES,stevetrueb.com
Truex Cullins,209 Battery St,Burlington,VT,05401-5261,UNITED STATES,www.truexcullins.com
TruexCullins Architecture + Interior Design,209 Battery St Ste 201,Burlington,VT,05401-5261,UNITED STATES,www.truexcullins.com
"Trull-Hollensworth, Architects, Inc.",804 N Jackson,Magnolia,AR,71753-2444,UNITED STATES,
"Truman Howell Architects & Associates, Inc.",206 Chelsea Rd,Monticello,MN,55362-8919,UNITED STATES,www.th-arch.com
"Truth Box, Inc.","460 Harris Ave , Unit 104",Providence,RI,02909-1089,UNITED STATES,www.truthbox.com
Tryba Architects,312 Main Street,Fort Worth,TX,76102,UNITED STATES,
Tryba Architects,1620 N Logan St,Denver,CO,80203-1216,UNITED STATES,www.trybaarchitects.com
TS Adams Studio,2969 Hardman Ct NE,Atlanta,GA,30305-3424,UNITED STATES,www.tsadamsstudio.com
TS3 Architects PC,"1789 London Bridge Rd , Ste 201",Virginia Beach,VA,23453-3759,UNITED STATES,www.ts3architects.com
TSA Architects,1486 S 1100 E,Salt Lake City,UT,84105-2437,UNITED STATES,www.tsa-usa.com
"Tsao & McKown Architects, P.C.",76 4th ST,Brooklyn,NY,11231-4821,UNITED STATES,www.tsao-mckown.com
TSG Architects AIA,312 Saint Francis ST,Gonzales,TX,78629-3906,UNITED STATES,www.tsgarchitects.com
"TSIG Consulting, Inc.",740 Broadway,New York,NY,10003-9518,UNITED STATES,www.tsigconsulting.com
TSK Architects,"225 S Arlington Ave , Ste A",Reno,NV,89501-1753,UNITED STATES,www.tska.com/
TSK Architects,225 S Arlington Ave Ste B,Reno,NV,89501,UNITED STATES,www.tska.com
TSKP Studio,146 Wyllys St Ste I-203,Hartford,CT,06106-1986,UNITED STATES,www.tskp.com
"TSKP Studio, LLC","One Hartford Square West, 146 Wyllys St. Building 1-203",Hartford,CT,06106,UNITED STATES,www.tskp.com
Tsoi Kobus Designs,"60 State St , Ste 1800",Boston,MA,02109-1800,UNITED STATES,www.tka-architects.com
Tsontakis Architecture,9430 E Presidio Rd,Scottsdale,AZ,85260-4389,UNITED STATES,www.tsontakisarchitecture.com
"TSP, Inc.",3906 Farnam St,Omaha,NE,68131-3014,UNITED STATES,www.teamtsp.com
"TSP, Inc.",600 Kansas City Street,Rapid City,SD,57701,UNITED STATES,teamtsp.com
"TSP, Inc.",14 W Kemp Ave,Watertown,SD,57201-3538,UNITED STATES,teamtsp.com
"TSP, Inc.",1500 Highway 52 N,Rochester,MN,55901-0273,UNITED STATES,teamtsp.com
"TSSF Architects, Inc.",122 N Washington Ave,Saginaw,MI,48607-1205,UNITED STATES,www.tssfinc.com
TSW Inc.,"1447 Peachtree St NE , Ste 850",Atlanta,GA,30309-3029,UNITED STATES,www.tsw-design.com
TTV ARCHITECTS,115 E Forsyth St,Jacksonville,FL,32202-3317,UNITED STATES,ttvarch.com
TTV Architects Inc.,115 E Forsyth St,Jacksonville,FL,32202-3317,UNITED STATES,www.ttvarch.com
TU Architecture,"32 Turnpike Road, Box #153",South Strafford,VT,05070,UNITED STATES,
"Tuck Hinton Architects, PLC",508 Houston ST,Nashville,TN,37203-4809,UNITED STATES,www.tuckhinton.com
Tuck-Hinton Architects,410 Elm St,Nashville,TN,37203-4220,UNITED STATES,www.tuck-hinton.com
Tuck-Hinton Architecture and Design,508 Houston St,Nashville,TN,37203-4809,UNITED STATES,www.tuck-hinton.com
"Tucker Architects, Inc.",100 Wolfe Street,Fredericksburg,VA,22401-5820,UNITED STATES,www.tuckerarchitects.com
TUCKER Architecture and Landscape LLC,25 Bubier Rd,Marblehead,MA,01945-3630,UNITED STATES,www.tuckerarch.com
TUCKER ARCHITECTURE AND LANDSCAPE LLC,59 ATLANTIC AVENUE,MARBLEHEAD,MA,01945,UNITED STATES,www.tuckerarch.com
Tucker Sadler Architects,1620 5th Ave Ste 200,San Diego,CA,92101-2787,UNITED STATES,www.tuckersadler.com
Tulane Small Center,1725 Baronne St,New Orleans,LA,70113-1305,UNITED STATES,www.small.tulane.edu
Tumu Studio,4619 Apple Way,Boulder,CO,80301,UNITED STATES,www.tumustudio.com
Tung C. Cheng Architect,7511 Range Rd,Alexandria,VA,22306-2456,UNITED STATES,
Tungsten Corporation,1614 American Way,Myrtle Beach,SC,29577-1866,UNITED STATES,www.tungstencorporation.com
Tunnell Spangler Walsh,"1389 Peachtree St NE , Ste 200",Atlanta,GA,30309-3038,UNITED STATES,www.tsw-design.com
"Turco Consulting Group, Inc.","80 Orville Dr , Ste 100",Bohemia,NY,11716-2505,UNITED STATES,
Turino Kalberer Architects,757 3rd Ave Fl 20,New York,NY,10017,UNITED STATES,www.turinokalberer.com
Turk Associates Inc.,6340 Peacock Dr,Troy,MI,48085-3259,UNITED STATES,www.henryford.com
