Firm Name,Address Line 1,City,State,Zip Code,Country,Firm URL
"Neyer Architects, Inc.",302 W 3Rd St Ste 800,Cincinnati,OH,45202-3426,UNITED STATES,www.neyer.com
"Nguyen Architects, Inc.","3747 Minnehaha Avenue
Suite 203",Minneapolis,MN,55406,UNITED STATES,www.nguyenarchitects.com
"Nia Architects, Inc","850 W Jackson Blvd , Ste 600",Chicago,IL,60607-3293,UNITED STATES,www.niaarch.com
"NIA Architects, Inc.","850 W Jackson Blvd , Ste 600",Chicago,IL,60607-3293,UNITED STATES,www.niaarch.com
Niagara Murano LLC,155 Romeo Road Suite 700,Rochester,MI,48307,UNITED STATES,www.niagaramurano.com
"Niall D. Whatley, AIA",5288 Quad J Rd,Shreveport,LA,71107-8771,UNITED STATES,www.aiashreveport.org
Nic Holland Architects,"6612 Sitio del Rio Blvd , Ste 200",Austin,TX,78730-1132,UNITED STATES,www.nichollandarchitects.com
Nicholaeff Architecture + Design,PO Box 1034,Osterville,MA,02655-1034,UNITED STATES,www.nicholaeff.com
"Nicholas Botta Architect, PLLC",PO Box 354,East Hampton,NY,11937-0354,UNITED STATES,www.bnsarchitects.com
Nicholas Deramo Architect PLLC,"298 Union St , Apt 1",Brooklyn,NY,11231-4671,UNITED STATES,www.nicholasderamo.com
Nicholas Design Collaborative,509 N Wolcott Ave,Chicago,IL,60622-6257,UNITED STATES,nicholasdc.com
"Nicholas Dickinson & Associates, P.C.","771 Broad St , Ste 200",Augusta,GA,30901-5024,UNITED STATES,www.dickinsonarchitects.com
Nicholas Jay Architect,"1500 N Halsted ST, Suite 2 PMB 6674",Chicago,IL,60642,UNITED STATES,https://nicholasjayarchitect.com
Nicholas L. Faustini Architect PC,"1700 Central Park Ave , Ste C",Yonkers,NY,10710-4904,UNITED STATES,nlfarchitect.com
Nicholas Seftas,2541 Deming Ave,Columbus,OH,43202-2718,UNITED STATES,
"Nicholas Stanos Architect, PLLC","171 Madison Avenue, Room 1608",New York,NY,10016,UNITED STATES,www.nstanos.com
"nicholas tsontakis Design, LLC",21158 N 36th Pl,Phoenix,AZ,85050-8386,UNITED STATES,www.nicholastsontakisdesign.com
Nichols - Renasco Associates,174 Vermont Ave,Somerset,MA,02726-3827,UNITED STATES,
Nichols Brosch Wurst Wolfe,161 Almeria Ave,Coral Gables,FL,33134-6008,UNITED STATES,nbww.com
"Nichols Brosch Wurst Wolfe Associates, Inc",161 Almeria Ave,Coral Gables,FL,33134-6008,UNITED STATES,www.nbww.com
Nichols Melburg & Rossetto,"555 Main St , Ste 300",Chico,CA,95928-5676,UNITED STATES,www.nmrdesign.com
Nicholson Kovalchick Architects,310 1St Ave S Ste 4S,Seattle,WA,98104-2536,UNITED STATES,www.nkarch.com/
"Nick A. Jones Architect, LLC",1320 Bowman St,Clermont,FL,34711-3146,UNITED STATES,
Nick Deaver Architect,606 Highland Ave,Austin,TX,78703-5108,UNITED STATES,www.nickdeaver.com
Nick Deaver Architect,606 Highland Ave,Austin,TX,78703-5108,UNITED STATES,www.nickdeaver.com
"Nick Opreanu, AIA",1527 Huntington St,Deltona,FL,32725-3870,UNITED STATES,
Nick Tsapatsaris & Associates,20 Wilsey Sq,Ridgewood,NJ,07450-3793,UNITED STATES,www.nicktsapatsaris.com
"Nickas Architecture, LLC",452 Micahs Way,Columbia,IL,62236-2689,UNITED STATES,www.nickasarchitect.com
Nickels Design LLC,520 Southern Sights Dr,Longs,SC,29568-9476,UNITED STATES,
Nickle Architects PLLC,1612 17th Avenue South,Nashville,TN,37212,UNITED STATES,www.smallwoodnickle.com
Nicola Hain Architect,3905 Nicholson St,Hyattsville,MD,20782-3063,UNITED STATES,
Nicole Adams Architect DPC,11 Bayview Rd,Sag Harbor,NY,11963-2517,UNITED STATES,www.nicoleadamsstudio.com
"Nicole Krasowski - Architect, PLLC",2618 New Garden Rd E,Greensboro,NC,27455-2812,UNITED STATES,
Nicole Migeon Architect,"136 East 36th Street, Suite 1B",New York,NY,10016,UNITED STATES,migeonarchitect.com
Nicolelli Architects,"5950 Teakwood Ln N , Apt H",Plymouth,MN,55442-1584,UNITED STATES,www.ageinplacehome.com
Nidify Studio,12 Hilburn Street,Boston,MA,02131,UNITED STATES,www.nidifystudio.com
Niego Associates,"33 Front St , Ste 304",Hempstead,NY,11550-3601,UNITED STATES,
Nielsen & Shoemaker Architects PC,983 Willis Ave,Albertson,NY,11507-1932,UNITED STATES,
"Nielsen Architecture, LLC",1603 NE Rock St,Bentonville,AR,72712-8444,UNITED STATES,www.nielsen-architecture.com
"Nielsen, Mayne Architecture, Inc.",4418 N 142nd St,Omaha,NE,68164-5039,UNITED STATES,www.nielsenmayne.com
"Nihon Sekkei, Inc.","Shinjuku I-Land Tower, Nishi Shinjuku 6-5-1",Shinjuku-ku,,1631329,JAPAN,www://nihonsekkei.co.jp
NIKKEN SEKKEI,"2-18-3, Iidabashi",Chiyoda-ku,,1028117,JAPAN,www.nikken.co.jp/en/
Nikken Sekkei Ltd,"2-18-3, Iidabashi, Chiyodaku",Tokyo,,102-8117,JAPAN,www.nikken.co.jp
Nikken Sekkei Ltd.,2-18-3 Iidabashi,Chiyoda-ku,,102-8117,JAPAN,www.nikken.co.jp/ja/
Nikolai Katz Architect,"99 Battery Pl , Apt 26H",New York,NY,10280-1329,UNITED STATES,
Niles Bolton Associates,"3060 Peachtree Rd NW , Ste 600",Atlanta,GA,30305-2240,UNITED STATES,www.nilesbolton.com/
Niles Bolton Associates,3060 Peachtree Rd NW,Atlanta,GA,30305-2234,UNITED STATES,www.nilesbolton.com/
Niles Bolton Associates,"300 N Lee St , Ste 502",Alexandria,VA,22314-2640,UNITED STATES,www.nilesbolton.com
Niles Bolton Associates,3060 Peachtree Rd Nw Ste 600,Atlanta,GA,30305-2240,UNITED STATES,www.nilesbolton.com
Niles Bolton Associates,3060 Peachtree Rd Nw Ste 600,Atlanta,GA,30305-2240,UNITED STATES,www.nilesbolton.com
