Firm Name,Address Line 1,City,State,Zip Code,Country,Firm URL
Singer Architects,"915 Middle River Dr , Ste 404",Fort Lauderdale,FL,33304-3560,UNITED STATES,www.singerarchitects.com
Siol,2311 Fillmore St,San Francisco,CA,94115-1812,UNITED STATES,siolstudios.com
Sionas Architecture PC,"8 Hillside Ave , Ste 208",Montclair,NJ,07042-2129,UNITED STATES,www.sionasarchitecture.com
Sipes Architects,PO Box 153,Minturn,CO,81645-0153,UNITED STATES,www.sipesarchitects.com
Sipp Tepe Architects LLC,PO Box 332,North Lima,OH,44452-0332,UNITED STATES,
SIR Inc. Architecture Planning,2402 Commonwealth St,Houston,TX,77006-2541,UNITED STATES,www.sirarchitects.com
Siren Beckmann LTD,"Flat 54 Campden Hill Court, Campden Hill Road",London,,W8 7HU,UNITED KINGDOM,www.sirenbeckmann.com
"Sires Architects, P.C.",1201 Oakwood Dr,Polk City,IA,50226-1216,UNITED STATES,
"Siri & Marsik Architects, PC",11 Deer Meadow Dr,West Nyack,NY,10994-1837,UNITED STATES,
Siris/Coombs Architects,"211 W 19th St , Fl 2",New York,NY,10011-4000,UNITED STATES,www.siriscoombs.com
"SISR Architecture, LLC",PO Box 314,Marlow,NH,03456-0314,UNITED STATES,www.sisr.us
Sissela Malmstrom Architects,3770 La Selva Dr,Palo Alto,CA,94306-3202,UNITED STATES,www.malmstromarchitect.com
Sitelab Architecture + Design,35 Maynard Rd,Northampton,MA,01060-2809,UNITED STATES,
SITELAB urban studio,"660 Mission St , Ste 200",San Francisco,CA,94105-4021,UNITED STATES,www.sitelaburbanstudio.com/
Sitio Architecture + Design,1132 N Oak Dr,Fayetteville,AR,72701-1618,UNITED STATES,www.sitio-ad.com
SITIO architecture + urbanism,"2104 Market Street
Suite 300",Philadelphia,PA,19103,UNITED STATES,www.sitioau.com
Sixmo Inc.,1101 Auburn Ave,Cleveland,OH,44113-5224,UNITED STATES,www.sixmoae.com
Sizeler Thompson Brown Architects,300 Lafayette St Ste 200,New Orleans,LA,70130-3289,UNITED STATES,www.sizelerthompsonbrown.com/design/
Sizemore Group LLC,"342 Marietta St NW , Apt 3",Atlanta,GA,30313-1644,UNITED STATES,www.sizemoregroup.com
Sizemore Group LLC,860 Peachtree Battle Cir NW,Atlanta,GA,30327-1320,UNITED STATES,www.sizemoregroup.com
SJA Architects,2035 15th St N,Saint Cloud,MN,56303-1738,UNITED STATES,www.staniusjohnson.com
"SJC Architecture, Inc.",12125 Annette Ln,Fishers,IN,46037-8196,UNITED STATES,
SJCF Architecture,257 N Broadway Ave,Wichita,KS,67202-2303,UNITED STATES,www.sjcf.com
"Sjoquist Architects, Inc.","3020 University Avenue SE, Suite 100",Minneapolis,MN,55414,UNITED STATES,www.sjoquist.com
SJPA,"510 E Ramsey Rd , Ste 1A",San Antonio,TX,78216-4658,UNITED STATES,www.sjpadesign.com
"SJS Architecture, P.C.",480 Chokecherry Ln,West Yellowstone,MT,59758-9740,UNITED STATES,www.sjsarchitecture.com
"SK&I Architectural Design Group, LLC","4600 East West Hwy , Ste 700",Bethesda,MD,20814-6900,UNITED STATES,www.skiarch.com
SK+I architectural Design Group,"4600 EAST-WEST HIGHWAY, SUITE 700",bethesda,MD,20814,UNITED STATES,www.skiarch.com
SK+I Architectural Design Group,"4600 East West Hwy , Ste 700",Bethesda,MD,20814-6900,UNITED STATES,skiarch.com
SK+I Architecture,"4600 East West Hwy , Ste 700",Bethesda,MD,20814-6900,UNITED STATES,www.skiarch.com
SKA Architect + Planner,"249 Peruvian Ave , Ste F2",Palm Beach,FL,33480-4673,UNITED STATES,www.skaarchitect.com
SKA Studio,"47 Randall St , Ste 2",Annapolis,MD,21401-1845,UNITED STATES,www.skastudio.com
"skaala, llc",PO Box 817,Camden,ME,04843-0817,UNITED STATES,www.skaala.us
SkB Architects,2333 3Rd Ave,Seattle,WA,98121-1711,UNITED STATES,www.skbarchitects.com
"SKD Architects, Inc.","11140 Highway 55 , Ste A",Minneapolis,MN,55441-6017,UNITED STATES,www.skdarchitects.com
Sketch Architecture Company,"2454 E Southern Ave , Ste 110",Mesa,AZ,85204-5417,UNITED STATES,www.sketcharchitecturecompany.com
sketch to form inc.,PO Box 780273,Orlando,FL,32878,UNITED STATES,www.sketchtoform.com
"Sketchworks Architecture, LLC","2501 Parmenter Street, Suite #100B",Middleton,WI,53562,UNITED STATES,sketchworksarch.com/
skidmore owings & merrill llp,250 greenwich st,new york,NY,10006,UNITED STATES,www.som.com
Skidmore Owings & Merrill LLP,224 S Michigan Ave Ste 1000,Chicago,IL,60604-2526,UNITED STATES,www.som.com
"Skidmore Owings & Merrill, LLP",421 7TH ST NW # 2,Washington,DC,20004,UNITED STATES,www.som.com
"Skidmore Owings & Merrill, LLP","The Broadgate Tower, 20 Primrose Street",London,,EC2A 2EW,UNITED KINGDOM,www.som.com
"Skidmore Owings & Merrill, LLP",224 S Michigan Ave Ste 1000,Chicago,IL,60604-2526,UNITED STATES,www.som.com
"Skidmore Owings & Merrill, LLP","Suite 201, Block 7, No. 8-10 Jian Guo Zhong Road",Shanghai,,200025,CHINA,
"Skidmore Owings Merrill Asia, Ltd.","1805 Wheelock House, 20 Pedder Street",Central PRC,,100081,CHINA,www.shooinsupport.com
"Skidmore, Owings & Merrill","7 World Trade Center, 250 Greenwich Street",New York,NY,10007,UNITED STATES,www.som.com/
"Skidmore, Owings & Merrill","Suite 201, Block 7, No. 8 Jianguo Zhong Road",Shanghai,,200025,CHINA,www.som.com
"Skidmore, Owings & Merrill","7 World Trade Ctr, 250 Greenwich Street",New York,NY,10007-2140,UNITED STATES,www.som.com
"Skidmore, Owings & Merrill","7 World Trade Ctr, 250 Greenwich Street",New York,NY,10007-2140,UNITED STATES,www.som.com/
"Skidmore, Owings & Merrill","7 World Trade Ctr, 250 Greenwich Street",New York,NY,10007-2140,UNITED STATES,www.som.com
