Firm Name,Address Line 1,City,State,Zip Code,Country,Firm URL
Valus Carpenter & Associates,"49 Richmondville Ave , Ste 310",Westport,CT,06880-2052,UNITED STATES,
VAMOS Architects,100 N 3rd St,Brooklyn,NY,11249-3910,UNITED STATES,www.archinect.com
"Van Auken Akins Architects, LLC","1422 Euclid Ave , Ste 1010",Cleveland,OH,44115-2001,UNITED STATES,www.vaakins.com
Van Bemmelen Architecture LLC,1170 Pershing Cir,Teaneck,NJ,07666-2723,UNITED STATES,vbarchitecture.com
Van Bryan Studio Architects,21 W Babcock St,Bozeman,MT,59715-4662,UNITED STATES,www.vbsa.net
Van Cleave Architecture + Design,5353 N Berkeley Blvd,Whitefish Bay,WI,53217-5136,UNITED STATES,vancleavearchitecture.com/index.html
Van Curler  Associates Architects & Planners,"2010 Hogback Rd , Ste 2",Ann Arbor,MI,48105-9749,UNITED STATES,www.vanarchitects.com
"Van De Walle Architects, LLC","212 S Phillips Ave , Ste 200",Sioux Falls,SD,57104-6390,UNITED STATES,www.vandewallearchitects.com
Van Dusen Architects,1711 Connecticut Ave Nw,Washington,DC,20009-1139,UNITED STATES,www.vandusenarchitects.com
Van Dyke Architects,"812 Huron Rd E , Ste 413",Cleveland,OH,44115-1126,UNITED STATES,www.vandykearchitects.com
"Van Goor Architects, Inc.","1327 Jones Dr , Ste 106",Ann Arbor,MI,48105-1894,UNITED STATES,www.vgarchitects.com
"Van Meter Pettit, AIA",,,,,,
Van Meter Williams Pollack,1738 Wynkoop StreetSuite 203,Denver,CO,80202,UNITED STATES,www.vmwp.com
Van Meter Williams Pollack LLP,"333 Bryant St , Ste 300",San Francisco,CA,94107-4145,UNITED STATES,www.vmwp.com
"Van Pond Architect, PLLC","1200 Division St , Ste 101",Nashville,TN,37203-4000,UNITED STATES,www.vanpondarchitect.com
"Van Pond Architect, PLLC","2929 Sidco Dr , Ste 105",Nashville,TN,37204-3709,UNITED STATES,www.vanpondarchitect.com
"Van Tilburg, Banvard  Soderbergh",1738 Berkeley St,Santa Monica,CA,90404-4105,UNITED STATES,www.vtbs.com
"Van Tilburg, Banvard & Soderbergh, AIA",1738 Berkeley St,Santa Monica,CA,90404-4105,UNITED STATES,www.vtbs.com
Van Woert Bigotti,"1400 S Virginia St , Ste C",Reno,NV,89502-2836,UNITED STATES,www.vwbarchitects.com
Van Woert Bigotti Architects,1400 S Virginia St Ste C,Reno,NV,89502,UNITED STATES,www.vwbarchitects.com
VanArchitects PLLC,"2000 Hogback Rd , Ste 3",Ann Arbor,MI,48105-9735,UNITED STATES,www.vanarchitects.com
Vance Design Inc.,310 N Main St,Heber City,UT,84032-1438,UNITED STATES,www.claytonvance.com
Vander Ploeg & Associates,155 E Boca Raton Rd,Boca Raton,FL,33432-3905,UNITED STATES,www.vpaarchitects.com
"Vandergriff Group Architects, PC","312 N Big Spring St , Ste 100",Midland,TX,79701-4371,UNITED STATES,www.vandergriff-group.com
VanderHorn Architects,41 W Elm St,Greenwich,CT,06830,UNITED STATES,www.vanderhornarchitects.com
VanderPoel Architecture,1713 N Bryan St,Arlington,VA,22201-4015,UNITED STATES,pvanderpoel.com
Vanderwal Architects,"719 Sawdust Rd , Ste 110A",The Woodlands,TX,77380-2910,UNITED STATES,www.vanderwalarchitects.com
Vandespot,"1685 Ocean Ave , Apt 4C",Brooklyn,NY,11230-5476,UNITED STATES,www.vandespot.com
"VanDevere & Associates, Inc.",2142 Kensington Ct SW,Marietta,GA,30064-4199,UNITED STATES,www.vandevereassociates.com
Vandewalle & Associates,120 E Lakeside St,Madison,WI,53715-2011,UNITED STATES,www.vandewalle.com
"Vanguard Inspections, Inc.",16 Sequoia Dr,Coram,NY,11727-2033,UNITED STATES,www.vanguardinspections.net
VanHook Architectural Services,919 Lancaster St,Stanford,KY,40484-1329,UNITED STATES,
"Vanman Architects & Builders, Inc.",6701 W 23rd ST,St Louis Park,MN,55426-2801,UNITED STATES,www.vanmanab.com
VanNostrand Architects PLLC,29 E Main St Apt 4,Buckhannon,WV,26201-4701,UNITED STATES,www.vnarch.com
Vantage Architects Inc.,"750 3rd St N , Ste F",La Crosse,WI,54601-6298,UNITED STATES,www.vantagearchitects.com
"Vantage Architects, LLC",4900 Bowling ST SW Ste 100,Cedar Rapids,IA,52404-5013,UNITED STATES,www.memoryechoes.com
"Vantage Point, LLC",270 50th Ave SW,Cedar Rapids,IA,52404-4932,UNITED STATES,www.vp-arch.com
"Varble Architecture Group, LLC",100 Valley Brook Dr,Hendersonville,TN,37075-5219,UNITED STATES,
Varenhorst,230 N 21St St,Philadelphia,PA,19103-1095,UNITED STATES,www.varenhorst.com
Variable Projects,1000 Girod Street #521,New Orleans,LA,70113,UNITED STATES,www.variableprojects.com
Varisco Designs Inc.,"19600 Fairchild , Ste 295",Irvine,CA,92612-2518,UNITED STATES,www.vdbg.com
Varitone Architecture,31 SW 2nd Ave,Albany,OR,97321,UNITED STATES,www.varitonearchitecture.com/
Varitone Architecture LLC,403 1st Ave NW,Albany,OR,97321-2227,UNITED STATES,www.varitonearchitecture.com
Varvitsiotis Architecture PC,"151 W 7th Ave , Ste 405",Eugene,OR,97401-2676,UNITED STATES,www.varvitsiotis.com
"Vasilion Architects, Inc.","28 S Water St , Ste 201",Batavia,IL,60510-3104,UNITED STATES,www.vasilion.com
"Vasilion Architects, Inc.","28 S Water St , Ste 303",Batavia,IL,60510-3104,UNITED STATES,www.vasilion.com
Vastukala Architects,"Above Shri Hari Mangal Karyalaya, Pandurang Wadi (1st Lane), Dombivali (East), Dist - Thane",Maharashtra,,421201,INDIA,
Vatche Simonian Inc,237 South St,Morristown,NJ,07960-6098,UNITED STATES,
Vaughn Architects Plus,2009 Rockridge Ter,Fort Worth,TX,76110-1767,UNITED STATES,
"Vaughn Design Studio, LLC",1919 Decatur St,Houston,TX,77007-7636,UNITED STATES,www.vaughndesign.com
