Firm Name,Address Line 1,City,State,Zip Code,Country,Firm URL
CGL companies,"1330 Avenue of the Americas, Floor 28",New York,NY,10019,UNITED STATES,
CGLS Architects,2500 Cumberland Pkwy SE,Atlanta,GA,30339-3942,UNITED STATES,www.cglsarchitects.com
CGModern Architecture,"9020 Brumm Trail, Golden",Golden,CO,80403,UNITED STATES,www.cgmodern.com
CGS Architects,6500 Utah Ave NW,Washington,DC,20015-2447,UNITED STATES,
CGS Architecture and Design PLLC,68 Shore Dr,Larchmont,NY,10538-3833,UNITED STATES,
CH Architects,157 E King St,Hillsborough,NC,27278-2570,UNITED STATES,www.candharch.com
CH2M Hill,"1000 Wilshire Blvd , Ste 2100",Los Angeles,CA,90017-2417,UNITED STATES,www.ch2m.com
CH2M Hill,"1000 NE Circle Blve, Bldg 10, Suite 10350",Corvallis,OR,97330,UNITED STATES,www.ch2m.com
CH2M Hill,"USAEDFE, Unit 1554 Box 33",APO AP,,96205-5546,"KOREA, SOUTH",
CH2M Hill,Kantstrasse9,Kaiserslautern,,67663,GERMANY,
CH2M Hill - IDC,"2020 SW 4th Ave , Ste 300",Portland,OR,97201-4973,UNITED STATES,www.ch2m.com/corporate/
CH2M | IDC Architects,"400 Industry Dr , Ste 100",Pittsburgh,PA,15275-1047,UNITED STATES,www.idcarchitects.com/
CH2MHill,"1100 112th Ave NE , Ste 400",Bellevue,WA,98004-4511,UNITED STATES,www.ch2m.com
CHA,3 Winners Cir,Albany,NY,12205-1161,UNITED STATES,www.chacompanies.com
CHA Architecture,49 Dartmouth St,Portland,ME,04101-1700,UNITED STATES,www.chaarchitecture.com
Chace Architecture,9 Woodbine St,Auburndale,MA,02466-1808,UNITED STATES,www.chacearchitecture.com
Chadbourne & Doss,1469 22nd Ave,Seattle,WA,98122-2909,UNITED STATES,www.chadbournedoss.com
chadbourne + doss architects,4900 Ash St,Astoria,OR,97103-2122,UNITED STATES,www.chadbournedoss.com/
Chagnon Architecture PLLC,"215 W San Antonio St , Ste 2104",San Marcos,TX,78666-5549,UNITED STATES,www.chagnonarch.com
Chaintreuil Jensen & Stark Architects,54 S Union St,Rochester,NY,14607-1839,UNITED STATES,www.cjsarchitects.com
Chaintreuil Jensen & Stark Architects,755 Seneca St,Buffalo,NY,14210-1449,UNITED STATES,cjsarchitects.com
"Chaintreuil, Jensen, Stark Architects",303 S Park Ave,Buffalo,NY,14204-2535,UNITED STATES,www.cjsarchitects.com
Chait Studios,21 Slate DR,North Chili,NY,14514-1118,UNITED STATES,www.chaitstudios.com
"Chaleff & Rogers Architects, PC",1514 Montauk Hwy,Water Mill,NY,11976-2632,UNITED STATES,www.chaleffandrogers.com
"Chaleff & Rogers Architects, PC",PO Box 990,Water Mill,NY,11976-0990,UNITED STATES,www.chaleffandrogers.com
Chamberlain Architect Services Limited,5096 S Service Road Sute 103,Burlington,ON,L7L 5H4,CANADA,www.chamberlainipd.com
"Chamberlain Architects, P.C.","205 Park Central E , Ste 412",Springfield,MO,65806-1323,UNITED STATES,www.chamberlainarchitectspc.com
"Chamberlin Architects, PC",437 Main St,Grand Junction,CO,81501-2511,UNITED STATES,chamberlinarchitects.com/
Chambers,"1800 Washington Blvd , Ste 111",Baltimore,MD,21230-1731,UNITED STATES,www.chambersusa.com
Chambers & Associates Incorporated,35 S Penn St,Manheim,PA,17545-1729,UNITED STATES,www.chambersarch.com
Chambers Architects Inc,5207 Mckinney Ave Ste 16,Dallas,TX,75205-3355,UNITED STATES,chambersarchitects.com
Chambers Architects PLLC,31 Newquay Ln,Bella Vista,AR,72714-4608,UNITED STATES,chambers-archtiects.com
"Chambers Architecture, Inc.",PO Box 1058,Flemington,NJ,08822-1058,UNITED STATES,www.chambersai.com
"Chambers, Murphy & Burge Historical Architecture","43 E Market St , Ste 201",Akron,OH,44308-2045,UNITED STATES,www.cmbarchitects.com/
"Chambers/CCI, LLc",100 Decker Ct,Irving,TX,75062-2739,UNITED STATES,www.chambersusa.com
"Chamblee + Associates, LLC.",6665 Park Ln,Houston,TX,77023-4015,UNITED STATES,www.chambleeandassociates.com
Chambless King Architects,12 W Jefferson St Ste 300,Montgomery,AL,36104-2672,UNITED STATES,chamblessking.com
"Champeaux Evans Hotard, APAC",701 Dr. Michael DeBakey Drive,Lake Charles,LA,70601,UNITED STATES,www.champeaux.biz
Champeaux-Evans-Hotard,702 Doctor Michael Debakey Dr,Lake Charles,LA,70601,UNITED STATES,www.champeaux.biz
Champeaux-Evans-Hotard,702 Doctor Michael Debakey Dr,Lake Charles,LA,70601-5729,UNITED STATES,www.champeaux.biz
Champeaux-Evans-Hotard,702 Doctor Michael Debakey Dr,Lake Charles,LA,70601-5729,UNITED STATES,www.champeaux.biz
Champlin Architecture,720 E Pete Rose Way,Cincinnati,OH,45202-3579,UNITED STATES,www.thinkchamplin.com
Champlin Architecture,"212 W 10th St , Ste A435",Indianapolis,IN,46202-5620,UNITED STATES,
Champlin Architecture,"720 E Pete Rose Way , Ste 140",Cincinnati,OH,45202-5302,UNITED STATES,www.thinkchamplin.com
Chan Mock Architects,165 Amory ST,Cambridge,MA,02139-1229,UNITED STATES,www.chanmockarchitects.com
Chancey Design Partnership,1228 E 7Th Ave,Tampa,FL,33605-3505,UNITED STATES,www.chanceydesign.com
"Chandler & Associates, P.A.","5940 SW 73rd St , Ste 206",South Miami,FL,33143-8700,UNITED STATES,www.chandlerarchitecture.com
Chandler Pierce Architect,7 CENTRE MARKET PLACE,New York,NY,10013-2512,UNITED STATES,www.chandlerpierce.com
"Chanel, Inc.","9 W 57th St , Fl 44",New York,NY,10019-2701,UNITED STATES,www.chanel.com
Chani Associates,71 Juniper Rd,Holliston,MA,01746-1585,UNITED STATES,
