Firm Name,Address Line 1,City,State,Zip Code,Country,Firm URL
CNH Architects,"7300 W. 147th Street, Suite 504",Apple Valley,MN,55124,UNITED STATES,www.cnharch.com
"CNH Architects, Inc.",7300 147Th St W Ste 504,Apple Valley,MN,55124-7580,UNITED STATES,www.cnharch.com
CNNA Architects,"119 Luckie St NW , Ste 100",Atlanta,GA,30303-2146,UNITED STATES,www.cnna.com
"Co Adaptive Architecture, PLLC","63 Flushing Avenue
 Building 303, Suite 603",Brooklyn,NY,11205,UNITED STATES,www.coadaptive.co
"Co Adaptive Architecture, PLLC","649 Morgan Ave , Ste 2L",Brooklyn,NY,11222-3716,UNITED STATES,www.coadaptive.co
CO Architects,5750 Wilshire Boulevard Suite 550,Los Angeles,CA,90036,UNITED STATES,www.coarchitects.com
CO Architects,"5055 Wilshire Blvd , Ste 900",Los Angeles,CA,90036-6101,UNITED STATES,coarchitects.com/
CO Architects,"5055 Wilshire Blvd , Fl 9",Los Angeles,CA,90036-6100,UNITED STATES,www.coarchitects.com
co(X)ist Studio PLLC,5125 McDade Dr.,Austin,TX,78735,UNITED STATES,www.coxiststudio.com
CO-OP ARCHITECTURE,205 6Th Ave Se Ste 301,Aberdeen,SD,57401-4317,UNITED STATES,www.co-oparch.com
CO-OP ARCHITECTURE,"1108 S Main St , Ste 102",Aberdeen,SD,57401-7085,UNITED STATES,www.co-oparch.com
CO-OP Architecture,440 E 8th St Ste 221,Sioux Falls,SD,57103,UNITED STATES,www.co-oparch.com
co4architecture.pc,31 W 27Th St Fl 9,New York,NY,10001-6914,UNITED STATES,
Coact Designworks,801 T St,Sacramento,CA,95811-7028,UNITED STATES,www.skwarchitects.com
Coastal Architects,"1567 Spinnaker, Suite 204",Ventura,CA,93001,UNITED STATES,www.coastalarch.com
Coastal Architecture,"4206 Bridges St , Ste C",Morehead City,NC,28557-2942,UNITED STATES,www.coastalarchitecture.net
Coastal Design Group,"510 N Bay Ave , Ste",Beach Haven,NJ,08008-1174,UNITED STATES,www.coastallbi.com
Cobalt Design Group,305 B St,Saint Augustine,FL,32080-6815,UNITED STATES,
"Cobb Architects, LLC",67 Washington St,Charleston,SC,29403-6312,UNITED STATES,www.cobbarchitecture.com
Coblin/Porter & Associates,111 Watson Ct,Frankfort,KY,40601-2611,UNITED STATES,
"Coburn Development, Inc. (DO NOT USE)",1811 Pearl St,Boulder,CO,80302-5518,UNITED STATES,www.coburnpartners.com
Cockfield-Jackson Architects,6711 Perkins Rd,Baton Rouge,LA,70808-4263,UNITED STATES,www.cjarchitects.com
Coco & Coco,"3327 W Wadley Ave , Ste 3-168",Midland,TX,79707-5704,UNITED STATES,
Coco & Company,PO Box 111,Simmesport,LA,71369-0111,UNITED STATES,
"Code Services, LLC",1331 Dial Ct,Springfield,IL,62704-3538,UNITED STATES,www.codeservicesllc.com
Coderre Designs,1110 Glenwood Ave,Nashville,TN,37204-3922,UNITED STATES,
"Codevelop Architecture & Planning, PLLC",PO Box 16132,Asheville,NC,28816-0132,UNITED STATES,
Coe and Coe Architecture,2342 Andersonville Rd,West Glover,VT,05875-9527,UNITED STATES,www.coeandcoearchitecture.com
COE Architecture International,2303 Line Avenue,Shreveport,LA,71104,UNITED STATES,www.coearchitecture.com
Coffee Crier Schenck & Hammond,PO Box 29059,Austin,TX,78755-6059,UNITED STATES,
Coffin Scherschel & Shaffer Architects Ltd.,119 North Ave,Barrington,IL,60010-3246,UNITED STATES,
"Cogdell & Mendrala Architects, P.C.",517 E Congress St,Savannah,GA,31401-2805,UNITED STATES,www.cogdellmendrala.com
"Coger/Shambarger Architect, Inc.","4427 Talmadge Rd , Ste H",Toledo,OH,43623-3515,UNITED STATES,www.cosharch.com
Cognitive Design,"55 Delmont Dr NE , Apt D4",Atlanta,GA,30305-3143,UNITED STATES,cognitive.design
Cohen Carnaggio Reynolds,2920 1st Ave S,Birmingham,AL,35233-3033,UNITED STATES,www.ccrarchitecture.com
Cohen Design Build,2 Pond Rd,Woodbury,NY,11797-1614,UNITED STATES,www.cohendesignbuild.com
Cohen Freedman Encinosa & Associates,8085 Nw 155Th St,Miami Lakes,FL,33016-5874,UNITED STATES,www.cfearchitects.com
Cohen Hilberry Architects,4941 Mcpherson Ave,Saint Louis,MO,63108-1607,UNITED STATES,www.cohenhilberry.com
Cohesion Architecture,2402 Stoneybrook ST,Lake Charles,LA,70605,UNITED STATES,
"COLAB Architecture + Urban Design, LLC","930 NW 14th Ave, Ste 280",Portland,OR,97209,UNITED STATES,www.colabarchitecture.com
"coLAB studio, llc",1614 E Cedar St,Tempe,AZ,85281-5906,UNITED STATES,www.colabstudio.com
"Colby Design, LLC","1025 Majestic Dr , Ste 901568",Lexington,KY,40591-0609,UNITED STATES,
Cole & Denny Architects,"333 N Fairfax St , Ste 300",Alexandria,VA,22314-2632,UNITED STATES,www.coleanddenny.com
"Cole and Goyette Architects and Planners, Inc.",540 Franklin St,Cambridge,MA,02139-2924,UNITED STATES,
Cole Architects,"404 South 8th Street
#250",Boise,ID,83702,UNITED STATES,www.colearchitects.net
Cole Hil,"8491 Hospital Dr , Ste 439",Douglasville,GA,30134-2412,UNITED STATES,www.colehil.com
Colega Architects,4334 Sepulveda Blvd,Culver City,CA,90230,UNITED STATES,www.colega-la.com
Coleman Partners Architects,3701 Kirby Dr Ste 988,Houston,TX,77098-3922,UNITED STATES,www.cparch.com
"Coleman Partners Architects, LLC",3377 North Blvd,Baton Rouge,LA,70806-3745,UNITED STATES,www.cparch.com
"Colestock & Muir Architects, P.A.",970 Southwest 4th Street,Boca Raton,FL,33486,UNITED STATES,www.cmarchitects.com
