Firm Name,Address Line 1,City,State,Zip Code,Country,Firm URL
McConnell International Architecture & Planning,"11 White Pines Crescent, Stocking Avenue, Rathfarnham",Dublin,,D16 E2C7,IRELAND,www.mciarch.com
McConnell/Architecture,477 Main St,Hackensack,NJ,07601-8710,UNITED STATES,
McCool Carlson Green,"421 W 1St Ave Ste 300, Historic Anchorage Train Depot",Anchorage,AK,99501,UNITED STATES,www.mcgalaska.com
McCormack + Etten/Architects LLP,400 Broad St,Lake Geneva,WI,53147-1840,UNITED STATES,www.mccormacketten.com
"McCormack Baron Salazar, Inc.",100 N BROADWAY STE 100,Saint Louis,MO,63102,UNITED STATES,www.mccormackbaron.com
McCormick + McCormick,S5373 Durward Glenn Rd,Baraboo,WI,53913-9657,UNITED STATES,
McCormick Architects,928 Alto St,Santa Fe,NM,87501-2405,UNITED STATES,www.mccormickarchitects.com/_/home.html
McCoy Architects,1944 Cedar Lake Pkwy,Minneapolis,MN,55416-3614,UNITED STATES,
McCoy Architects LLC,524 E High St,Lexington,KY,40502-6443,UNITED STATES,www.mccoyarchitects.com
"McCreary/Snow Architects, P.A.",3111 Devine St,Columbia,SC,29205-1845,UNITED STATES,www.usgbc.org
"McCree Architects & Engineers, Inc.",500 E Princeton St,Orlando,FL,32803-1449,UNITED STATES,www.mccree.com
McCrery Architects,900 Massachusetts Ave Ne,Washington,DC,20002-6228,UNITED STATES,www.mccreryarchitects.com
"McCrery Architects, LLC",900 Massachusetts Avenue NE,Washington,DC,20003,UNITED STATES,www.mccreryarchitects.com
McCue & Associates - Architects & Planners PS,2211 S Highlands Blvd,West Richland,WA,99353-7000,UNITED STATES,
McCulloch Associates Architects,1225 Garvin Pl,Louisville,KY,40203-3005,UNITED STATES,www.mccullocharchitects.com
McCulloch England Associates Architects,100 Queens Rd Ste 200,Charlotte,NC,28204-3156,UNITED STATES,www.mccullochengland.com
McCulloch England Associates Architects,"100 Queens Road, Suite 200",Charlotte,NC,28204,UNITED STATES,www.mccullochengland.com
McCullough architecture and design,5250 Keatswood Cv,Memphis,TN,38120-2706,UNITED STATES,www.lm-architecture.com
"McDonald Architects, LLC",188 Saint Margaret St,Charleston,SC,29403-3545,UNITED STATES,www.mcdonaldarchitects.com
"McDonald, Cassell & Bassett, Inc.",600 W Spring St,Columbus,OH,43215-2327,UNITED STATES,www.mcb-inc.com
McDonnell Group,13601 Whittier Blvd Ste 505,Whittier,CA,90605-1902,UNITED STATES,www.mcdonnellgroupintl.com/
"McDougal Architects, Inc.",214 Arlington Street,Chelsea,MA,02150-3506,UNITED STATES,www.mcdougalarchitects.com
McDowell/Hall-McDowell,1859 Gherry Dr,Austell,GA,30106-2951,UNITED STATES,www.mchmc-arch.com
MCDW Architecture,"530 E 84th St , Apt 5S",New York,NY,10028-7342,UNITED STATES,www.mcdw.nyc/
MCF Architects Inc,"437 Grant St
Ste 1600",Pittsburgh,PA,15219,UNITED STATES,www.mcfarchitecture.com
McFadden Architects,PO Box 487,Chester Heights,PA,19017-0487,UNITED STATES,
"McFarland Architects, P.G.","Rockford Village 1419 E 41st PL south, Suite 100",Tulsa,OK,74105,UNITED STATES,www.mcfarlandarchitecture.com
McFarlane Architects,"6256 Greenwich Dr , Ste 500",San Diego,CA,92122-5971,UNITED STATES,www.mcfarlanearchitects.com
"McFarlane Architects, Inc","6333 Greenwich Dr , Ste 500",San Diego,CA,92122-5982,UNITED STATES,www.mcfarlanearchitects.com
"McFarlane Architects, Inc","6333 Greenwich Dr , Ste 50",San Diego,CA,92122-5920,UNITED STATES,www.mcfarlanearchitects.com
"McFarlane Architects, Inc.","6256 Greenwich Drive, Suite 500",San Diego,CA,92122,UNITED STATES,www.mcfarlanearchitects.com
"McFarlin Huitt Panvini, Inc.",1213 16th Ave S,Nashville,TN,37212-2901,UNITED STATES,www.mhparchitects.com
MCG Architecture,"10333 E Dry Creek Rd , Ste 270",Englewood,CO,80112-1561,UNITED STATES,www.mcgarchitecture.com
MCG Architecture,"7100 E Pleasant Valley Rd , Ste 320",Independence,OH,44131-5570,UNITED STATES,www.mcgarchitecture.com/
MCG Architecture,"111 Pacifica , Ste 280",Irvine,CA,92618-7427,UNITED STATES,www.mcgarchitecture.com
"McGahey Associates, Architects","206 Princeton Rd , Ste 28",Johnson City,TN,37601-2025,UNITED STATES,
"McGehee Nicholson Burke Architects, PC",3740 Business DR Ste 100,Memphis,TN,38125-8516,UNITED STATES,www.mnbarchitects.com
McGeorge Architecture  Interiors,18 5th Ave,East Greenwich,RI,02818-3108,UNITED STATES,www.mcgeorgeai.com
"McGill Smith Punshon, Inc.","3700 Park 42 Dr , Ste 190B",Cincinnati,OH,45241-2081,UNITED STATES,www.mcgillsmithpunshon.com
McGillin Architecture Inc.,"333 E City Ave, 2 Bala Plaza, Suite 502",Bala Cynwyd,PA,19004-1501,UNITED STATES,www.mcgillinarch.com
"McGillin Architecture, Inc.","2 Bala Plaza, Suite 502",Bala Cynwyd,PA,19004,UNITED STATES,www.mcgillinarch.com
"McGinley Kalsow & Associates, Inc.",PO Box 45248,Somerville,MA,02145-0003,UNITED STATES,www.mcginleykalsow.com
McGINTY STUDIO,4860 Sterling Dr,Boulder,CO,80301-2350,UNITED STATES,mcgintyinc.com
McGram Architects,"17 Cornelia St , Apt 3A",New York,NY,10014-5661,UNITED STATES,www.agramrealty.com
McGranahan Architects,2111 Pacific Ave Ste 100,Tacoma,WA,98402-3009,UNITED STATES,www.mcgranahan.com
"McGraw Bagnoli Architects, PLLC",2031 Florida Ave NW,Washington,DC,20009-1200,UNITED STATES,www.mcgrawbagnoli.com
"McGuire Architects, Inc.","915 Daly St , Ste 300",Indianapolis,IN,46202-3921,UNITED STATES,
McGuire Igleski & Associates,1330 Sherman Ave,Evanston,IL,60201-4324,UNITED STATES,www.miarchitects.com
McHenry Architecture,"4 Market St , Ste 1",Portsmouth,NH,03801-3983,UNITED STATES,www.mchenryarchitecture.com
McInnis Architects,710 N Church St,Rockford,IL,61103-6917,UNITED STATES,www.mcinnisarchitects.com
