Firm Name,Address Line 1,City,State,Zip Code,Country,Firm URL
Carl Daniel Architects,305 Leon St,El Paso,TX,79901-1021,UNITED STATES,
Carl Day & Associates,139 Ocean Avenue Ext,Santa Monica,CA,90402-1217,UNITED STATES,
"Carl Edwin Grundberg, Architect",6485 Village Pkwy,Anchorage,AK,99504-3947,UNITED STATES,
Carl I. Puchall Architect,15 Bryant Ave,Roslyn,NY,11576-1134,UNITED STATES,
Carl Kaiserman,6885 S Highway A1A,Melbourne Beach,FL,32951-3810,UNITED STATES,www.kaiserman.net
Carl Massara & Associates,"2401 Walnut St , Ste 100",Philadelphia,PA,19103-4341,UNITED STATES,www.carlmassara.com
"Carl Myatt, Architect",1111 W Friendly Ave,Greensboro,NC,27401-1871,UNITED STATES,
Carl O. Hueter Architect,1321 Franklin Blvd,Ann Arbor,MI,48103-5802,UNITED STATES,www.hueterarchitects.com
Carl P. Blum Architect,PO BOX 2386,Morgan City,LA,70381-2386,UNITED STATES,www.carlpblumaiaarchitect.com
"Carl R. Bean, Architect LLC",5000 Meadows RD,Lake Oswego,OR,97035-2227,UNITED STATES,
"Carl R. Goedecke, AIA","116 Pinehurst Ave , Apt L23",New York,NY,10033-8854,UNITED STATES,
"Carl Reinholz, AIA, Architect",1125 Camino del Mar,Del Mar,CA,92014-2645,UNITED STATES,
Carl W. Smith - Architect,PO Box 1156,Youngsville,NC,27596-1156,UNITED STATES,
Carleton Hart Architecture,830 Sw 10Th Ave Ste 200,Portland,OR,97205-2568,UNITED STATES,www.carletonhart.com
Carlile Architects LLC,"1511 N Convent St , # 700-296",Bourbonnais,IL,60914-1470,UNITED STATES,www.carlile-architects.com
Carlile Coatsworth Architects,"18600 MacArthur Blvd , Ste 300",Irvine,CA,92612-1272,UNITED STATES,www.ccarchitects.com
"Carlile Coatsworth Architects, Inc.","18600 MacArthur Blvd , Ste 300",Irvine,CA,92612-1272,UNITED STATES,www.ccarchitects.com
Carlisle Associates Inc.,"1015 Gervais St, Po Box 11528 (29211)",Columbia,SC,29201-3129,UNITED STATES,www.carlisleassociates.com
Carlos Architects Inc.,3327 Adams St,Carlsbad,CA,92008-2502,UNITED STATES,www.andrewcarlosarchitect.com
"Carlos Campos, AIA",2040 N Larrabee St,Chicago,IL,60614-4419,UNITED STATES,
Carlos Deupi Architect,2011 Crystal Dr,Arlington,VA,22202-3709,UNITED STATES,www.conservation.org
"Carlos Diaz Architects,",1526 Nw 89Th Ct,Doral,FL,33172-2647,UNITED STATES,www.cdarchitects.com
"Carlos E. Betancourt Llambias, Arquitectos","Urb. Ext. Roosevelt, 511 Calle Arrigotia",San Juan,PR,00918-2648,UNITED STATES,
"Carlos Marin & Associates, P.A.",120 Cadima Ave,Coral Gables,FL,33134-6727,UNITED STATES,
"Carlos Raul Rodriguez, Architect",1961 Browning Rd,Pennsauken,NJ,08110-2941,UNITED STATES,
"carlos salazar, javier isado arquitectos asociados",703 union,san juan,PR,00907,UNITED STATES,www.local-107.com
Carlsen & Frank Architects,524 Selby Ave,Saint Paul,MN,55102-1729,UNITED STATES,carlsenfrank.com
"Carlson Design Group, Inc.",7232 Havenwood Dr,Castle Pines,CO,80108-8290,UNITED STATES,www.cdghomes.net
Carlson Investments,,,,,,
Carlson Veit Architects P.C.,3095 River Rd N,Salem,OR,97303-6512,UNITED STATES,www.carlsonveit.com
Carlson Veit Architects PC,3095 River Rd N,Salem,OR,97303-6512,UNITED STATES,carlsonveit.com
Carlson West Povondra Architects,5060 Dodge St Ste 2001,Omaha,NE,68132-2965,UNITED STATES,www.cwparchitects.com
Carlson West Povondra Architects,5060 Dodge St Ste 2001,Omaha,NE,68132-2965,UNITED STATES,www.cwparchitects.com
"Carlton Abbott & Partners, P.C.",PO Box BU,Williamsburg,VA,23187-3525,UNITED STATES,
"Carlton Architecture, PA",103 Broadway St,Asheville,NC,28801-2905,UNITED STATES,www.carltonarchitecture.com
"Carlton Architecture, PC","240 Madison Ave , Fl 10",New York,NY,10016-2876,UNITED STATES,www.carltonpc.com
"Carlton Architecture, PC","240 Madison Ave , Fl 11",New York,NY,10016-2875,UNITED STATES,www.carltonpc.com
Carlton Edwards,171 Racine St,Memphis,TN,38111-2709,UNITED STATES,www.carlton-edwards.com
"Carlton Edwards, PLLC",171 Racine St,Memphis,TN,38111-2709,UNITED STATES,www.carlton-edwards.com
Carly Weisman Architecture & Design,153 Deforest St,Watertown,CT,06795,UNITED STATES,
Carmel Development Company,7145 Carmel Valley Rd,Carmel,CA,93923-9541,UNITED STATES,www.carmelcalifornia.org
Carmen Lenzi Architect,"35 Bond St , Fl Ground",New York,NY,10012-2426,UNITED STATES,www.clarchitect.net
Carmen T Diaz Architect,"1901 NW South River Dr , Apt 30",Miami,FL,33125-2757,UNITED STATES,
Carmi Design Group Inc.,PO Box 627,Edwardsburg,MI,49112-0627,UNITED STATES,www.carmi.biz
Carmina Wood Morris PC,"487 Main St , Ste 600",Buffalo,NY,14203-1732,UNITED STATES,www.cwm-ae.com
"Carmina Wood Morris, P.C.",80 Silo City Row Suite 100,Buffalo,NY,14203-1732,UNITED STATES,www.cwm-ae.com
Carmine A. Ciccone Architect P.C.,PO Box 4787,Middletown,NY,10941-8787,UNITED STATES,
Carney Logan Burke Architects,215 S King St,Jackson,WY,83001-8554,UNITED STATES,www.clbarchitects.com
"Caro Monroe & Liang, P.C.","739 Thimble Shoals Blvd , Ste 805",Newport News,VA,23606-3585,UNITED STATES,www.lockheedmartin.com
"Carol A. Frederick,  AIA",640 W Woodland St,Ferndale,MI,48220-2759,UNITED STATES,
