Firm Name,Address Line 1,City,State,Zip Code,Country,Firm URL
Jon Powell Architecture,"100 Bogart St , # 317",Brooklyn,NY,11206-3510,UNITED STATES,www.jopo.co
Jon W. Sammer Architect,"4101 Chain Bridge Road
Suite 102",Fairfax,VA,22030,UNITED STATES,
Jonathan B. Held A.I.A. Architect,"61 Greenpoint Ave , Ste 506",Brooklyn,NY,11222-1991,UNITED STATES,www.jonheldarchitect.com
Jonathan Barnes Architecture & Design,"243 N 5th St , Ste 200",Columbus,OH,43215-2674,UNITED STATES,www.jbadusa.com
"Jonathan Boelkins, Architect",707 Reed Valley Rd,Fayetteville,AR,72704-5441,UNITED STATES,
"Jonathan Douglas, Architect, AIA",86 Fig Ct,Santa Rosa Beach,FL,32459-5940,UNITED STATES,
Jonathan Kuhn Architect,"New: 508 Kennedy Street NW, #313",Washington,DC,20011,UNITED STATES,www.kuhnarchitect.com
Jonathan L. Foote & Associates,140 E Main St Ste A,Bozeman,MT,59715-4701,UNITED STATES,www.jlfarchitects.com
Jonathan Lee Architects,-,Petoskey,MI,49770,UNITED STATES,www.jleearch.com
Jonathan Levi Architects,266 Beacon St,Boston,MA,02116-1224,UNITED STATES,www.leviarc.com
"Jonathan Lipman, AIA & Associates","1680 Highway 1 , Ste 2600",Fairfield,IA,52556-9117,UNITED STATES,www.maharishivastu.org
Jonathan Miller Architecture and Design,4931 Homberg Dr,Knoxville,TN,37919-5146,UNITED STATES,
Jonathan Miller Architecture and Design,"4814 Old Kingston Pike, Knoxville",Knoxville,TN,37919.,UNITED STATES,www.jonathanmillerarchitects.com
"Jonathan Nehmer + Associates, Inc.","702 King Farm Boulevard
Suite 600",Rockville,MD,20850,UNITED STATES,www.nehmer.com
Jonathan P. Fine & Assoc. Architects Ltd.,3444 W Drummond Pl,Chicago,IL,60647-1212,UNITED STATES,
Jonathan Parks Architect,PO Box 76455,Tampa,FL,33675-1455,UNITED STATES,
"Jonathan Raible Architect, PLLC",30770 Riverside Drive,New York,NY,10025,UNITED STATES,
Jonathan Rivera Architecture,3226 Huntersworth Way,Glenwood,MD,21738,UNITED STATES,www.jonathanrivera.com
Jonathan Schloss Architect,"277 Broadway
Suit 1310",New York,NY,10007,UNITED STATES,www.jonathanschloss.com
Jonathan Schloss I Architect,"277 Broadway , Fl 13",New York,NY,10007-2002,UNITED STATES,www.jonathanschloss.com
Jonathan Segal Architect,"3000 Upas St , Ste 101",San Diego,CA,92104-4221,UNITED STATES,
Jonathan Splitt Architects Ltd.,"4001 N Ravenswood Ave , Ste 601",Chicago,IL,60613-6463,UNITED STATES,www.jsarch-ltd.com
Jonathan Stout AIA,"23440 Civic Center Way , # 300",Malibu,CA,90265-4854,UNITED STATES,www.jonathanstoutaia.com
Jonathan Whitten + Associates,1017 7th St,Las Vegas,NM,87701-4205,UNITED STATES,
"Jonathan Whitten Architecture, LLC",1017 7th Street,Las Vegas,NM,87701-4205,UNITED STATES,
"Joncich Sturm & Associates, Inc.","370 Crenshaw Blvd , Ste E104",Torrance,CA,90503-1728,UNITED STATES,jsa-arch.com
Jones & Boer Architects,528 Winding Rose Dr,Rockville,MD,20850-2869,UNITED STATES,
Jones & Jones,PO Box 241,Santa Ynez,CA,93460-0241,UNITED STATES,
Jones & Jones Architects,6120 Peters Creek Rd,Roanoke,VA,24019-4028,UNITED STATES,www.jonesandjonespc.com
Jones & Jones Architects & Landscape Architects,105 S Main St Ste 300,Seattle,WA,98104-3474,UNITED STATES,www.jonesandjones.com
Jones & Madhavan,100 E Thousand Oaks Blvd Ste 211,Thousand Oaks,CA,91360-8134,UNITED STATES,www.jmae.com
Jones and Jones Associates Architects,6120 Peters Creek Road,Roanoke,VA,24019,UNITED STATES,www.jones-jones-associates-architects.business.site
Jones Architecture,"120 NW 9th Ave , Ste 210",Portland,OR,97209-3326,UNITED STATES,www.jonesarc.com
Jones Architecture,"1231 NW Hoyt St , Ste 404",Portland,OR,97209-3060,UNITED STATES,jonesarc.com
JONES architecture & development,"7 4th St , Ste 8",Petaluma,CA,94952-3072,UNITED STATES,jonesarchitectureca.com
Jones Architecture LLC,10 Derby Sq,Salem,MA,01970-3789,UNITED STATES,www.jonesarch.com
"Jones Architecture, Inc.",10 Derby Square,Salem,MA,01970,UNITED STATES,https://www.jonesarch.com/
"Jones Architecture, Inc.","10 Derby Sq , Ste N3",Salem,MA,01970-3772,UNITED STATES,www.jonesarch.com
"Jones Design Studio, PLLC","1301 E 15th St , Ste 201",Tulsa,OK,74120-5803,UNITED STATES,www.jones-design-studio.com/
Jones Development Company,4520 Madison Ave,Kansas City,MO,64111-3510,UNITED STATES,www.jonesdevco.com
jones haydu,"1 arkansas street, suite D1",san francisco,CA,94107,UNITED STATES,www.joneshaydu.com
Jones Lang Lasalle,1 Post Office Sq,Boston,MA,02109-2106,UNITED STATES,www.jll.com
Jones Lang LaSalle,1801 K St Nw Ste 1000,Washington,DC,20006-1303,UNITED STATES,www.rwjf.org
Jones Lang LaSalle,"1600 Tysons Blvd , Ste 1000",McLean,VA,22102-4859,UNITED STATES,www.am.jll.com
Jones Lang LaSalle,"100 Stamford Pl , Ste 201",Stamford,CT,06902-6747,UNITED STATES,www.jll.com
Jones Petrie Rafinski,412 S Lafayette Blvd,South Bend,IN,46601-2204,UNITED STATES,www.jpr1source.com
Jones Pierce Architects,"730 Peachtree St NE , Ste 350",Atlanta,GA,30308-1226,UNITED STATES,www.jonespierce.com
Jones Pierce Architecture,"553 Amsterdam Ave NE , Ste 3",Atlanta,GA,30306-3401,UNITED STATES,www.jonespierce.com
"Jones Studio, Inc.",205 S Wilson St,Tempe,AZ,85281-2703,UNITED STATES,www.jonesstudioinc.com
Jones Whitsett Architects,308 Main St Ste 3A,Greenfield,MA,01301-3423,UNITED STATES,www.joneswhitsett.com/home
