Firm Name,Address Line 1,City,State,Zip Code,Country,Firm URL
Sokolove Development LLC,"500 W Harbor Dr , Unit 1022",San Diego,CA,92101-7727,UNITED STATES,sokolovedevelopment.com
"Sokolow Architects, LLC","3411 Silverside Road
Baynard Building, Suite 230",Wilmington,DE,19810,UNITED STATES,www.sokolowarchitects.com
Sol Design Studio LLC,"1718 East 7th Avenue, Suite #301",Tampa,FL,33605,UNITED STATES,www.sol-designstudio.com/architects/
SOL Design Studio LLC,1718 E. 7th ave. Suite 301,Tampa,FL,33605-3816,UNITED STATES,www.sol-designstudio.com
SOL Developments LLC,1332 Spring St,Cincinnati,OH,45202-7421,UNITED STATES,www.soldesignconsulting.com
Sol Harris Day Architects,3722 Whipple Ave NW,Canton,OH,44718-2934,UNITED STATES,www.harrisday.com
SoL Harris/Day Architecture,6677 Frank Ave Nw,North Canton,OH,44720-7259,UNITED STATES,solharrisday.com/
"Sol Studio Architects, LLC",1438 S Presa St,San Antonio,TX,78210,UNITED STATES,www.solstudioarchitects.us
Sola-Sole Architects,7008 Endicott Court,Bethesda,MD,20817,UNITED STATES,www.solasolearch.com
"Solex Architecture, Inc.",641 Main Street,Danville,VA,24541,UNITED STATES,www.solexarchitecture.com
Solid Tech LLC,5190 S Tibet ST,Aurora,CO,80015-6565,UNITED STATES,gosolidtech.com
SoliDeo Design Studio,4515 Highgate Dr,Durham,NC,27713-9484,UNITED STATES,www.solideodesignstudio.com
"SolkaNavaTorno, LLC, architects","6262 Weber Rd , Ste 310",Corpus Christi,TX,78413-4031,UNITED STATES,www.sntarchitects.com
Solomon + Bauer + Giambastiani Architects,75 Kneeland St,Boston,MA,02111-1901,UNITED STATES,
Solomon Cordwell Buenz,255 California St Fl 3,San Francisco,CA,94111,UNITED STATES,www.scb.com
Solomon Cordwell Buenz,625 N Michigan Ave Ste 800,Chicago,IL,60611-3110,UNITED STATES,www.scb.com
Solomon Cordwell Buenz,,,,,,scb.com
Solomon Cordwell Buenz,"625 N Michigan Ave, Suite 800",Chicago,IL,60611,UNITED STATES,www.scb.com/office/chicago/
Solomon Cordwell Buenz,34 Farnsworth Street 1st Floor,Boston,MA,02210,UNITED STATES,www.scb.com/office/boston
Solomon Olopade Architect,"960 Rogero Road #2,",Jacksonville,FL,32211,UNITED STATES,
Solomon Pan FAIA Architect,"640 Davis St , Unit 23",San Francisco,CA,94111-1948,UNITED STATES,
"Solomon, Cordwell and Buenz","200 High St , Lbby 2",Boston,MA,02110-3045,UNITED STATES,www.sga-arch.com
"Solomon, Cordwell, Buenz & Associates, Inc.",,,,,,
Soloway Designs Inc,7532 N La Cholla Blvd,Tucson,AZ,85741-2307,UNITED STATES,www.soloway-designs.com
SolQuest Design Unlimited,2143 E 95th Pl,Chicago,IL,60617-4705,UNITED STATES,www.solquestdesign.com
Solstice Planning and Architecture,"1900 Main St , Ste 202",Sarasota,FL,34236-5949,UNITED STATES,www.solsticearchitects.com
Soltero Munoz & Associate,"604 Hoare Street, Miramar",San Juan,PR,00907,UNITED STATES,
Soltero Munoz and Associates,110 Calle Las Palomas,Santurce,PR,00911-2216,UNITED STATES,
Soltner Group Architects,"1333 N Northlake Way , Ste A",Seattle,WA,98103-8900,UNITED STATES,www.soltnergroup.com
"Solum Lang Architects, LLC",1101 Old Marion Rd NE,Cedar Rapids,IA,52402-5725,UNITED STATES,www.solumlangarchitects.com
SOLURI ARCHITECTURE,"303 5TH AVENUE, Suite 1702",New York City,NY,10016,UNITED STATES,www.soluri-architecture.com
Soluri Architecture,"303 5th Ave , Rm 1702",New York,NY,10016-6601,UNITED STATES,www.soluri-architecture.com
Solutions Architecture LLC,96 Pompton Ave FL Suite,Verona,NJ,07044-2950,UNITED STATES,www.solutions-arch.com
Solutions in Architecture,513 3rd Ave S,Nashville,TN,37210-2009,UNITED STATES,
"Solutions IPEM, LLC",303 N Bedford ST,Georgetown,DE,19947-1151,UNITED STATES,www.solutionsipem.com
SOM,"224 S Michigan Ave , Ste 1000",Chicago,IL,60604-2526,UNITED STATES,www.som.com
SOM,"7 World Trade Center, 250 Greenwich St",New York,NY,10007,UNITED STATES,www.som.com
SOM,14 Wall St,New York,NY,10005-2101,UNITED STATES,www.som.com
SOM,224 S Michigan Ave,Chicago,IL,60604-2505,UNITED STATES,som.com/
Som & Associates,60 Round Hill Rd,Tiburon,CA,94920-1518,UNITED STATES,
Somdal Associates Architecture-Interior,5925 Line Ave Ste 3,Shreveport,LA,71106-2049,UNITED STATES,www.somdal.com
"Somerville, Inc.",2100 Riverside Dr Ste 300,Green Bay,WI,54301-2390,UNITED STATES,www.somervilleinc.com
Sommer Design Studios,"4500 Pretty Lake Ave , Ste 100",Norfolk,VA,23518-1822,UNITED STATES,www.waldroupsommer.com
Sommerset Group,"153 W Ohio St , Ste 208",Chicago,IL,60654-4859,UNITED STATES,www.cornesco.com
"SONDER architecture + design, LLC","848 W North Ave , Ste 105",Pittsburgh,PA,15233-1617,UNITED STATES,www.sonderarch.com
"Song + Associates, Inc.",1545 Centrepark Dr N,West Palm Beach,FL,33401-7414,UNITED STATES,www.songandassociates.com
SONGER architecture inc,27093,Lethbridge,,,CANADA,
"Sonnenfeld & Trocchia Architects, P.A.",53 Main St,Holmdel,NJ,07733-2310,UNITED STATES,www.sonnenfeldandtrocchia.com
soohoocity,1620 Hull Dr,San Carlos,CA,94070-2029,UNITED STATES,www.soohoocity.com/
"Sopher Architects, LLc","1919 14th St , Ste 610",Boulder,CO,80302-5310,UNITED STATES,www.sopherarchitects.com
