Firm Name,Address Line 1,City,State,Zip Code,Country,Firm URL
Studio Dumitru,25 Sylvan RD S Ste I,Westport,CT,06880-4637,UNITED STATES,www.studiodumitru.com
Studio Dwell Architects,1135 N California Ave,Chicago,IL,60622-3403,UNITED STATES,www.studiodwell.com
Studio E Architects,2258 1St Ave,San Diego,CA,92101-2086,UNITED STATES,www.studioearchitects.com
Studio E Architects,19 Minnesota Ave E,Glenwood,MN,56334-1625,UNITED STATES,www.studioearchitectsllc.com
Studio EA,86 Coulee Rd Ste 200,Hudson,WI,54016-2395,UNITED STATES,wearestudioea.com
"Studio EA, LLC",1020 8Th Ave S Ste 12,Naples,FL,34102-6959,UNITED STATES,www.zellc.us
Studio Ecesis,711 Healdsburg Ave Suite D,Healdsburg,CA,95448-4139,UNITED STATES,www.studioecesis.com
Studio Ectypos,4212 W Mercer Way,Mercer Island,WA,98040-3408,UNITED STATES,www.studioectypos.com
Studio Eight Design,56 Lindsley Avenue,Nashville,TN,37210,UNITED STATES,www.s8-design.com
Studio ENEE architects,460 Hillside Ave Ste J,Needham,MA,02494-1279,UNITED STATES,www.studioenee.com
"Studio Errico, LLC",PO Box 220471,Anchorage,AK,99522-0471,UNITED STATES,
Studio Fetter,212 Eaton Ct,Benicia,CA,94510-1510,UNITED STATES,studiofetter.com
"Studio Five Architects, Inc.","322 1st Ave N , Ste 600",Minneapolis,MN,55401-1634,UNITED STATES,www.jlgarchitects.com
Studio Fleming Design,4166 Whittle Ave,Oakland,CA,94602-2544,UNITED STATES,
"Studio for Architecture, Inc",1528 Jackson Street,Fort Myers,FL,33901,UNITED STATES,www.st4arc.com
"Studio for Housing Design, LLC","3084 Mercer University Dr , Ste 110",Atlanta,GA,30341-4139,UNITED STATES,
Studio for Spatial Practice LLC,3609 Penn Ave,Pittsburgh,PA,15201-1334,UNITED STATES,www.studiofsp.com
Studio Forty,PO Box 33527,Raleigh,NC,27636-3527,UNITED STATES,www.studioforty.net
Studio Four Design,414 Clinch Ave,Knoxville,TN,37902-2100,UNITED STATES,www.s4dinc.com
Studio Four Design Inc.,414 Clinch Avenue,Knoxville,TN,37902,UNITED STATES,www.studiofourdesign.com
"Studio Four Design, Inc.",414 Clinch Ave,Knoxville,TN,37902-2100,UNITED STATES,www.s4dinc.com
Studio G Architects,179 Boylston St Fl 3Rd,Jamaica Plain,MA,02130-4544,UNITED STATES,www.studiogarchitects.com
Studio G Architecture,"455 W 6th St , Unit 3",San Pedro,CA,90731-2631,UNITED STATES,
"studio g+G inc, architect",1057 Walker Rd,Windsor,ON,N8W 2R1,CANADA,www.designstudiogg.com
Studio G.C.,"223 W Jackson Blvd , Ste 1200",Chicago,IL,60606-6906,UNITED STATES,www.studiogc.com
Studio G2Architects,"6 Claremont Rd , Unit D",Bernardsville,NJ,07924-2267,UNITED STATES,www.studio-g2.com
Studio Gang Architects,1520 W Division St,Chicago,IL,60642-3312,UNITED STATES,studiogang.com
Studio Gang Architects,1520 W Division St,Chicago,IL,60642-3312,UNITED STATES,www.studiogang.com
Studio Gang Architects,"50 Broad St , Ste 1003",New York,NY,10004-2950,UNITED STATES,www.studiogang.com
Studio Gang Architects,"50 Broad St , Ste 1003",New York,NY,10004-2950,UNITED STATES,studiogang.net
Studio Gang Architects,1520 W Division St,Chicago,IL,60642-3312,UNITED STATES,www.studiogang.com
Studio Goetz,"229 W 116th St , Apt 4C",New York,NY,10026-2799,UNITED STATES,www.studiogoetz.com
Studio Gola Papa,101 Carteret Street,Glen Ridge,NJ,07028,UNITED STATES,
studio GREENE,2725 California Ave Sw,Seattle,WA,98116-2405,UNITED STATES,
Studio Ground Up Architecture PC,"19 7th Ave, 2R",Brooklyn,NY,11217,UNITED STATES,www.studiogroundup.com
Studio GWA,"200 Prairie St , Ste 201",Rockford,IL,61107,UNITED STATES,studiogwa.com
Studio H,PO Box 2716,Petaluma,CA,94953-2716,UNITED STATES,
Studio H Design Inc,"895 Technology Blvd , Ste 203",Bozeman,MT,59718-6812,UNITED STATES,www.studiohdesigninc.com
Studio H+H Architects PLLC,3 Glowing Star Pl,The Woodlands,TX,77382-2694,UNITED STATES,www.studiohharchitects.com
Studio Hamlet Architects,10583 NE Manitou Park Blvd,Bainbridge Island,WA,98110-1352,UNITED STATES,www.studiohamlet.com
Studio III architects,23 Main St,Bristol,VT,05443-1350,UNITED STATES,www.studio3architecture.net
Studio Inc,"807 S Orlando Ave , Ste F",Winter Park,FL,32789-4870,UNITED STATES,www.gseav.com
Studio Intrigue Architects,"1114 S Washington Ave , Ste 100",Lansing,MI,48910-1649,UNITED STATES,www.studiointrigue.com
Studio Jonah,8 Glenavy Ave,Toronto,ON,M4P 2T6,CANADA,www.studiojonah.com
Studio K Architects,759 NE Bay Cove St,Boca Raton,FL,33487,UNITED STATES,www.studiokarchitects.com
"Studio K2 Architecture, Inc.","1525 Market Street, Suite 200",Denver,CO,80202,UNITED STATES,www.sk2arch.com
Studio KDA,1810 6th St,Berkeley,CA,94710-2003,UNITED STATES,www.studiokda.com
Studio Kohlhaas,603 Josephine St,Austin,TX,78704-1531,UNITED STATES,www.levykohlhaas.com
"Studio Kraft, LLC",58 Thrasher St,New Orleans,LA,70124-4108,UNITED STATES,www.studiokraftad.com
Studio Kremer Architects Inc.,1231 S Shelby St,Louisville,KY,40203-2626,UNITED STATES,www.studiokremer.com
