Firm Name,Address Line 1,City,State,Zip Code,Country,Firm URL
o2 Architecture,"1089 N Palm Canyon Dr , Ste B",Palm Springs,CA,92262-4416,UNITED STATES,www.o2arch.com
OA+D,"4355 West Emerald, Suite 110",Boise,ID,83706,UNITED STATES,
OA+D Architects,"3 Windward Center, 96 Smith Road, George Town",Grand Cayman,,,UNITED KINGDOM,www.oadarchitects.com
"Oak Hill Architects, Inc.",472 Boston Post Rd,Weston,MA,02493-1529,UNITED STATES,www.oakhillarchitects.com
Oak Point Associates,PO Box 1259,Biddeford,ME,04005-1259,UNITED STATES,oakpoint.com
Oak Point Associates,85 Middle St,Portsmouth,NH,03801-4303,UNITED STATES,www.oakpoint.com
"Oakes Architects, Inc.",545 Cypress Ave,Hermosa Beach,CA,90254-4643,UNITED STATES,oakesarchitects.com
"Oakley Collier Architects, PA",109 Candlewood Rd,Rocky Mount,NC,27804-2132,UNITED STATES,www.oakleycollier.com
Oasis Design Lab,37 King St,Norwalk,CT,06851-5421,UNITED STATES,www.oasisdesignlab.com
Oatman Architects,412 31st St,Newport Beach,CA,92663-3836,UNITED STATES,www.oatmanarchitects.com
Obayashi Design Group Inc,1314 S King St Ste 850,Honolulu,HI,96814-1943,UNITED STATES,www.odginc.com
"Oberbeck Architecture, LLC",110 S 36th Ave,Wausau,WI,54401-4011,UNITED STATES,www.oberbeckarchitecture.com
Oberbroeckling & Associates P.C.,205 Terrace Rd,Des Moines,IA,50312-5425,UNITED STATES,
"Obie G. Bowman, FAIA, Architect",PO Box 1114,Healdsburg,CA,95448-1114,UNITED STATES,www.obiebowman.com
Object Territories Architecture PLLC,"49 Withers St , Apt 3",Brooklyn,NY,11211-1247,UNITED STATES,www.object-territories.com
obm architects,po box 10693 ky1-1006,georgetown,,,UNITED KINGDOM,
"OBM Miami, Inc.","2600 S Douglas Rd , Ste 510",Coral Gables,FL,33134-6100,UNITED STATES,www.obmi.com
obr architecture,3817 Ray St,San Diego,CA,92104-3622,UNITED STATES,www.obrarchitecture.com
OBRA Architects,315 Church St Fl 4,New York,NY,10013-2442,UNITED STATES,www.obraarchitects.com
obrian muehleisen architecture studio LLC,"41 Union Sq W , Ste 1119",New York,NY,10003-3253,UNITED STATES,www.omasworks.com
OBrien Atkins Associates,5001 S Miami Blvd,Durham,NC,27703-8526,UNITED STATES,www.obrienatkins.com/
OC+A Architects,1535 West Loop S Ste 200,Houston,TX,77027-9508,UNITED STATES,www.nec24.com
OCG Architects LLP,"60 Carleton Ave , Ste 202",Islip Terrace,NY,11752-1534,UNITED STATES,
Ochoa Design Associates,73626 Highway 111,Palm Desert,CA,92260,UNITED STATES,
OCPS Design and Contruction,"6501 Magic Way , Bldg 200",Orlando,FL,32809-5677,UNITED STATES,www.ocps.net
"Octavio A. Santurio, Architect",6262 Bird Rd Ste 3E,Miami,FL,33155-4882,UNITED STATES,
"Oculus Architects, Inc.","203 Willow St , Ste 501",San Francisco,CA,94109-7733,UNITED STATES,www.oculus-sf.com
"Oculus Architects, Inc.","1311 Sutter St , Ste 200B",San Francisco,CA,94109-5469,UNITED STATES,www.oculus-sf.com
Oculus Architecture & Design,1501 Powell ST Ste L,Emeryville,CA,94608-2097,UNITED STATES,www.oculous.com
Oculus Inc.,1 South Memorial Dr. Suite 1500,st. louis,MO,63102,UNITED STATES,oculusinc.com/
"Oculus, Inc.","One Memorial DR Ste 1500, Suite 1500",Saint Louis,MO,63102-2425,UNITED STATES,www.oculusinc.com
ODA-Architecture,"99 Hudson St.,  FL 2",New York,NY,10013,UNITED STATES,www.oda-architecture.com
ODAA,3423 W Jefferson Blvd,Los Angeles,CA,90018-3235,UNITED STATES,www.okb.us
ODELL a LaBella Company,"400 S Tryon St #1300,",Charlotte,NC,28285,UNITED STATES,www.odell.com
Odell Architects,"1024 Cherokee St , Unit 200",Denver,CO,80204-4001,UNITED STATES,www.odellarchitects.com
Odell Associates,"400 S. Tryon Street
Suite 1300",Charlotte,NC,28285,UNITED STATES,www.odell.com/
Odell Associates Inc.,"9300 Shelbyville Rd , Ste 502",Louisville,KY,40222-5164,UNITED STATES,
"Odell, A LaBella Company","400 S Tryon St.
Suite 1300",Charlotte,NC,28285,UNITED STATES,www.odell.com
"Odile Compagnon, Architect",6050 N Maplewood Ave,Chicago,IL,60659-4111,UNITED STATES,www.odilecompagnon.com
Odimo LLC,"601 E 63rd St , # 205",Kansas City,MO,64110,UNITED STATES,www.odimo.us
Odle McGuire & Shook,"429 N Pennsylvania St , Ste 403",Indianapolis,IN,46204-1816,UNITED STATES,www.omscorp.net
Odle McGuire Shook,"429 N Pennsylvania St , Ste 202",Indianapolis,IN,46204-1816,UNITED STATES,www.omscorp.net
ODP Architects,2432 Hollywood Blvd,Hollywood,FL,33020,UNITED STATES,www.odparchitects.com
ODS Architecture,5895 Doyle St,Emeryville,CA,94608-2504,UNITED STATES,www.odsarchitecture.com
Oertel Architects,1795 Saint Clair Ave,Saint Paul,MN,55105-1941,UNITED STATES,www.oertelarchitects.com
Offenhauser Associates Inc.,445 Columbia St,South Pasadena,CA,91030-1628,UNITED STATES,
Office for Good Architecture,,,,,,
Office for Planning and Architecture,,,,,,www.oparchitecture.com
Office Hsu McCullough,"2934 1/2 Beverly Glen Circle, Unit 378",Los Angeles,CA,90077,UNITED STATES,www.hm.la
Office JDY Architecture PLLC,"55 Washington Street, Suite 335",Brooklyn,NY,11201,UNITED STATES,www.officejdy.com
