Firm Name,Address Line 1,City,State,Zip Code,Country,Firm URL
"Brickmoon Design, LLC",PO Box 672,Spring,TX,77383-0672,UNITED STATES,www.brickmoondesign.com
Brickstack Architects,"573 Fairview Rd , Ste 4",Asheville,NC,28803-1345,UNITED STATES,www.brickstackarchitects.com
Bricolage,"3400 Airport Ave , Suite 40",Santa Monica,CA,90405-6132,UNITED STATES,www.bricolagedesign.com
"Bricolage Architecture & Design, PLLC","6321 New Utrecht Ave , Fl 2",Brooklyn,NY,11219-5425,UNITED STATES,www.bricolagedesigns.com
"Bridges, Marsh & Associates",18 Via Mizner,Palm Beach,FL,33480-4611,UNITED STATES,www.bridgesmarsharchitects.com
"Briggs Architecture & Design, Inc.",265 W Front ST,Missoula,MT,59802-4348,UNITED STATES,www.briggsarchitecture.com
Bright Architecture,"200 E Court St , Ste 700",Kankakee,IL,60901-3856,UNITED STATES,www.bright-arch.com
Bright Common,413 W Jefferson St,Philadelphia,PA,19122-3737,UNITED STATES,brightcommon.com
Bright Common Architecture & Design,631 Belgrade St,Philadelphia,PA,19125-2717,UNITED STATES,www.brightcommon.com/
Bright Design Associates,660 S Country Club Rd,Tucson,AZ,85716-5807,UNITED STATES,www.brightdesignassoc.com
Bright Ventures,1001 Grandview Dr,Nashville,TN,37204-3208,UNITED STATES,www.brightventuresreo.com
Brillhart Architectecture,1278 NW 29th ST,Miami,FL,33142-6618,UNITED STATES,www.brillhartarchitecture.com
Brininstool + Lynch,1144 W Washington Blvd,Chicago,IL,60607-2046,UNITED STATES,www.brininstool-lynch.com
Brininstool + Lynch,1144 W Washington Blvd,Chicago,IL,60607-2046,UNITED STATES,www.brininstool-lynch.com
Brininstool + Lynch,1144 W Washington Blvd,Chicago,IL,60607-2046,UNITED STATES,www.brininstool-lynch.com
"Brininstool + Lynch, Ltd",1144 W Washington Blvd Ste 3,Chicago,IL,60607,UNITED STATES,www.brininstool-lynch.com
"Brink Kolberg & Associates, LLC",4506 Regent St,Madison,WI,53705-4966,UNITED STATES,www.brinkkolberg.com
Brinkley Sargent Wiginton Architects,"1005 E. St. Elmo
Building 8",Austin,TX,78745,UNITED STATES,www.brinkleysargent.com
Brinkley Sargent Wiginton Architects,209 E Riverside Dr,Austin,TX,78704-1203,UNITED STATES,www.bsw-architects.com
"Brinkley Sargent Wiginton Architects, Inc","5000 Quorum Dr , Ste 600",Dallas,TX,75254-7019,UNITED STATES,www.bsw-architects.com
Brion Jeannette Architecture,470 Old Newport Blvd,Newport Beach,CA,92663-4211,UNITED STATES,www.customarchitecture.com
Bristlecone Architects Inc,8860 N Awl Rd,Parker,CO,80138-6840,UNITED STATES,
Brittell Architecture Inc.,"820 Ocean Beach Hwy , Ste 130",Longview,WA,98632-4081,UNITED STATES,brittellarch.com
Britton Architecture,PO Box 7749,Mammoth Lakes,CA,93546-7749,UNITED STATES,www.brittonarchitecture.com
Broaddus & Associates,"6900 Fannin St , Ste 1010",Houston,TX,77030-3808,UNITED STATES,www.broaddusassociates.com
Broaddus & Associates,905 W Mitchell St,Arlington,TX,76013-2507,UNITED STATES,www.broaddusassociates.com
Broaddus & Associates,"401 E Sonterra Blvd , Ste 375",San Antonio,TX,78258-4321,UNITED STATES,www.broaddusassociates.com
Broaddus & Associates,1301 S Capital Of Texas Hwy Ste 302A,West Lake Hills,TX,78746-6581,UNITED STATES,www.broaddusassociates.com
"Broadhurst Architects, Inc.",306 1St St,Rockville,MD,20851-1311,UNITED STATES,www.broadhurstarchitects.com/
Broadmoor Design Group,118 Random Oaks Ln,Mandeville,LA,70448-4565,UNITED STATES,www.broadmoordesigngroup.com
Brock Hudgins Architects,1075 Brady Ave NW,Atlanta,GA,30318-5527,UNITED STATES,www.brockhudgins.com
"Brockway, Opfer, Raab Architecture, PLLC","1320 N 16th Ave , Ste C",Yakima,WA,98902-1390,UNITED STATES,www.borarch.com
Brockwell Associates Inc.,"1911 Hillandale Rd , Ste 1050",Durham,NC,27705-2666,UNITED STATES,www.brockwell.com
Broderick Architects,"55 S Atlantic St , Ste 301",Seattle,WA,98134-1223,UNITED STATES,www.broderickarchitects.com
Brodie Architecture and Design,PO Box 1369,Gualala,CA,95445-1369,UNITED STATES,www.brodiearch.com
"Brogden Architectural Office, LLC",3328 Ryan Ave,Philadelphia,PA,19136-4302,UNITED STATES,www.brogdenarch.com
"Brook Architecture, Inc.","2325 S Michigan Ave , Ste 300",Chicago,IL,60616-2127,UNITED STATES,www.brookarchitecture.com
Brook McIlroy,"161 Spadina Ave , Unit 2",Toronto,ON,M5V 2L6,CANADA,www.brookmcilroy.com
Brookie Architecture & Planning,970 E 4th Ave,Durango,CO,81301-5311,UNITED STATES,www.thecollaborativeinc.net
"Brooks + Scarpa Architects, Inc.",3929 W 139th ST,Hawthorne,CA,90250-7404,UNITED STATES,www.brooksscarpa.com/
"Brooks and Falotico Associates, Inc.",199 Elm St,New Canaan,CT,06840-5321,UNITED STATES,www.brooksandfalotico.com
Brooks Architectural Inc.,5844 Red Arrow Hwy,Stevensville,MI,49127-1118,UNITED STATES,www.brooksarch.com
"Brooks R. Swanson, AIA","12052 Tamiami Trl N , Ste 1",Naples,FL,34110-1654,UNITED STATES,
Brooks Washburn Architect PC,22 Depot St,Potsdam,NY,13676-1229,UNITED STATES,www.brookswashburnarchitect.com
"Brooks Washburn Architect, PC",183 Sissonville Rd,Potsdam,NY,13676-3557,UNITED STATES,
"Brossett Architects, LLC",414 Pujo St,Lake Charles,LA,70601-4255,UNITED STATES,www.brossettarchitect.com
"Brost Architects & Planners, Ltd.",1005 Longfellow Dr,Hiawatha,IA,52233-2069,UNITED STATES,www.brostarchitects.com
Brotnov Architecture & Planning,724 1/2 6th St,Clarkston,WA,99403-2012,UNITED STATES,
"Brower Architectural Associates, Inc.","350 S County Rd , Ste 207",Palm Beach,FL,33480-4450,UNITED STATES,www.browerelectric.com
"Brown & Bills Architects, Inc.",55 Hillside Ct,Englewood,OH,45322-2746,UNITED STATES,www.brownandbills.com
