Firm Name,Address Line 1,City,State,Zip Code,Country,Firm URL
Stantec,"475 5th Ave , Fl 12",New York,NY,10017-7239,UNITED STATES,www.stantec.com
Stantec,100 California St,San Francisco,CA,94111-4505,UNITED STATES,www.stantec.com/
STANTEC,"901 Ponce de Leon Blvd , Ste 900",Coral Gables,FL,33134-3070,UNITED STATES,www.stantec.com
Stantec,1905 Aldrich ST Ste 300,Austin,TX,78723-3544,UNITED STATES,stantec.com
Stantec,"226 Causeway St , Fl 6",Boston,MA,02114-2155,UNITED STATES,www.stantec.com
Stantec,"226 Causeway St , Fl 6",Boston,MA,02114-2155,UNITED STATES,www.stantec.com/
Stantec,"225 N Michigan Ave , Ste",Chicago,IL,60604,UNITED STATES,www.stantec.com
Stantec,"910 Louisiana St , Ste 2600",Houston,TX,77002-4916,UNITED STATES,www.stantec.com
Stantec,2338 Coolidge Hwy,Berkley,MI,48072-1500,UNITED STATES,www.stantec.com
Stantec,"1500 Spring Garden St , Ste 1100",Philadelphia,PA,19130-4067,UNITED STATES,www.stantec.com
Stantec,"6080 Tennyson Pkwy , Ste 200",Plano,TX,75024-6003,UNITED STATES,www.stantec.com/en
Stantec,224 S Michigan Ave Ste 1400,Chicago,IL,60604-2590,UNITED STATES,www.stantec.com
Stantec,311 Summer St,Boston,MA,02210-1723,UNITED STATES,www.stantec.com
Stantec,"3001 Washington Blvd , Ste 500",Arlington,VA,22201,UNITED STATES,www.stantec.com
Stantec,801 S Figueroa ST Ste 300,Los Angeles,CA,90017-3007,UNITED STATES,www.stantec.com/
Stantec,910 Louisiana St. Suite 2600,Houston,TX,77002,UNITED STATES,www.stantec.com
Stantec,100 California St Ste 1000,San Francisco,CA,94111-4575,UNITED STATES,stantec.com
Stantec,910 Louisiana ST Ste 2,Houston,TX,77002-4906,UNITED STATES,www.stantec.com
Stantec,9179 Aero Dr,San Diego,CA,92123-2411,UNITED STATES,www.stantec.com
Stantec,"50 W 23rd St , Fl 8",New York,NY,10010-5272,UNITED STATES,www.stantec.com
Stantec,"One Biscayne, 2 S Biscayne Blvd Tower , Suite 1670",Miami,FL,33131,UNITED STATES,stantec.com
Stantec,6080 Tennyson Pkwy Ste 200,Plano,TX,75024-6003,UNITED STATES,www.shwgroup.com
Stantec,,,,,,
Stantec,1980 8th Street,Boulder,CO,80302,UNITED STATES,www.stantec.com
Stantec,650 Smithfield St Fl 25,Pittsburgh,PA,15222,UNITED STATES,www.stantec.com
Stantec,"224 S Michigan Ave , Ste 1400",Chicago,IL,60604-2590,UNITED STATES,www.stantec.com
Stantec,"One Biscayne Tower Suite 1670, Two South Biscayne Blvd",Miami,FL,33131,UNITED STATES,www.stantec.com
Stantec,"1383 N McDowell Blvd , Ste 250",Petaluma,CA,94954-7118,UNITED STATES,www.stantec.com
Stantec,38 Technology Dr Ste 100,Irvine,CA,92618,UNITED STATES,www.stantec.com
Stantec,"3001 Washington Blvd , Ste 500",Arlington,VA,22201-2249,UNITED STATES,www.stantec.com
Stantec,2515 A St,Anchorage,AK,99503-2709,UNITED STATES,www.stantec.com
Stantec,722 12Th St Nw Ste 100,Washington,DC,20005-3957,UNITED STATES,www.voa.com
Stantec,"555 Capitol Mall , Ste 650",Sacramento,CA,95814-4583,UNITED STATES,www.stantec.com
Stantec,"300 Montgomery Street, Suite 1200",San Francisco,CA,94104,UNITED STATES,www.stantec.com
Stantec,"400 Morgan Ctr, 101 E Diamond St",Butler,PA,16001-5975,UNITED STATES,www.burthill.com
Stantec,"225 N Michigan Ave , Ste",Chicago,IL,60604,UNITED STATES,www.stantec.com
Stantec,999 18th ST Ste 202,Denver,CO,80202-2424,UNITED STATES,www.kephart.com
Stantec,"311 Summer St , Fl 6",Boston,MA,02210-1723,UNITED STATES,www.stantec.com
Stantec,999 18th ST Ste 202,Denver,CO,80202-2424,UNITED STATES,www.rnldesign.com
Stantec,2338 Coolidge Hwy,Berkley,MI,48072-1500,UNITED STATES,stantec.com
Stantec,8145 Kennedy Ave,Highland,IN,46322-1128,UNITED STATES,www.stantec.com
Stantec Architecture,"1600 Wilson Blvd , Ste 360",Arlington,VA,22209-2510,UNITED STATES,www.stantec.com
Stantec Architecture,"Level Seven, 52 Grosvenor Gardens, Belgravia",London,,SW1W 0AU,UNITED KINGDOM,
Stantec Architecture,"722 12th St NW , Ste 100",Washington,DC,20005-3957,UNITED STATES,www.stantec.com
Stantec Architecture,2515 A St,Anchorage,AK,99503-2709,UNITED STATES,stantec.com
Stantec Architecture,"3001 Bee Caves Rd , Ste 300",Austin,TX,78746-5590,UNITED STATES,www.stantec.com
Stantec Architecture,10160 112 Street,Edmonton,AB,T5K 2L6,CANADA,www.stantec.com
Stantec Architecture,,,,,,www.burthill.com
Stantec Architecture,311 Summer St,Boston,MA,02210-1723,UNITED STATES,www.addinc.com
Stantec Architecture,"70 NE Loop 410 , Ste 1100",San Antonio,TX,78216-5893,UNITED STATES,stantec.com
