Firm Name,Address Line 1,City,State,Zip Code,Country,Firm URL
"Boris Marks, AIA Architect",10508 Wilkins Ave,Los Angeles,CA,90024-6032,UNITED STATES,
BORO Architects LLC,"68 Jay St , Ste 411",Brooklyn,NY,11201-8368,UNITED STATES,www.boro-architects.com
"Borrelli & Partners, Inc.","2600 S Douglas Rd , Ste 801",Coral Gables,FL,33134-6149,UNITED STATES,www.borrelliarchitects.com
"Borrelli + Partners, Inc.",720 Vassar St,Orlando,FL,32804-4921,UNITED STATES,www.borrelliarchitects.com
Borsuk Company Architects,2815 Grayson Ave,Venice,CA,90291-4647,UNITED STATES,
Boss & Agnew Architects,PO Box 6048,Ketchum,ID,83340-6048,UNITED STATES,
Boss Architecture LLC,1252 Glen Ave,Wahiawa,HI,96786-2432,UNITED STATES,www.bossarch.design
BOSS.architecture,3300 E 17th Ave,Denver,CO,80206,UNITED STATES,www.bossarch.com
"BOSS.architecture, LLC",3300 E 17th Ave,Denver,CO,80206,UNITED STATES,www.bossarch.com
Boston Redevelopment Authority,"1 City Hall Sq Fl 9, City Hall, 9Th Floor",Boston,MA,02201-1007,UNITED STATES,www.bostonplans.org
"Bostwick Architects, LLC","630 Main St, Ste A",Cromwell,CT,06416,UNITED STATES,www.bostwick-hopper.com
Bostwick Design Partnership,2729 Prospect Ave E,Cleveland,OH,44115-2605,UNITED STATES,www.bostwickdesign.com/
Bostwick Design Partnership,4000 Lovell Place,Erie,PA,16503,UNITED STATES,www.bostwickdesign.com/
"Bosworth Hoedemaker, LLC",6113 13Th Ave S,Seattle,WA,98108-2705,UNITED STATES,www.hoedemakerpfeiffer.com
BOS|UA,"67 Kemble Street, Studio 3.4",Boston,MA,02119,UNITED STATES,www.bos-ua.com
Botelho Wood Architects,8 South Road,Smiths,,FL-05,UNITED KINGDOM,
"Botesch, Nash & Hall Architects, P.S",2727 Oakes Ave,Everett,WA,98201-3627,UNITED STATES,www.bnharch.com
"Botta Sferrazza Architect, PC",7 Toilsome Ln,East Hampton,NY,11937-2437,UNITED STATES,www.bnsarchitects.com
"Botticelli & Pohl, P.C.","25 Washington St , Unit 1",Nantucket,MA,02554-3872,UNITED STATES,www.botticelliandpohl.com
Boucher Design Group Architecture & Planning,"6802 Mapleridge St , Ste 200",Bellaire,TX,77401-3947,UNITED STATES,www.bdgap.com
"Boucher Design Group, LLC","6802 Mapleridge St , Ste 200",Bellaire,TX,77401-3947,UNITED STATES,www.bdgap.com
"Boulder Associates, Inc.",1651 Alhambra Blvd Ste 120,Sacramento,CA,95816-7041,UNITED STATES,www.boulderassociates.com
"Boulder Associates, Inc.",307 W Tremont Ave Ste 200,Charlotte,NC,28203,UNITED STATES,
Bouler Pfluger Architects,12 W Main St,Bay Shore,NY,11706-8308,UNITED STATES,www.bparchs.com
"Bouler Pfluger Architects, P.C.",12 Doxsee Pl,Islip,NY,11751-4222,UNITED STATES,www.bparchs.com
Boultinghouse Simpson Gates Architects,3301 N McColl Rd,McAllen,TX,78501-5536,UNITED STATES,www.bsgarchitects.com
"Bounds Gillespie Killebrew Tushek Architects, PLLC","7975 Stage Hills Blvd , Ste 4",Memphis,TN,38133-4070,UNITED STATES,www.bngarchitects.com
"Bouril Design Studio, LLC","579 Donofrio Drive, Suite 16",Madison,WI,53719,UNITED STATES,www.bourildesign.com
Bowden Architecture,PO Box 40693,Mobile,AL,36640-0693,UNITED STATES,www.bowdenarchitecture.com
"Bower Downing Partnership, Inc.","3500 Jefferson St , Ste 206",Austin,TX,78731-6200,UNITED STATES,www.dfpllc.net
Bower Lewis Thrower Architects NV,"5245 Ponderosa Way , Ste 100",Las Vegas,NV,89118-2868,UNITED STATES,
"Bowerbird Architect, PLLC","124 9th St, Suite 250",Brooklyn,NY,11215-3303,UNITED STATES,www.bowerbirdarchitects.com
"Bowers + Associates, Inc.",2400 S Huron Pkwy,Ann Arbor,MI,48104-5152,UNITED STATES,www.bowersarch.com
Bowers + Kubota Management,94-408 Akoki St,Waipahu,HI,96797-2733,UNITED STATES,www.bowersandkubota.com
"Bowers Design Group, PLLC",12710 Victor Ln,Houston,TX,77077-2225,UNITED STATES,www.bowersdesigngroup.com
Bowie Gridley Architects,701 8TH ST NW FL 7,Washington,DC,20001,UNITED STATES,www.bowie-gridley.com
"Bowman & Bowman, Ltd.",PO Box 9970,Greenwood,MS,38930-8370,UNITED STATES,www.bowmanbenefits.com
Bowman Murray Hemingway Architects,514 Market St,Wilmington,NC,28401-4635,UNITED STATES,www.bmharch.com
Bowne Associates-Architects,315 Shaver Ave,North Syracuse,NY,13212-1337,UNITED STATES,
Box Studios,"200 S Michigan Ave , Ste 800",Chicago,IL,60604-2418,UNITED STATES,www.bxstudios.com
Boyce Tucker Architect,529 Cordillera Trce,Boerne,TX,78006-4203,UNITED STATES,www.bltarchitect.com
Boydarc LLC,807 Oak Grove Circle,Severna Park,MD,21146,UNITED STATES,www.boydarc.com
"Boyer & Boyer Architects, Inc.",2061 Beach Ave,Atlantic Beach,FL,32233-5934,UNITED STATES,
Boyes-Watson Architects,30 Bow St,Somerville,MA,02143-2934,UNITED STATES,www.boyeswatson.com
Boykin & Munnerlyn Architects,1305 Monument Sq,Camden,SC,29020-3529,UNITED STATES,www.boykinandmunnerlyn.com
"Boyland Architecture, PC",152 Stuyvesant Pl,Staten Island,NY,10301-1969,UNITED STATES,www.vb-architects.com
"Boyle and Associates, Ltd.",PO Box 46181,Chicago,IL,60646-0181,UNITED STATES,
"Boyne Studio Architecture & Design, LLC",1020 Goodale Blvd,Columbus,OH,43212-3828,UNITED STATES,
Boynton Rothschild Rowland Architects,"1011 E Main St , Ste 221",Richmond,VA,23219-3537,UNITED STATES,
Boynton Williams & Associates,900 36Th Ave Nw Ste 100,Norman,OK,73072-4167,UNITED STATES,www.bwaarchitects.com
