Firm Name,Address Line 1,City,State,Zip Code,Country,Firm URL
CTA,6 Scott Dr,Melville,NY,11747-1014,UNITED STATES,
CTA,"1050 Massachusetts Ave , Ste 5",Cambridge,MA,02138-5359,UNITED STATES,
CTA,"306 Railroad St W , Ste 104",Missoula,MT,59802-4174,UNITED STATES,www.ctagroup.com
CTA Architects Engineers,"411 E Main St , Ste 101",Bozeman,MT,59715-4757,UNITED STATES,www.ctagroup.com
CTA Architects P.C,"151 W 26th St , Fl 8",New York,NY,10001-6873,UNITED STATES,www.ctaarchitects.com
CTA Architects P.C.,"151 W 26Th Street, CTA Architects, 8th Floor",New York,NY,10001-6810,UNITED STATES,www.ctaarchitects.com
"CTA Architects, Inc.","848 S Beretania St , Ste 306",Honolulu,HI,96813-2551,UNITED STATES,www.cta-arch.com
CTA Great Falls,219 2nd Ave S,Great Falls,MT,59405-1804,UNITED STATES,www.ctagroup.com
CTA Inc.,13 N 23Rd St,Billings,MT,59101-2467,UNITED STATES,www.ctagroup.com
CTE-VBMIS Group,"123 W Nye Ln , Ste 129",Carson City,NV,89706-0838,UNITED STATES,www.cte-vbmisgroup.com
"CTS Group Architecture/Planning, PA",17 Commerce St,Chatham,NJ,07928-2703,UNITED STATES,www.ctsarch.com
Cube 3 Studio LLC,56 High Street,North Andover,MA,01845,UNITED STATES,www.cube3studio.com
Cubellis,"500 E Pratt St , Ste 1050",Baltimore,MD,21202-3450,UNITED STATES,www.cubellis.com
Cubellis,"1750 Valley View Ln , Ste 300",Dallas,TX,75234-9010,UNITED STATES,
"Cubellis, Inc.","303 W Main St , Ste 4",Freehold,NJ,07728-2522,UNITED STATES,
"Cubellis, Inc.",281 Summer St,Boston,MA,02210-1509,UNITED STATES,www.cubellis.com
"Cubellis, Inc.","8605 Westwood Center Dr , Ste 300",Vienna,VA,22182-2231,UNITED STATES,
"CUH2A, A Division of HDR",266 W 37th St,New York,NY,10018-6609,UNITED STATES,www.hdrinc.com
"Cuh2a, Inc. - Georgia","1201 Peachtree St NE , Ste 400",Atlanta,GA,30361-6339,UNITED STATES,
Cuhaci & Peterson Architects,930 Woodcock RD Ste 101,Orlando,FL,32803-3713,UNITED STATES,www.c-p.com
Cuhaci & Peterson Architects,,,,,,www.c-p.com
"Cuhaci & Peterson, Architects LLC",2600 Maitland Center Pkwy Ste 200,Maitland,FL,32751-4154,UNITED STATES,www.c-p.com
"Culver Franchising System, LLC",1240 Water St,Prairie du Sac,WI,53578-1091,UNITED STATES,www.culvers.com
"Cumberland Development, LLC","530 Euclid Ave , Ste 44",Cleveland,OH,44115-1140,UNITED STATES,www.cumberland-development.com
Cummings & Associates Architects,"204 N Main St , Ste 112",Duncanville,TX,75116-3608,UNITED STATES,www.cummingsaa.com
"Cummings & McCrady, Inc.","44 Markfield Dr , Ste D",Charleston,SC,29407-7908,UNITED STATES,www.cummingsandmccrady.com
Cummings Architects,87 Central St,Ipswich,MA,01938-1935,UNITED STATES,www.cummingsarchitects.com
Cummings Architecture Corporation,1 Houston St,Mobile,AL,36606-1441,UNITED STATES,www.cummings-architecture.com
"Cummings Associates Architects, Inc.",8021 NE 114th St,Kirkland,WA,98034-3502,UNITED STATES,
"Cundiff Architecture, Inc.",2927 Rosalind Ave SW,Roanoke,VA,24014-3219,UNITED STATES,
"Cundy, Santine & Associates, LLC",3434 Lexington Ave N,Shoreview,MN,55126-8069,UNITED STATES,www.cs-architects.com
Cuningham,8665 Hayden PL,Culver City,CA,90232-2901,UNITED STATES,www.cuningham.com
Cuningham,,,,,,
Cuningham,,,,,,
Cuningham,1500 Wynkoop,Denver,CO,80202,UNITED STATES,www.huttonarch.com
Cuningham Group,"201 Main St SE, Suite #325",Minneapolis,MN,55414,UNITED STATES,www.cuningham.com
Cuningham Group,5001 E Washington St,Phoenix,AZ,85034-2005,UNITED STATES,
"Cuningham Group Architecture, Inc.",5001 E Washington St,Phoenix,AZ,85034-2005,UNITED STATES,www.cuningham.com
"Cuningham Group Architecture, Inc.",8665 Hayden Pl,Culver City,CA,90232-2901,UNITED STATES,www.cuningham.com
"Cuningham Group Architecture, Inc.",201 SE Main ST Ste 325,Minneapolis,MN,55414-7025,UNITED STATES,www.cuningham.com
"Cuningham Group Architecture, Inc.","1500 Wynkoop Street
Suite 300",Denver,CO,80202,UNITED STATES,www.huttonarchitecturestudio.com
"Cuningham Group Architecture, Inc.","1675 Larimer Street
Suite 375",Denver,CO,80202,UNITED STATES,www.cuningham.com
"Cuningham Group Architecture, Inc.",1030 G ST,San Diego,CA,92101-6522,UNITED STATES,www.cuningham.com
"Cuningham Group Architecture, Inc.",1030 G St,San Diego,CA,92101-6522,UNITED STATES,www.cuningham.com
"Cunningham + Associates, Inc.",2504 Waterside Dr,Columbia,MO,65203-5402,UNITED STATES,www.greekink.com
Cunningham Architects,918 Dragon St,Dallas,TX,75207-4204,UNITED STATES,www.cunninghamarchitects.com
"Cunningham Forehand Matthews & Moore Architects, Inc.",2011 Manchester St Ne,Atlanta,GA,30324-4110,UNITED STATES,www.cfmm.net
Cunningham | Quill Architects,1054 31St St Nw Ste 315,Washington,DC,20007-6600,UNITED STATES,www.cunninghamquill.com
"CUPKOVIC architecture, llc","6060 Rockside Woods Blvd N , Ste 100",Cleveland,OH,44131-2381,UNITED STATES,www.cuparc.com
"Cupkovic Architecture, LLC.","6060 Rockside Woods Blvd N , Ste 101",Cleveland,OH,44131-7303,UNITED STATES,www.cuparc.com
