Firm Name,Address Line 1,City,State,Zip Code,Country,Firm URL
"William McLees Architecture, LLC",5 Macarthur Blvd,Somers Point,NJ,08244-1722,UNITED STATES,www.wmarch.net
"William Merriman Architects, LLC","4011 Arctic Blvd , Ste 102",Anchorage,AK,99503-5701,UNITED STATES,www.merrimanarchitects.com
William Meyer & Company,3024 Fillmore ST,San Francisco,CA,94123-4010,UNITED STATES,www.wmeyer.com
William Morris Associates Architects,PO Box 2,Augusta,KS,67010-0002,UNITED STATES,www.shorelineautowrecking.net
William Murphy Architect,410 S Michigan Ave,Chicago,IL,60605-1308,UNITED STATES,
William Nicholas Bodouva & Associates,"512 Fashion Ave , Fl 28",New York,NY,10018-0845,UNITED STATES,
"William Nowysz & Associates, Architects",1025 River St,Iowa City,IA,52246-3830,UNITED STATES,
William Otwell & Associates,123 E Goodwin St,Prescott,AZ,86303-3940,UNITED STATES,www.otwell-architects.net
William P Witt Architects,2A Hardscrabble Rd,North Salem,NY,10560-1014,UNITED STATES,
"William Peck & Associates, Inc.",105 W Main St,Lewisville,TX,75057-3964,UNITED STATES,www.peckarchitects.com
William Pevear Architects,872 Massachusetts Ave Suite 2-9,Cambridge,MA,02139,UNITED STATES,www.williampevear.com
William Pistrui Architect,61 Santa Anita Dr,Maryville,IL,62062-1928,UNITED STATES,
William Post Thomas Architects,2314 South St,Philadelphia,PA,19146-1122,UNITED STATES,
William R. Dutcher Architect,5815 Ivanhoe Rd,Oakland,CA,94618-1604,UNITED STATES,
William R. Kline Architect,7617 Jeannette St,New Orleans,LA,70118-4063,UNITED STATES,
"William R. Lucus, Architect",123 Hillsboro Pl,Nashville,TN,37215-1355,UNITED STATES,
"William R. Powell, Architect",7522 Saint Edmund Ct,Baton Rouge,LA,70808-5755,UNITED STATES,www.wrparchitects.com
"William R. Spade, Architect",12 Brevoort Rd,Chappaqua,NY,10514-3504,UNITED STATES,www.sasakispadearchitects.com
"William R. Thompson Designers, Inc",218A W Main St,Belleville,IL,62220-1548,UNITED STATES,
William Ragaller Architecture/Interiors,27849 Osborn Rd,Bay Village,OH,44140,UNITED STATES,
"William Rawn Associates Architects, Inc.","27 School Street, Second Floor",Boston,MA,02108,UNITED STATES,www.rawnarch.com
"William Rawn Associates, Architects, Inc.","27 School St, 2nd Flr",Boston,MA,02108,UNITED STATES,www.rawnarch.com
William Reue Architecture,"1123 Broadway , Ste 904",New York,NY,10010-2007,UNITED STATES,
William Robert Boehm Architect,7883 Drury Ln,La Jolla,CA,92037-4245,UNITED STATES,
William S Lyons AIA Architect,4122 Lakeshore Ave,Oakland,CA,94610-1138,UNITED STATES,www.wslarch.com/
William S. Leeds Architect P.C.,140 E 40Th St Apt 1A,New York,NY,10016-1702,UNITED STATES,www.wslarchitect.com
William Sisk Designs,PO Box 160033,Atlanta,GA,30316-1001,UNITED STATES,www.architectatlanta.net
William Stalter & Associates,3445 Floyd St Ste A,Corpus Christi,TX,78411-1425,UNITED STATES,
William Switzer Architecture,720 Milton Rd,Rye,NY,10580-3258,UNITED STATES,
William T. Cannady FAIA Architect,2401 Nottingham St,Houston,TX,77005-1409,UNITED STATES,www.cannadyarchitect.com
"William T. Georgis, Architect",233 E 72nd St,New York,NY,10021-4556,UNITED STATES,www.williamtgeorgis.com
William Tabberson Architects,2900 W Torquay Rd,Muncie,IN,47304-3229,UNITED STATES,www.tabbersonarchitects.com
William Tamminga Architects AIA,1716 Cliffwood Dr,Austin,TX,78733-1503,UNITED STATES,www.williamtammingaarchitects.com
William Tao and Associates,"349 Marshall Ave , Ste 200",Saint Louis,MO,63119-1862,UNITED STATES,www.wmtao.com
"William Thompson, AIA & Associates, LLC",28 S Fair St,Guilford,CT,06437-3437,UNITED STATES,www.wtaia.com/
William Toth Architecture,950 Fernwood Ave,Plainfield,NJ,07062-2240,UNITED STATES,
William Walther Architect,214 W 39Th St Rm 1200,New York,NY,10018-5526,UNITED STATES,residence-inn.marriott.com
"William Waters, Designs LLC","1040 Biscayne Blvd , Apt 1906",Miami,FL,33132-1728,UNITED STATES,
"William Wilson Architects, PC",1022 Sw Salmon St Ste 350,Portland,OR,97205-2450,UNITED STATES,www.wwarchitects.com
"William Wing Louie, Architect",3730 S 1900 E,Salt Lake City,UT,84106-3847,UNITED STATES,
William Wolfe Architect,50 Hawthorne Ave,Princeton,NJ,08540-3804,UNITED STATES,www.williamwolfearchitect.com
William Wood Architects,"301 Hartz Ave , Ste 203",Danville,CA,94526-3328,UNITED STATES,www.williamwoodarchitects.com
Williams & Associates Architecture,"125 E Colorado Blvd , Ste 2A",Spearfish,SD,57783-2793,UNITED STATES,www.williamsassociatesarch.com
Williams & Associates Architecture,"125 E Colorado Blvd , Ste 2A",Spearfish,SD,57783-2793,UNITED STATES,www.williamsassociatesarch.com
"Williams & Associates Architecture, Inc.","125 E. Colorado Blvd., Suite 2A",Spearfish,SD,57783,UNITED STATES,www.williamsassociatesarch.com
Williams & Associates PA,"250 Beauvoir Rd , Ste 1B",Biloxi,MS,39531-4026,UNITED STATES,www.wwarc.com
Williams & Dean Architecture | Interior Design,18 Corporate Hill Dr,Little Rock,AR,72205-4549,UNITED STATES,www.williamsdean.com
Williams & Dean Architecture | Interior Design,18 Corporate Hill Dr,Little Rock,AR,72205-4549,UNITED STATES,www.williamsdean.com
"Williams & Frehsee, Inc.","167 Main St , Ste 309",Brattleboro,VT,05301-3055,UNITED STATES,www.aiavt.org
"Williams + Paddon Architects + Planners, Inc.",2237 Douglas Blvd Ste 160,Roseville,CA,95661-4223,UNITED STATES,www.wp-architects.com
