Firm Name,Address Line 1,City,State,Zip Code,Country,Firm URL
"Alm Architects, Inc.",PO Box 5211,Vail,CO,81658-5211,UNITED STATES,www.almarchitects.com
alm2s,123 N COLLEGE AVE STE 204,Fort Collins,CO,80524,UNITED STATES,www.aller-lingle-massey.com/
ALMA architecture llc,"441 N 5th St , Ste 204",Philadelphia,PA,19123-4009,UNITED STATES,almaarchitecture.com
Alpha Associates Inc.,"209 Prairie Ave , Ste 209",Morgantown,WV,26501-5934,UNITED STATES,www.alphaaec.com
"AlphaCollier, Inc. Architecture",891 Washington St,Raleigh,NC,27605-1255,UNITED STATES,
"Alphatec, PC",1525 18Th St Nw,Washington,DC,20036-1358,UNITED STATES,www.alphatecpc.com
Alpine Architects,PO Box 493,Waitsfield,VT,05673-0493,UNITED STATES,alpinearchitects.com
ALSC Architects,203 N Washington St Ste 400,Spokane,WA,99201-0234,UNITED STATES,www.alscarchitects.com
ALSC Architects,203 N Washington ST Ste 400,Spokane,WA,99201,UNITED STATES,www.alscarchitects.com/
Alsip & Associates PC,806 The Ter,Hagerstown,MD,21742-3224,UNITED STATES,
Alsip + Associates PC,119 King St,Hagerstown,MD,21740-5732,UNITED STATES,www.alsipandassociates.com
Alt Architecture + Research Associates,"21 W Goethe St , Apt 5L",Chicago,IL,60610-8292,UNITED STATES,www.kollinaltomare.com
"ALT Architecture, Inc.",2440 Dayton Xenia Rd Ste B,Dayton,OH,45434-7124,UNITED STATES,www.altarchitecture.com
alt32 + Cox Architecture,"640 S 4th St , Ste 210",Louisville,KY,40202-2469,UNITED STATES,www.coxallen.com
alt32 + Cox Architecture,310 Old Vine St Ste 300,Lexington,KY,40507-1582,UNITED STATES,www.alt32.com
"Alta Indelman, Architect","451 Broome St , Apt 2E",New York,NY,10013-2645,UNITED STATES,www.altaindelmanarchitect.com
"Alta StructurA, LLC",PO Box 9143,Denver,CO,80209-0143,UNITED STATES,www.altastructura.com
Alterstudio,1801 Lavaca St. Ste. #106,Austin,TX,78701-1505,UNITED STATES,www.alterstudio.net
Alterstudio Architecture LLP,1801 Lavaca St Ste 106,Austin,TX,78701-1329,UNITED STATES,www.alterstudio.net
Altman + Barrett Architects,4365 Plantation Crest Rd,Valdosta,GA,31602-0885,UNITED STATES,www.altmanbarrettarchitects.com
"Altus Architectural Studios, Inc.",14606 Branch Street Suite 220,Omaha,NE,68154,UNITED STATES,www.altusstudios.com
ALTUS Architecture + Design,"945 Broadway St NE , Ste 240",Minneapolis,MN,55413-2500,UNITED STATES,www.altusarch.com
"AltusWorks, Inc","211 North Clinton Street
Suite 3S",Chicago,IL,60661,UNITED STATES,altusworks.com
Alvarado Architects & Associates Inc,307 S Main St,Donna,TX,78537-3229,UNITED STATES,
Alvarez Architects,,,,,,
Alvarez-Diaz & Villalon,"The Hub - 200 Convention Blvd., Ste 201",San Juan,PR,00907,UNITED STATES,www.alvarezdiazvillalon.com/
Alvidrez Architecture Inc.,"110 Broadway St , Ste 450",San Antonio,TX,78205-2014,UNITED STATES,www.alvidrez.com
Alvidrez Architecture Inc.,"310 N Mesa St , Ste 100A",El Paso,TX,79901-1301,UNITED STATES,www.alvidrez.com
"Alvin Holm, AIA, Architects",2014 Sansom St,Philadelphia,PA,19103-4417,UNITED STATES,www.alvinholm.com
"Alvin K. Nakamura, AIA","725 Piikoi St , Apt 906",Honolulu,HI,96814-2966,UNITED STATES,
Always by Design,"771 S 2nd St.
Suite G",Philadelphia,PA,19147,UNITED STATES,www.a-x-d.com
Alynia Architecten,Postbus 187,Harlingen,,8861 AK,NETHERLANDS,www.alynia-architecten.nl
AM Architect' Studio,157 Howe Ave,Passaic,NJ,07055-2914,UNITED STATES,www.amarchitectstudio.com
AM/MOR Architecture LLP,"36 E 23rd St , Rm 6R",New York,NY,10010-4424,UNITED STATES,https://www.ammorllp.com/
AMA,220 Delancey St,Philadelphia,PA,19106-4309,UNITED STATES,www.amarchitecture.co
"AMA Architects, LLC.",425 W Brow Rd,Lookout Mountain,TN,37350-1161,UNITED STATES,www.amaarchitectsllc.com
Amacher and Associates,237 Mount Auburn St,Cambridge,MA,02138-4843,UNITED STATES,www.amacher-associates.net
"Amado M. Ortiz, AIA Architect",,,,,,
Amador Architects,"4 Villa del Parque , Fl 151",San Juan,PR,00909-3323,UNITED STATES,aarchitectspr.com
Amador Architecture,204 1/2 S Berendo St,Los Angeles,CA,90004-5778,UNITED STATES,amadorarchitecture.com
"Amador Whittle Architects, Inc.","28328 Agoura Rd , Ste 203",Agoura Hills,CA,91301-2741,UNITED STATES,www.awaarchitect.com
"Amaktoolik, Studios, LLC",1295 S Columbine St,Denver,CO,80210-1916,UNITED STATES,www.amaktoolikstudios.com
Aman Architecture LLC,"202 W 40th St , Rm 1202",New York,NY,10018-1713,UNITED STATES,aman-arch.com
Amanat Architect Inc.,"W 7 Ave , Ste 100-1515",Vancouver,BC,V6J 1S1,CANADA,www.amanatarchitect.com
Amanda Martocchio Architecture & Design,189 Brushy Ridge Rd,New Canaan,CT,06840-4210,UNITED STATES,www.amandamartocchio.com
"Amar Group, LLC","6230-3rd Street, NW, Suite 4",Washington,DC,20011,UNITED STATES,www.amargroupllc.com
Amato Architecture,1396 Park Ave,Emeryville,CA,94608-3537,UNITED STATES,www.amatoarchitecture.com
Amaya Architects,284 Racebrook Rd,Orange,CT,06477-3103,UNITED STATES,
AMB Architects,"Galleria Tower II, 5051 Westheimer, Suite 430",Houston,TX,77056,UNITED STATES,www.ambarchitects.com
AMB Development Group LLC,1243 N 10Th St Ste 150,Milwaukee,WI,53205-2566,UNITED STATES,www.ambdevelopment.com
