Firm Name,Address Line 1,City,State,Zip Code,Country,Firm URL
"Steven Mueller Architects, LLC",32 Field Point Rd,Greenwich,CT,06830-5308,UNITED STATES,www.stevenmuellerarchitects.com
Steven R Savino Architects PC,4158 Victory Blvd,Staten Island,NY,10314-6739,UNITED STATES,www.srsarchitectpc.com
"Steven R. Hanson, Architect P.L.L.C.",125 Arthur St,Garden City,NY,11530-3043,UNITED STATES,www.usgbc.org
"Steven S. Cohen, Architect, PC","63 Moran Ave , Ste A",Princeton,NJ,08542-3815,UNITED STATES,www.stevencohenarchitect.com
Steven T. Fichtel Architect,435 Idaho Ave N,Minneapolis,MN,55427-4936,UNITED STATES,
"Steven T. Smith, Architect",3 Washington Pl,Port Washington,NY,11050-3509,UNITED STATES,
Steven Thomson Architect,3045 NE 56th Ave,Portland,OR,97213-3331,UNITED STATES,www.beautifulbuildings.com
Steven Winter Associates,"307 7th Ave , # STE1701",New York,NY,10001-6007,UNITED STATES,www.swinter.com
Steven Winter Associates,307 7Th Ave Rm 1701,New York,NY,10001-6040,UNITED STATES,www.swinter.com
"Steven Wisenbaker, AIA Architects","300 Tamal Plz , Ste 200",Corte Madera,CA,94925-1136,UNITED STATES,www.stevewisenbakerarchitects.com
Steven Zalben Architect,70 South Rd,Sands Point,NY,11050-2601,UNITED STATES,
Stevens & Wilkinson,"100 Peachtree Street, NW, Suite 2500",Atlanta,GA,30075,UNITED STATES,www.stevens-wilkinson.com
Stevens & Wilkinson,"100 Peachtree St NW , Ste 2500",Atlanta,GA,30303-1926,UNITED STATES,www.stevens-wilkinson.com
Stevens & Wilkinson,1501 Main St,Columbia,SC,29201-5801,UNITED STATES,www.stevens-wilkinson.com
"Stevens & Wilkinson, Inc.",100 Peachtree St Nw Ste 2500,Atlanta,GA,30303-1926,UNITED STATES,www.stevens-wilkinson.com
Stevens and wilkinson,108 Baldric Ct,Lexington,SC,29072-2077,UNITED STATES,www.stevens-wilkinson.com
Stevens Architects,209 Huron Ave Ste 1,Port Huron,MI,48060-3860,UNITED STATES,www.stevensarchitects.com
Stevens Architectural Consulting,1207 Cobb Rd,Baltimore,MD,21208-3602,UNITED STATES,www.stevensac.com
Stevenson Architects Inc.,3703 41st Ave West,Bradenton,FL,34205-7424,UNITED STATES,www.stevensonarchitects.com
"Stewart +  Reindersma Architecture 360, pllc",7929 E Camino Real,Scottsdale,AZ,85255-6135,UNITED STATES,www.sra360.com
Stewart Architects Ltd.,"P.O. Box N-366, 5 Colebrook Lane",Nassau,,,BAHAMAS,
"Stewart Architects, LLC",210 River Park North Dr,Woodstock,GA,30188-7834,UNITED STATES,www.stewartarchitects.us
Stewart Architecture,"120 Kentucky Ave , Ste 210",Lexington,KY,40502-1979,UNITED STATES,www.stewartarchitecture.com
"Stewart Architecture, LLC","1200 Main St , Ste 728",Columbia,SC,29201-3213,UNITED STATES,www.stewartarchitect.com
Stewart Associate Architects LLC,PO Box 6555,Laconia,NH,03247-6555,UNITED STATES,www.stewarchitects.com
Stewart Associates Architects,6 Lily Pond Rd,Gilford,NH,03249-6685,UNITED STATES,www.stewarchitects.com
Stewart Associates Architects,1351 Laurel St,San Carlos,CA,94070-5011,UNITED STATES,www.stewartassociatesdesign.com
Stewart Associates Architects LLC,PO Box 6555,Laconia,NH,03247-6555,UNITED STATES,www.stewarchitects.com
Stewart Brecher Architects,93 Cottage St,Bar Harbor,ME,04609-1400,UNITED STATES,www.sbrecherarchitects.com
Stewart Cooper Newell Architects,719 E 2Nd Ave,Gastonia,NC,28054-7144,UNITED STATES,www.scn-architects.com
Stewart Jones Architect,48 North Ter,Maplewood,NJ,07040-1380,UNITED STATES,
"Stewart Reindersma Architecture, PLLC",7929 E Camino Real,Scottsdale,AZ,85255-6135,UNITED STATES,sra360.com
Stewart Smith Studios,11901 Chantilly Ln,Mitchellville,MD,20721-2173,UNITED STATES,www.stewartsmithstudios.com
Stewart Thompson Architect & Planner,5 Trails End Ln,Saint Louis,MO,63124-1444,UNITED STATES,www.gopremier.com
"Stewart, Schaberg & Turner Architects, LLC",7412 Manchester Rd.,Maplewood,MO,63143,UNITED STATES,www.sstarchitects.com
STG Design,"828 W 6th St , Ste 300",Austin,TX,78703-5469,UNITED STATES,www.stgdesign.com/site.html
STG Design,"3200 Southwest Fwy , Ste 3070",Houston,TX,77027-7526,UNITED STATES,www.stgdesign.com
STG Design,828 W 6Th St Ste 300,Austin,TX,78703,UNITED STATES,www.stgdesign.com
STG Design,101 3Rd Ave N,Nashville,TN,37201,UNITED STATES,
STG Design,"828 W 6th St , Ste 300",Austin,TX,78703-5469,UNITED STATES,www.stgdesign.com
STG Design,4330 Gaines Ranch Loop,Austin,TX,78735-6733,UNITED STATES,www.stgdesign.com
STG Design,"828 W 6th St , Ste 300",Austin,TX,78703-5469,UNITED STATES,www.stgdesign.com
STG Design,"211 Union St , Ste 103",Nashville,TN,37201-1526,UNITED STATES,www.stgdesign.com
STG Design Inc.,"1820 E River Rd , Ste 230",Tucson,AZ,85718-5991,UNITED STATES,www.stgdesign.com/site.html
STG Design-Houston,8915 Aberdeen Park DR,Houston,TX,77095-3775,UNITED STATES,www.stgdesign.com
"STH Architectural Group, Inc.","1400 Centrepark Blvd , Ste 500",West Palm Beach,FL,33401-7403,UNITED STATES,
Stieglitz Snyder Architecture,425 Franklin St,Buffalo,NY,14202-1301,UNITED STATES,www.stieglitzsnyder.com
Stievater and Associates Architects,255 Pearl St,Buffalo,NY,14202-3104,UNITED STATES,www.stievaterarchitects.com
Stig Carlson Architecture,1053 NE Summit Loop,Coupeville,WA,98239-3564,UNITED STATES,www.sc-architecture.com
Stillwater Architecture LLC,"2727 Nelson Rd , Apt T108",Longmont,CO,80503-9357,UNITED STATES,www.stillwaterarchitecture.com
