Firm Name,Address Line 1,City,State,Zip Code,Country,Firm URL
Architect Seminars of Auburn,337 E Thach Ave,Auburn,AL,36830-5461,UNITED STATES,architectseminars.org
Architect Stergas & Associates,19540 Riverside Dr,Tequesta,FL,33469-2136,UNITED STATES,architectstergas.com
Architect Studio,14 Littleworth Ln,Sea Cliff,NY,11579-1813,UNITED STATES,
"Architect Susan Desko, AIA","PO BOX 6496, 311 First Ave",Ketchum,ID,83340-6496,UNITED STATES,www.susandesko.com
Architect's Consulting Service,"1187 Coast Village Rd , # 10-P",Santa Barbara,CA,93108-2737,UNITED STATES,
"Architect's International, LLC","6125 Tazewell Pike , Bldg A",Knoxville,TN,37918-1104,UNITED STATES,
architect's LOFT,"1100 Avalon Sq , Apt 1209",Glen Cove,NY,11542-3376,UNITED STATES,www.architectsloft.com
"Architect: Patrick Bickler, LLC","1313 Mill St SE , Ste 201",Salem,OR,97301-6353,UNITED STATES,www.architectpatrickbickler.com
Architecteam,614 James St,Syracuse,NY,13203-2600,UNITED STATES,www.architecteam.com
Architective,1360 Highland Mdws,Flint,MI,48532-2062,UNITED STATES,www.architectivemi.wordpress.com
Architectonic Inc,806 Delaware Ave,Fort Pierce,FL,34950-8556,UNITED STATES,www.architectonicinc.com
architectonics pllc,300A Greensboro St,Starkville,MS,39759-2802,UNITED STATES,www.architectonics.info
"Architectonis, PLLC",519 Howard Ave,Billings,MT,59101-3044,UNITED STATES,www.architectonis.com
"Architectonis, PLLC","2501 Montana Ave , Ste 3",Billings,MT,59101-2326,UNITED STATES,www.architectonis.com
"Architects 226, Inc.",38 W Trenton Blvd,Fayetteville,AR,72701-3465,UNITED STATES,www.a226.com
Architects 33 Inc,PO Box 201,Chatham,MA,02633-0201,UNITED STATES,www.arch33.com
Architects Alaska,900 W 5Th Ave Ste 403,Anchorage,AK,99501-2048,UNITED STATES,www.architectsalaska.com
Architects Alaska,900 W 5Th Ave,Anchorage,AK,99501-2045,UNITED STATES,www.architectsalaska.com
Architects Alliance,"317 Adelaide St. West, 205",Toronto,ON,M5V 1P9,CANADA,www.architectsalliance.com
Architects Beazley Moliere,300 Heymann Blvd,Lafayette,LA,70503-2416,UNITED STATES,www.beazleymoliere.com
Architects Beazley Moliere,PO Box 51877,Lafayette,LA,70505-1877,UNITED STATES,www.beazleymoliere.com
Architects Collaborative,9400 Old Georgetown Rd,Bethesda,MD,20814-1722,UNITED STATES,www.aci-co.com
Architects Collaborative International Inc.,"124 Mount Auburn St , Ste 200",Cambridge,MA,02138-5813,UNITED STATES,
Architects Collective,"4200 E Skelly Dr , Ste 750",Tulsa,OK,74135-3214,UNITED STATES,www.apid.net
Architects Design Collaborative LLC,"10489 SW Meeting Street, Tradition",Port St Lucie,FL,34987,UNITED STATES,www.adc-architects.net
"Architects Design Consortium, Inc.","4875 E La Palma Ave , Ste 607",Anaheim,CA,92807-1955,UNITED STATES,www.adc-usa.com
Architects Design Group Inc,PO Box 1210,Winter Park,FL,32790-1210,UNITED STATES,www.adgusa.org
"Architects Design Group, Inc.",PO Box 2680,Fort Myers,FL,33902-2680,UNITED STATES,
"Architects Design Group, Inc.","PO BOX 1210, 333 N. Knowles Avenue",Winter Park,FL,32790-1210,UNITED STATES,www.adgusa.org
Architects Design Studio,"144 W Main St , # A",New Iberia,LA,70560-3733,UNITED STATES,www.architectsdesignstudio.org
"Architects For Society, PSC","1500 Jackson St. NE, #175, Studio 439",Minneapolis,MN,55413,UNITED STATES,www.architectsforsociety.org
Architects Forum,8555 River Rd Ste 220,Indianapolis,IN,46240-4304,UNITED STATES,www.architectsforum.com
Architects Group Limited,1825 S Webster Ave Ste 202,Green Bay,WI,54301-2280,UNITED STATES,www.aglgb.com
Architects Hanna Gabriel Wells,1955 Bacon St,San Diego,CA,92107-2845,UNITED STATES,www.architects-hgw.com
Architects Hanna Gabriel Wells,1955 Bacon St,San Diego,CA,92107-2845,UNITED STATES,architects-hgw.com
Architects Hawaii Limited,"733 Bishop St , Ste 3100",Honolulu,HI,96813-4015,UNITED STATES,www.ahldesign.com
Architects Hawaii Limited,"733 Bishop St , Ste 3100",Honolulu,HI,96813-4015,UNITED STATES,www.ahldesign.com
Architects Hawaii Ltd,"733 Bishop Street, Suite 3100",Honolulu,HI,96813,UNITED STATES,www.ahldesign.com
"Architects Hawaii, LTD.",733 Bishop St Ste 3100,Honolulu,HI,96813-4015,UNITED STATES,www.ahldesign.com/
"Architects II, Inc.",825 S 2100 E,Springville,UT,84663-2940,UNITED STATES,
"Architects in Common, LLC",N9224 Mengel Hill Rd,Fond du Lac,WI,54937-9351,UNITED STATES,www.architectsincommon.com
Architects In Partnership,3220 Marshall Ave,Norman,OK,73072-8028,UNITED STATES,www.aipok.com
architects incorporated,PO Box 950,Gentry,AR,72734-0950,UNITED STATES,www.grovearchitects.com.au
Architects Ink Ltd.,615 Polo Dr,Wheaton,IL,60187-4656,UNITED STATES,
"Architects Ink, LLC",810 S CINCINNATI AVE STE 200,Tulsa,OK,74119,UNITED STATES,www.architects.ink
Architects International Inc.,227 NE 26th Ter,Miami,FL,33137-4519,UNITED STATES,www.archinternational.com
Architects Lewis + Whitlock,206 W Virginia St,Tallahassee,FL,32301-1145,UNITED STATES,www.think3d.net
Architects Local,"740 13th Street.
Suite 504",San Diego,CA,92101-7351,UNITED STATES,www.architectslocal.com
Architects Maui,720 Awalau Rd,Haiku,HI,96708-5560,UNITED STATES,www.mauiboy.com
"Architects McDonald, Soutar & Paz",3575 Long Beach Blvd,Long Beach,CA,90807-3904,UNITED STATES,www.architectsmsp.com
