Firm Name,Address Line 1,City,State,Zip Code,Country,Firm URL
"Davis Design & Consulting, LLC",PO Box 262,Youngsville,LA,70592-0262,UNITED STATES,www.davisdnc.com
"davis design group, llc",1905 Marked Tree Cir,Edmond,OK,73013-6869,UNITED STATES,www.ddgarch.com
"DAVIS Design Solutions, LLC",3033 N Central Ave Ste 800,Phoenix,AZ,85012-2804,UNITED STATES,www.thedavisexperience.com
"Davis Jones Architecture, Inc.",21484 E 59th DR,Aurora,CO,80019-2245,UNITED STATES,www.davisjonesarch.com
"Davis Kane Architects, PA",503 Oberlin Rd Ste 300,Raleigh,NC,27605-1381,UNITED STATES,www.daviskane.com
Davis Partnership,"2901 Blake St , Ste 100",Denver,CO,80205-2849,UNITED STATES,www.davispartnership.com
Davis Partnership Architects,"2901 Blake St , Ste 100",Denver,CO,80205-2849,UNITED STATES,www.davispartnership.com
Davis Partnership Architects,"2901 Blake St , Ste 100",Denver,CO,80205-2849,UNITED STATES,www.davispartnership.com
Davis Partnership Architects,"2901 Blake St , Ste 100",Denver,CO,80205-2849,UNITED STATES,www.davispartnership.com
"Davis Purdy Architects, PLLC",PO Box 703,Meridian,MS,39302-0703,UNITED STATES,www.davispurdyarchitects.com
"Davis Square Architects, Inc.",240A Elm St,Somerville,MA,02144-2954,UNITED STATES,www.davissquarearchitects.com
Davis Urban,2624 West 32nd Avenue,Denver,CO,80211,UNITED STATES,www.ucollective.com
Davis Urban LLC,"3316 Tejon St , # 105",Denver,CO,80211-3553,UNITED STATES,www.ucollective.com
Davis Wince Architecture,1466 Manning Pkwy,Powell,OH,43065-9171,UNITED STATES,www.daviswince.com
Davis WInce Ltd,1466 Manning Pkwy,Powell,OH,43065-9171,UNITED STATES,www.daviswince.com
Davis Wince Ltd. Architecture,"1401 Zuni St , Apt 102",Denver,CO,80204-2302,UNITED STATES,www.daviswince.com
"Davis Wince, Ltd.",1466 Manning Pkwy,Powell,OH,43065,UNITED STATES,www.daviswince.com
"Davis, Bowen & Friedel","601 E Main Street, Suite 100",Salisbury,MD,21804,UNITED STATES,www.dbfinc.com
"Davis, Bowen & Friedel, Inc.","601 E Main St , Ste 100",Salisbury,MD,21804-5021,UNITED STATES,www.dbfinc.com
"Davis, Bowen & Friedel, Inc.",1 Park Avenue,Milford,DE,19963,UNITED STATES,www.dbfinc.com
Davison Smith Certo Architects,"26031 Center Ridge Rd , Ste B",Westlake,OH,44145-4022,UNITED STATES,www.dscarchitects.com
Dawdy & Associates,40 Meadowbrook Country Club Est,Ballwin,MO,63011-1695,UNITED STATES,www.stlouisarchitecturecompany.com
Dawson Van Orden,"1250 Wood Branch Park Dr , Ste 210",Houston,TX,77079-1247,UNITED STATES,www.dvoeng.com
db Architect,,,,,,
DB Architects LLC,185 Winchester St,Keene,NH,03431-4636,UNITED STATES,www.danbartlettarchitect.com
db Architecture of Acadiana,233 Doucet Rd Ste A2,Lafayette,LA,70503,UNITED STATES,www.dbarchitectureofacadiana.com
db | Architecture of Acadiana,"117 Amaryllis Dr, (by appointment only)",Lafayette,LA,70503,UNITED STATES,www.dbarchitectureofacadiana.com
DB3 Architects and Planners,255 Millertown Rd,Bedford,NY,10506-1307,UNITED STATES,
"db3, inc.",119 High St,Portsmouth,VA,23704-3831,UNITED STATES,www.db3va.com
DBA ARchitects,"111 S Kentucky St , Ste 210",McKinney,TX,75069-4409,UNITED STATES,www.dba-architects.com
DBA Barry Price Architecture,PO Box 724,Bearsville,NY,12409-0724,UNITED STATES,www.barryprice.com
DBB Architecture PC,75 S Broadway Ste 400,White Plains,NY,10601-4413,UNITED STATES,www.dbbarchitecture.com
"DBI Architects, Inc.",1984 Isaac Newton Sq W Ste 400,Reston,VA,20190-5042,UNITED STATES,www.dbia.com
"DBI Architects, Inc.","1875 Connecticut Ave NW , Fl 10",Washington,DC,20009-6046,UNITED STATES,www.dbia.com
DBMC Design LLP,"8701 Georgia Ave , Ste 408",Silver Spring,MD,20910-3713,UNITED STATES,www.dbmc.us
dbp architecture pc,PO Box 435,Yorktown Heights,NY,10598-0435,UNITED STATES,www.dbparchitecture.com
DC Architects,"820 N Mountain Ave , Ste 200",Upland,CA,91786-4163,UNITED STATES,www.dcarchitects.net
"DCAK-MSA Architecture & Engineering, PC",53 Hudson Ave,Nyack,NY,10960-3808,UNITED STATES,www.dcak-msa.com
"dcb Construction Company, Inc.",909 E 62nd Ave,Denver,CO,80216-1142,UNITED STATES,www.dcb1.com
"dChang Architects, LLC",5682 W Gary Dr,Chandler,AZ,85226-1263,UNITED STATES,www.dchangarchitects.com
DCI Architects,107a West Edmonston Drive,Rockville,MD,20852,UNITED STATES,www.dci-arch.com
DCMAStudio,41 PRESIDENTIAL WAY,Auburn,ME,04210-4759,UNITED STATES,
dctDESIGNS,18 Thomas Farm Cir,Shrewsbury,MA,01545-4056,UNITED STATES,dctdesigns.net
DDCA Architects,3321 S Il Route 31,Prairie Grove,IL,60012-1404,UNITED STATES,www.directdesignltd.com
"DDD Architecture, PSC",108 State Rd. #2,Guaynabo,PR,00966,UNITED STATES,www.dddpr.com
"DDD Group, LLC",108 State Rd. #2,Guaynabo,PR,00966,UNITED STATES,www.dddpr.com
De Angelis Architects,451 E Boston Post Rd,Mamaroneck,NY,10543-3759,UNITED STATES,www.dasllc.com
"DE Architects, AIA","1535 6th St , Ste 101",Santa Monica,CA,90401-2526,UNITED STATES,www.dearchitects.net
De Barbieri Architects,"355 Murray Hill Pkwy , Ste 204",East Rutherford,NJ,07073-2139,UNITED STATES,www.debarbieriarchitects.com
"De Etta L. Ewing, Architect",337 Rezzo St,Las Vegas,NV,89138,UNITED STATES,
