Firm Name,Address Line 1,City,State,Zip Code,Country,Firm URL
"Joglar Arquitecto, PSC",,,,,,
"Johann D. Wang, AIA Architect",3375 Canton Way,Studio City,CA,91604-4168,UNITED STATES,www.intearc.com
Johannas Design Group,1901 W Cary St,Richmond,VA,23220-5330,UNITED STATES,www.johannasdesign.com
Johansson Wing Architects,"101 S Parkway Ave, Po Box 798",Battle Ground,WA,98604,UNITED STATES,www.johanssonwing.com
"John A. Bodziak, Architect, AIA, PA",743 49th St N,St Petersburg,FL,33710-6610,UNITED STATES,www.johnabodziakarchitect.com
"John A. Eberts, Architect","165 Erie Rd., Suite B","Columbus,",OH,43214,UNITED STATES,
John A. Grillo Architect P.C.,1213 Main St,Port Jefferson,NY,11777-2281,UNITED STATES,www.jagarchitect.com
John A. Hagenah Architect,1101 Greenwood Ave,Wilmette,IL,60091-1619,UNITED STATES,
"John A. Padilla, AIA - Architect",PO Box 22986,Santa Fe,NM,87502,UNITED STATES,
John A. Rinaldi Architect,3506 El Camino Real,Atascadero,CA,93422-2531,UNITED STATES,www.rinaldiaia.com
John A. Robinson Architect,1150 Bay Rd,Amherst,MA,01002-3513,UNITED STATES,
John A. Salat Architects,22386 Woodgrove Rd,Lake Forest,CA,92630-2356,UNITED STATES,zenarchitect.com
John A. Tuten & Associates,4680 Highway 17 North,Brunswick,GA,31525,UNITED STATES,www.johntuten.com
"John Amisano, AIA",2 Brittany Ct,Northport,NY,11768-3224,UNITED STATES,www.architectlongislandny.com
John Ash Group Architects,428 1st St,Eureka,CA,95501-0404,UNITED STATES,jagarchitects.com
"John B. Hawkins, AIA, Architect",210 N Columbia St,Chapel Hill,NC,27514-3501,UNITED STATES,
"John B. Murray Architect, LLC","48 W 37th St , # 10FL",New York,NY,10018-7487,UNITED STATES,www.jbmarchitect.com
"John B. Murray Architect, LLC",48 W 37Th St Fl 10,New York,NY,10018-7317,UNITED STATES,www.jbmarchitect.com
"John B. Van Lenten, AIA",PO Box 391,Oldwick,NJ,08858-0391,UNITED STATES,www.vanlentenarchitecture.com
John B. Weber Architect,415 Berkeley Ave,Winnetka,IL,60093-2109,UNITED STATES,
John Barton Architects LLC,"1600 Lena St
Unite B4 Upstairs",Santa Fe,NM,87505-5562,UNITED STATES,www.jwbarton.com
John Bates Associates,22952 Mill Creek Dr,Laguna Hills,CA,92653-1217,UNITED STATES,www.johnbatesassociates.com
John Bergford Architect,2756 Ewing Ave S,Minneapolis,MN,55416-4213,UNITED STATES,www.jbergford-architect.com
John Berry Architects,712 Echo Park Ave,Los Angeles,CA,90026-4208,UNITED STATES,www.johnberryarchitects.com
John Bowie Associates,101 E Possum Hollow Rd,Wallingford,PA,19086-6200,UNITED STATES,
John Britton Architect,3361 N Lucille Ln,Lafayette,CA,94549-5441,UNITED STATES,
"John C. Chen Architect, PLLC",13137 41st Ave,Flushing,NY,11355-4282,UNITED STATES,
John C. Clark & Associates,30 Ashford St,Hartford,CT,06120-1103,UNITED STATES,
John C. Guenther Architect LLC,18041 Melrose Rd,Wildwood,MO,63038-1847,UNITED STATES,
John C. WIlliams Architects,824 Baronne St,New Orleans,LA,70113-1103,UNITED STATES,www.williamsarchitects.com
John C. Williams Architects LLC,,,,,,www.williamsarchitects.com
John Chen & Associates,12505 Montclair Dr,Silver Spring,MD,20904-2052,UNITED STATES,
"John Chris Evans, Architect",527 Airway Dr,Alcoa,TN,37701-3282,UNITED STATES,www.jchrisevansarchitect.com
"John Ciardullo, P.C.","575 8th Ave , Fl 20",New York,NY,10018-3048,UNITED STATES,www.ciardullo.com
"John Ciccarelli Architect, LLC",337 Molasses Ln,Mt Pleasant,SC,29464-2520,UNITED STATES,www.johnciccarelliarchitect.com
John Clark Architect Inc.,5009 Lorraine Ave,Burnaby,BC,V5G 2S3,CANADA,www.jcainc.ca
John Clarke Architects,"4000 Bridgeway , Ste 313A",Sausalito,CA,94965-1474,UNITED STATES,www.jcarchs.com
John Clarke Architects,"4000 Bridgeway , Ste 304",Sausalito,CA,94965-4804,UNITED STATES,www.jcarchs.com
"John Cohen, AIA",397 Summit Ave,Hackensack,NJ,07601-1414,UNITED STATES,www.johncohenassociates.com
"John Cruet Jr., AIA",PO Box 435,Guilford,CT,06437-0435,UNITED STATES,www.johncruet.com
John Culotta Architect,1711 Nantucket Rd,Plymouth,MI,48170-1055,UNITED STATES,
John D. Jarrard Architect,1700 S Spring St,Little Rock,AR,72206-1450,UNITED STATES,
"John D. Kelley, AIA, Architect",1228 San Miguel Ave,Santa Barbara,CA,93109-2100,UNITED STATES,www.jdkaia.com
John D. Thomson Architect,Muntaner N 551 4,Barcelona,,08022,SPAIN,
"John Damico, Architect, LLC",12 Niantic River Rd,Waterford,CT,06385-3120,UNITED STATES,
John David Duffie  Architect,711 E Main St,Medford,OR,97504-7139,UNITED STATES,
John David Rose Architect P.C. AIA,"5 Main St , Unit 2",Southampton,NY,11968-4884,UNITED STATES,johnhavidrosearchitect.com
"John David Rose, Architect PC AIA","596 Hampton Rd , Unit 1",Southampton,NY,11968-3094,UNITED STATES,
"John DeFazio, Architect","4720 Center Blvd , Apt 216",Long Island City,NY,11109-5661,UNITED STATES,
John DeSalvo Design Architects,"1300 N Astor St , # 27C27C",Chicago,IL,60610-2139,UNITED STATES,johndesalvodesign.com
