Firm Name,Address Line 1,City,State,Zip Code,Country,Firm URL
Marrone Architects,"81 Pondfield Rd , Ste 307",Bronxville,NY,10708-3818,UNITED STATES,
Marsella Architects,178 East Boston Post Rd,Mamaroneck,NY,10543,UNITED STATES,www.marsella-architects.com
"Marsh + Woods Architects, LLC","400 Main St , Ste 300",Stamford,CT,06901-3004,UNITED STATES,marsh-woods.com
Marsh and Associates Inc.,"7730 E Belleview Ave , Ste 101",Greenwood Village,CO,80111-2603,UNITED STATES,www.mai-architects.com
"Marsha Berger, Architect","200 Garrett St , Unit 515",Charlottesville,VA,22902-5670,UNITED STATES,
Marsha L. Fader,36 Liberty St,Nantucket,MA,02554-2144,UNITED STATES,
Marshall & Co.,8402 Parkbrook Ln,Knoxville,TN,37919-7065,UNITED STATES,
"Marshall Architecture, P.C.",5101 S Clarkson St,Greenwood Village,CO,80121-1206,UNITED STATES,www.marshallarchitecture.com
"Marshall B. Roberts, Architect",1907 Northwood Dr,Johnson City,TN,37601-3222,UNITED STATES,
"Marshall Clarke Architects, Inc.","5 Century Dr , Ste 210",Greenville,SC,29607-1572,UNITED STATES,www.designmca.com
Marshall Craft Associates,"2031 Clipper Park Rd , Ste 105",Baltimore,MD,21211-1490,UNITED STATES,www.mca.design
"Marshall Craft Associates, Inc.","2031 Clipper Park Rd , Ste 105",Baltimore,MD,21211-1490,UNITED STATES,www.mca.design
"Marshall Craft Associates, Inc.","211 Ruthers Road, Suite 203",Richmond,VA,23235,UNITED STATES,
Marshall Erdman & Associates,"11 N Washington St , Ste 300",Rockville,MD,20850-4263,UNITED STATES,
"Marshall M. Levin, AIA, Consulting Architect",2440 Robin Oak Rdg,Minnetonka,MN,55305-3297,UNITED STATES,
"Marshall Moya Design, LLC","2201 Wisconsin Ave NW , Ste 305",Washington,DC,20007-4108,UNITED STATES,www.marshallmoya.com/
Marshall Porterfield Architects,"3100 Richmond Ave , Ste 301",Houston,TX,77098-3015,UNITED STATES,www.marshallporterfieldarchitects.com
"Marshall Sabatini, P.C.",113 Cumberland Pl,Bryn Mawr,PA,19010-1150,UNITED STATES,www.marshallsabatini.com
Marshall Waters Woody,"1736 E Sunshine St , Ste 311",Springfield,MO,65804-1352,UNITED STATES,www.mwwarch.com
MARSTON design studio,113 Tunnel Hill Dr,Ball Ground,GA,30107-6809,UNITED STATES,www.marstondesignstudio.com
Martenson & Eisele Inc.,1377 Midway Rd,Menasha,WI,54952-1265,UNITED STATES,martenson-eisele.com/
Martha B. Bute Architect,"4605 Post Oak Place Dr , Ste 140",Houston,TX,77027-9744,UNITED STATES,
Martha Mason,607 W Front St,Burlington,NC,27215-3770,UNITED STATES,
Martignetti Joseph The Office,1018 Cowper St,Palo Alto,CA,94301-3214,UNITED STATES,www.ventanaps.com
"Martin A. Benassi, Architect",2 Broadway,Hamden,CT,06518-2629,UNITED STATES,www.mabarchitect.com
"Martin A. De Sapio, AIA","270 S Main St , Ste 300",Flemington,NJ,08822-1787,UNITED STATES,www.flemingtonarchitecturecompany.com
Martin A. Senell AIA,48 Creswell Ct,Greensboro,NC,27407-7894,UNITED STATES,
"Martin Architects, P.C., AIA",PO BOX 405,Sagaponack,NY,11962-0405,UNITED STATES,www.martinarchitects.com
Martin Architectural Group,240 N 22nd St,Philadelphia,PA,19103-1004,UNITED STATES,www.martinaia.com/
Martin Architecture,"2333 State St , Ste 100",Carlsbad,CA,92008-1691,UNITED STATES,www.martinarchitecture.com
Martin Associates Architecture,1522 S 96th St,Omaha,NE,68124-1126,UNITED STATES,
Martin B. Dassa Architects AIA,16 Portland Pl,Montclair,NJ,07042-2811,UNITED STATES,www.dassahaines.com
Martin Brandwein Architect,"30 Ocean Pkwy , Apt 5B",Brooklyn,NY,11218-1529,UNITED STATES,www.martinbrandweinarchitect.com
"Martin Custom Homes, Inc","4100 Corporate Sq , Ste 102",Naples,FL,34104-4703,UNITED STATES,
"Martin Design, Architects",318 West Broadway,Muskogee,OK,74401,UNITED STATES,www.martin-design.net
Martin Fenlon Architecture,5526 Monterey Rd,Los Angeles,CA,90042-4920,UNITED STATES,www.martinfenlon.com
"Martin Gardner Architecture, P.C",11502 390th St,Strawberry Point,IA,52076-8232,UNITED STATES,www.martingardnerarch.com
"Martin Gardner Architecture, P.C.","700 11th St , Ste 200",Marion,IA,52302-3436,UNITED STATES,www.martingardnerarch.com
Martin Henry Kaplan Architects,P.O. Box 482,Ketchum,ID,83340,UNITED STATES,
Martin Holub Architects,"116 W 72nd St , Fl 16",New York,NY,10023-3315,UNITED STATES,www.mharchitects.com
Martin Hopp Architect PLLC,"250 W 24th St , Apt Gbe",New York,NY,10011-1789,UNITED STATES,www.martinhopp.com
"Martin J Brockstedt Architect, P.C.",23 Valley Dr,Huntington,NY,11743-1472,UNITED STATES,www.mjbarchitectpc.com
Martin Kleinman & Assoc.,"2456 W Estes Ave , Apt 1",Chicago,IL,60645-3337,UNITED STATES,
Martin Manley Architects,PO Box 1587,Eagle,CO,81631-1587,UNITED STATES,www.martinmanleyarchitects.com
"Martin Partners Architecture + Design, LLP","100 Shoreline Hwy, Bldg B, Ste. 100",Mill Valley,CA,94941,UNITED STATES,
Martin Rich Architect PC,"685 3rd Ave , Fl 17",New York,NY,10017-8411,UNITED STATES,www.richaia.com
Martin Riley Architects/Engineers,221 W Baker St,Fort Wayne,IN,46802-3413,UNITED STATES,www.martin-riley.com
"Martin Riley Associates-Architects, PC","215 Church St , Ste 200",Decatur,GA,30030-3330,UNITED STATES,www.martinriley.com
Martin Sandino Architecture and Planning,"12212 N Paradise Village Pkwy S , Apt 208",Phoenix,AZ,85032-7698,UNITED STATES,
Martin Sendlewski Architect,215 Roanoke Ave,Riverhead,NY,11901-2778,UNITED STATES,www.spillbp.com
