Firm Name,Address Line 1,City,State,Zip Code,Country,Firm URL
Harrison Architecture and Design,14850 Quorum Dr. Suite 450,Dallas,TX,75254-6910,UNITED STATES,www.harrison.hn
Harrison Design,"1875 Century Park E , Ste 1300",Los Angeles,CA,90067-2514,UNITED STATES,www.harrisondesign.com
Harrison Design,"3565 Piedmont Rd NE , Bldg 1-700",Atlanta,GA,30305-8203,UNITED STATES,www.harrisondesign.com
Harrison Design,"144 East 44th Street, Suite #100",New York,NY,10017,UNITED STATES,www.harrisondesign.com
Harrison Design,"3565 Piedmont Rd NE , Bldg 1",Atlanta,GA,30305-8202,UNITED STATES,harrisondesign.com/
Harrison Design,"35 West Haley Street
#B",Santa Barbara,CA,93101,UNITED STATES,www.harrisondesign.com
Harrison Design,35 W Haley ST # B,Santa Barbara,CA,93101-3428,UNITED STATES,harrisondesign.com/
Harrison Design,"5185 MacArthur Blvd NW , Ste 115",Washington,DC,20016-3341,UNITED STATES,harrisondesign.com/
Harrison Design,6430 W Sunset Blvd Ste 1506,Los Angeles,CA,90028-8016,UNITED STATES,www.harrisondesign.com/
Harrison Design,"1054 31st St NW , Ste 204",Washington,DC,20007-6150,UNITED STATES,www.harrisondesign.com
Harrison Design Associates,72 Main St,Great Barrington,MA,01230-1308,UNITED STATES,www.hdassociates.com
Harrison French & Associates,"1705 S Walton Blvd , Ste 3",Bentonville,AR,72712-7113,UNITED STATES,www.hfa-ae.com
"Harrison French & Associates, LTD","420 Throckmorton Street, Ste 910",Fort Worth,TX,76102,UNITED STATES,
"Harrison French & Associates, Ltd.",1705 S Walton Blvd Ste 03,Bentonville,AR,72712-7113,UNITED STATES,www.hfa-ae.com
Harrison Kornberg Architects,3800 Buffalo Speedway Ste 550,Houston,TX,77098-3727,UNITED STATES,www.harrisonkornberg.com
Harrison Mulhern Architects,"600 Main St , Ste 6",Winchester,MA,01890-4312,UNITED STATES,www.hmarchitects.com
"Harrison Planning Group, LLC","10488 Churchill Dr , Ste 200",Powell,OH,43065-8627,UNITED STATES,www.harrisonplanninggroup.com
"Harrison Woodfield Architects, Inc.","205-5th Street, Suite M",Santa Rosa,CA,95401-6208,UNITED STATES,www.harrisonwoodfieldarch.com
HarrisonKornberg Architects,"3800, Buffalo Speedway, Suite 550",Houston,TX,77098,UNITED STATES,www.harrisonkornberg.com
"Harry B. Adreon, Architect",4524 19th Rd N,Arlington,VA,22207-2352,UNITED STATES,
Harry D. Bopp AIA,328 Main St,Lumberton,NJ,08048-9530,UNITED STATES,
Harry Elson Architect PC,"405 Lexington Ave , Fl 37",New York,NY,10174-0002,UNITED STATES,
"Harry Elson, AIA Architect","350 E 79th St , Apt 24A",New York,NY,10075-9208,UNITED STATES,www.harryelson.com
"Harry Gandy Howle Architects, P.A.","2801 Ocean Dr , Ste 302",Vero Beach,FL,32963-2084,UNITED STATES,hghowlearchitects.com/
"Harry Gandy Howle, Architect & Associates, PA","2801 Ocean Dr , Ste 302",Vero Beach,FL,32963-2084,UNITED STATES,www.hghowlearchitects.com
"Harry Gandy Howle, Architect & Associates, PA","645 Beachland Blvd , Ste 6",Vero Beach,FL,32963-1725,UNITED STATES,www.hghowlearchitects.com
Harry Gendel Architects,1807 Decatur St,Houston,TX,77007-7634,UNITED STATES,www.hgarch.com
Harry Hunt Architects,43 Shaw Hill RD,Stowe,VT,05672,UNITED STATES,www.harryhuntarchitects.com
Harry L. Baxter Architect,2111 O Donnell Dr,Champaign,IL,61821-6468,UNITED STATES,
Harry Levine & Architect,5514 Howe ST,Pittsburgh,PA,15232-2304,UNITED STATES,www.harrylevinearchitect.com
Harry Mark Architect,2865 Hunter St,Fort Worth,TX,76112-6732,UNITED STATES,
"Harry Martin, architect",3355 10th Avenue Northeast,Sauk Rapids,MN,56379,UNITED STATES,
"Harry Newman, AIA",634 Tree Top Ln,Thousand Oaks,CA,91360-2456,UNITED STATES,cdtfa.ca.gov
Harry S. Driggs Architect,151 Cibola Dr,Sedona,AZ,86336-3557,UNITED STATES,
Harry Teague Architects,"129 Emma Rd , Ste A",Basalt,CO,81621-8301,UNITED STATES,www.harryteaguearchitects.com
Hart Architects,3580 Glen Allen Dr,Cleveland Heights,OH,44121-1505,UNITED STATES,
"Hart Associates Architects, Inc.",50 Church St,Belmont,MA,02478-4911,UNITED STATES,www.hartarch.com
Hart Howerton,"10 East 40th Street, Flr. 39",New York,NY,10016,UNITED STATES,www.harthowerton.com/
Hart Howerton,1 Union St,San Francisco,CA,94111-1222,UNITED STATES,www.harthowerton.com
Hart Howerton,1 Union ST,San Francisco,CA,94111-1222,UNITED STATES,www.harthowerton.com
Hart Howerton,10 E 40Th St Fl 39,New York,NY,10016-0301,UNITED STATES,www.sherwoodengineers.com
Hart Howerton,"1 Union St , 3rd Floor",San Francisco,CA,94111,UNITED STATES,www.harthowerton.com
Hart STUDIO llc,PO Box 460003,Denver,CO,80246-0003,UNITED STATES,www.hartstudio.net
Hartfiel Architecture & Design LLC,"1000 Austin St , Ste E",Richmond,TX,77469-5275,UNITED STATES,
HarthArchitecture,PO BOX 16778,San Diego,CA,92176-6778,UNITED STATES,
Harthorne Hagen Architects,1725 8th Ave N,Seattle,WA,98109-3015,UNITED STATES,www.hhaseattle.com
Hartley Studio,925 Milwood Ave,Venice,CA,90291-3832,UNITED STATES,www.hartleystudio.net
Hartman + Majewski Design Group,120 Vassar Dr Se Ste 100,Albuquerque,NM,87106-2823,UNITED STATES,www.designgroupnm.com
Hartman Trapp Architecture Studio,"1011 Locust St , Ste 307",Des Moines,IA,50309-2813,UNITED STATES,www.htastudio.com
Hartman-Cox Architects,1074 Thomas Jefferson St Nw,Washington,DC,20007-3832,UNITED STATES,www.hartmancox.com
