Firm Name,Address Line 1,City,State,Zip Code,Country,Firm URL
Rutledge England Office of Design,619 E College Ave Ste D1,Decatur,GA,30030-5330,UNITED STATES,www.officeofdesignarch.com
"Rutledge Maul Architects, PS, Inc.",19940 Ballinger Way Ne Ste A3,Shoreline,WA,98155-1269,UNITED STATES,www.rutledgemaul.com/
RV Architects,467A N Washington St,Falls Church,VA,22046-3435,UNITED STATES,
RVK Architects,2002 N. Saint Marys St.,San Antonio,TX,78212-4149,UNITED STATES,www.rvk-architects.com
RVL Architecture,6 Spruce Pond Ln,Bedford,NY,10506-1544,UNITED STATES,
"RVW, Inc.",4118 Howard Blvd,Columbus,NE,68601-4036,UNITED STATES,www.rvwinc.com
RW Fern Associates,5517 Grand Ave,Duluth,MN,55807-2537,UNITED STATES,
RW Hand Consulting Architects,8555 E Bonnie Rose Ave,Scottsdale,AZ,85250-6717,UNITED STATES,
"RWA Architects, Inc.",2771 Observatory Ave,Cincinnati,OH,45208,UNITED STATES,rwaarchitects.com
"RWA Contract Services, Inc.",9889 N 101st St,Scottsdale,AZ,85258-4817,UNITED STATES,
RWDI USA LLC,"1608 Walnut St , Ste 1200",Philadelphia,PA,19103-5407,UNITED STATES,www.rwdi.com
RWS Architects,"6575 West Loop S, STE 500",Bellaire,TX,77401,UNITED STATES,www.rwsarchitects.com
RWS Architects Incorporated,6575 West Loop S Ste 500,Bellaire,TX,77401,UNITED STATES,www.rwsarchitects.com
Ryall Porter Sheridan Architects,"74 5th Ave , Ste 300",New York,NY,10011-8005,UNITED STATES,ryallporter.com/
Ryall Sheridan Architects,"174 5th Avenue, Suite 300",New York,NY,10010,UNITED STATES,www.ryallsheridan.com
Ryan A+E,533 S 3rd Street,Minneapolis,MN,55415,UNITED STATES,https://www.ryancompanies.com
"Ryan A+E, Inc.","3900 East Camelback Road, Suite #100",Phoenix,AZ,85018,UNITED STATES,
Ryan Alderman Architect,3460 SW 16th Ct,Fort Lauderdale,FL,33312-3608,UNITED STATES,
Ryan Architecture Inc.,1134 Silverleaf Dr,Arnold,MD,21012-1942,UNITED STATES,
Ryan Companies,"50 S 10th St , Ste 300",Minneapolis,MN,55403-2012,UNITED STATES,www.ryancompanies.com
"Ryan Min Architect, PLLC","231 West 29th Street, Suite 1106",New York,NY,10001,UNITED STATES,
"Ryan Rhodes Designs, Inc.",303 Nickerson St,Seattle,WA,98109-1725,UNITED STATES,www.ryanrhodesdesigns.com
"Ryan Salvatore Design, LLC","153 W 27th St , Ste 705",New York,NY,10001-6255,UNITED STATES,
Ryan Senatore Architecture,67 Gray Rd,Gorham,ME,04038-1110,UNITED STATES,senatorearchitecture.com/index.html
Ryan Street & Associates,2414 Exposition Blvd Ste B140,Austin,TX,78703-2283,UNITED STATES,www.rsassoc.com
"Ryan Taylor Architects, LLC","2451 Cumberland Parkway SE
Suite 3503",Atlanta,GA,30339,UNITED STATES,www.ryantaylorarchitects.com/
"Ryba Architects, Ltd",PO Box 428,Richfield,OH,44286-0428,UNITED STATES,
"Rybak Architecture & Development, PC","600 E Hopkins Ave , Ste 303",Aspen,CO,81611-2934,UNITED STATES,www.daverybak.com
Ryden Architects,902 W McDowell Rd,Phoenix,AZ,85007-1730,UNITED STATES,
"Ryden Architecture, LLC",1252 Thornton Rd,Houston,TX,77018-3127,UNITED STATES,www.rydenarchitecture.com
"RYLAUR, LLC",14 Pheasant Ln,Saint Paul,MN,55127-2512,UNITED STATES,
RYS Architects,10 Monterey Blvd,San Francisco,CA,94131-3265,UNITED STATES,www.rysarchitects.com
R|5 Design Agency,12 Sunnen Dr,Saint Louis,MO,63143-3825,UNITED STATES,www.r5da.com
S Berry Jones - Architects,3208 Joffre Ave,Memphis,TN,38111-3432,UNITED STATES,www.sbjarchitects.com
S M R T Inc,144 Fore St,Portland,ME,04101-4843,UNITED STATES,www.smrtinc.com
S M TAM ARCHITECT PLLC,5816 Fort Hamilton Pkwy Unit 1M,Brooklyn,NY,11219-5884,UNITED STATES,www.smtam-arch.com
S Rejeili Architect PLLC,"147 West 35th Street, Suite 404",New York,NY,10001,UNITED STATES,
S Squared Architecture,"8575 Morro Road, Suite E",Atascadero,CA,93422,UNITED STATES,s2arch.us
S+ ARCHITECTURE,"S+ ARCHITECTURE
Balmumcu Mh. Barbaros Bulvari
Morbasan Sk. 2-6A
Besiktas",Istanbul,,34349,TURKEY,www.splusarchitecture.com
"S+H Works, LLC","1122 E Pike St , # 1337",Seattle,WA,98122-3916,UNITED STATES,www.s-hw.com
S. Allen Design,"49 W Chicago St , Ste A",Coldwater,MI,49036-1692,UNITED STATES,www.sallendesign.com
S. Barzin Architect,53 Narragansett Ave,Jamestown,RI,02835-1138,UNITED STATES,www.sbarzinarchitect.com
"S. Glenn Eichler, Inc","30270 Rancho Viejo Rd , Ste E",San Juan Capo,CA,92675-1556,UNITED STATES,
S. J. Hollander Architect,519 1st Capitol Dr,Saint Charles,MO,63301-2725,UNITED STATES,www.sjhollanderarchitect.com
"S. Mitchell Hodge, AIA",1900 Cedar Ln,Nashville,TN,37212-5702,UNITED STATES,www.hodgearch.com
S. Munoz and Associates,230 Capitol St,Salinas,CA,93901-2625,UNITED STATES,
S. Olson Architects,400 N Peters St,New Orleans,LA,70130-1037,UNITED STATES,
"S.E. Wagner, Architect",PO Box 258,The Plains,VA,20198-0258,UNITED STATES,
"S.E.M. Partners, Inc.",167 S State St,Westerville,OH,43081-2265,UNITED STATES,www.sem-architects.com
S.L.C.E. Architects,841 Broadway,New York,NY,10003-4704,UNITED STATES,www.slcearch.com
