Firm Name,Address Line 1,City,State,Zip Code,Country,Firm URL
Robert Cohen Architect LLC,9 Bayberry Rdg Rd,Westport,CT,06880-1713,UNITED STATES,www.robertcohenarchitect.com
"Robert Culek, AIA",317 Valley Brook Ave,Lyndhurst,NJ,07071-1806,UNITED STATES,
"Robert Daverman Architecture & Planning,",5 Park Hills Dr SE,Grand Rapids,MI,49506-1926,UNITED STATES,www.robertdaverman-ap.com
Robert Dean Architects,111 Cherry St,New Canaan,CT,06840-5537,UNITED STATES,www.robertdeanarchitects.com
"Robert deJongh, Jr. AIA",19908 100th Ave,Hollis,NY,11423-3318,UNITED STATES,
"Robert Duncan Nicol, FAIA",7440 Wild Horse Valley Rd,Napa,CA,94558-4071,UNITED STATES,
"Robert E. Clark, AIA, Architect",PO Box 205,Pinehurst,NC,28374-2001,UNITED STATES,
"Robert E. Coleman, Architect","1390 Valley Rd , Ste 2H",Stirling,NJ,07980-1346,UNITED STATES,
Robert E. Edmonds Architect,7158 Waterman Ave,Saint Louis,MO,63130-4325,UNITED STATES,
Robert E. Freeburg AIA Associates,"627 South St , Ste 201",Honolulu,HI,96813-5050,UNITED STATES,www.aiahonolulu.org
"Robert E. Hayes &amp;amp; Associates, PLLC",465 Centre View Boulevard,Crestview Hills,KY,41017,UNITED STATES,www.reharchitects.com
Robert E. Moore Architect,100 N Sutherland Ave,Monroe,NC,28110-3800,UNITED STATES,www.remarchitect.com
"Robert E. Taylor, AIA, Architect, PA",PO Box 267,Palatka,FL,32178-0267,UNITED STATES,www.ret-tbd.com
Robert E. Vick & Associates,5 Naugus Ave,Marblehead,MA,01945-1517,UNITED STATES,
"Robert Elliott Leslie Architecture, PC",16 W 22nd St,New York,NY,10010-5803,UNITED STATES,www.relarchitecture.com
Robert Evenson Associates,"5319 SW Westgate Dr , Ste 133",Portland,OR,97221-2430,UNITED STATES,www.evensonarchitects.com
"Robert F. Crane, AIA",PO Box 370,St John,VI,00831-0370,UNITED STATES,crane3.com
Robert Floyd Architect,1702 Temple Ave,Nashville,TN,37215-3527,UNITED STATES,www.robertfloydarchitect.com
"Robert Flubacker Architects, Ltd.","1895 Rohlwing Road, Suite B",Rolling Meadows,IL,60008-1367,UNITED STATES,www.robertflubackerarchitects.com/
"Robert G. Emert Architect, Inc.",46 Heron Rd,Livingston,NJ,07039-4432,UNITED STATES,www.rgearchitect.com
Robert G. Gahagan Architects,"169 Forest Ave , Unit 4",Locust Valley,NY,11560-2141,UNITED STATES,
"Robert G. Hanley, AIA",547 E. Nottingham Dr.,San Antonio,TX,78209,UNITED STATES,www.partyoutletforbrides.com
"Robert G. Zinkhan, Architect AIA",1632 Deer Run,Santa Rosa,CA,95405-7553,UNITED STATES,www.zinkhan.com
Robert Goodson Architecture,527 E Carolina Ave,Hartsville,SC,29550-4311,UNITED STATES,www.c4kclothing.org
"Robert Goss, Architect",403 Robert Hunt Dr,Carrboro,NC,27510-4133,UNITED STATES,
Robert Gray Architect,1425 Jackson Street,Corinth,MS,38834,UNITED STATES,
"Robert H. Linn, Architect",1140 N Providence Rd,Media,PA,19063-2102,UNITED STATES,
Robert Haley Architect LEED AP,137 Buckingham Ave,Syracuse,NY,13210-3021,UNITED STATES,
"Robert Hanselman, AIA, Architect",9316 SW 12th Ave,Gainesville,FL,32607-3215,UNITED STATES,www.aiagainesville.org
Robert Hidey Architect Inc.,"3337 Michelson Dr , Ste 170",Irvine,CA,92612-8894,UNITED STATES,roberthidey.com
Robert Hidey Architects,"3337 Michelson Dr , Ste 170",Irvine,CA,92612-8894,UNITED STATES,www.roberthidey.com
Robert Higgins Architects,50 Hidden Acres Path,Wading River,NY,11792-2211,UNITED STATES,
Robert Hutchison Architecture LLC,4010 Whitman Ave N,Seattle,WA,98103,UNITED STATES,www.robhutcharch.com
"Robert I. Brown Architect, P.C.",205 Bay Ave,Greenport,NY,11944-1463,UNITED STATES,www.fairweather-brown.com
Robert J Fatovic' AIA Facility Consulting,313 N West St,Falls Church,VA,22046-2542,UNITED STATES,
"Robert J Kent + Assoc., Architects, Engineers",3066 Olivoro Ct,Livermore,CA,94550-8669,UNITED STATES,
"Robert J. Arntz, Architect",1300 Centennial Pkwy,Waunakee,WI,53597-1916,UNITED STATES,robertjarntzphotography.zenfolio.com
Robert J. Clark Associates,"4432 Finley Ave , Apt F",Los Angeles,CA,90027-2776,UNITED STATES,
Robert J. Geering FAIA Architect,177 Hazel Ave,Mill Valley,CA,94941-4216,UNITED STATES,
"Robert J. Hochberg, Architect",2310 Hempstead Tpke,East Meadow,NY,11554-2035,UNITED STATES,
Robert J. Kady,26 Wrick Ave,Titusville,NJ,08560-1812,UNITED STATES,
"Robert J. Kent + Associates, Architects, Engineers","3397 Mt Diablo Blvd , Ste A",Lafayette,CA,94549-4018,UNITED STATES,
"Robert J. Kuhar, AIA",725 Broad St,Augusta,GA,30901-1336,UNITED STATES,www.morris.com
Robert J. Mayer,7 Central St,Framingham,MA,01701-4115,UNITED STATES,www.mehappy.com
"Robert J. Neylan Architects, LTD.",2622 N Burling St,Chicago,IL,60614-1514,UNITED STATES,www.rjnarch.com
"Robert J. Pesce, AIA",1113 Heather Ct,Benbrook,TX,76126-3700,UNITED STATES,
"Robert J. Probst, Architect PA",PO Box 3766,West Columbia,SC,29171-3766,UNITED STATES,
"Robert J. Ring Associates, AIA, PA","30 Columbia Tpke , Ste 201",Florham Park,NJ,07932-2253,UNITED STATES,
"Robert J. Rysavy, LLC",2801 W Oak St,Sioux Falls,SD,57105-3340,UNITED STATES,
"Robert J. Shusterman, AIA",9189 Germantown Ave,Philadelphia,PA,19118-2630,UNITED STATES,www.schusterman.org
