Firm Name,Address Line 1,City,State,Zip Code,Country,Firm URL
Sullivan + Associates Architects,PO Box 989,Oak Bluffs,MA,02557-0989,UNITED STATES,www.sullivanassociatesarchitects.com
"Sullivan Architecture, P.C.",31 Mamaroneck Ave,White Plains,NY,10601-3300,UNITED STATES,www.whiteplainsarchitecturefirm.com
Sullivan Bruck Architects,309 S 4th St,Columbus,OH,43215-5428,UNITED STATES,www.sbarch.com
Sullivan Building and Design Group,2320 Trumbauersville Rd,Quakertown,PA,18951-2281,UNITED STATES,www.sullivanbuildinganddesigngroup.com
Sullivan Group Design LLC,"109 W 27th St , Fl 11",New York,NY,10001-6208,UNITED STATES,
Sult Architecture,"500 Uwharrie Ct , Ste E",Raleigh,NC,27606-1469,UNITED STATES,
Sulton Campbell Britt & Associates,526 Saint Paul St,Baltimore,MD,21202-2209,UNITED STATES,www.sultoncampbellbritt.com
SUMAC,3710 N Ravenswood Ave Ste 202,Chicago,IL,60613,UNITED STATES,www.sumacinc.com
"Sumida Anderson Anderson, LLC","758 Kapahulu Ave , # 420",Honolulu,HI,96816-1196,UNITED STATES,www.s2aa.com
"Summer/Wise & Associates, PC",1900 Century Blvd NE,Atlanta,GA,30345-3307,UNITED STATES,www.gta.org
"Summerour & Associates Architects, Inc.","349 Peachtree Hills Ave NE , Ste A5",Atlanta,GA,30305-4519,UNITED STATES,www.summerour.net
Summers & Associates Architects,1540 Russell St,Orangeburg,SC,29115-6001,UNITED STATES,
Summit Architectural Services,3205 Summit Square Pl,Lexington,KY,40509-2650,UNITED STATES,www.summit-engr.com
"Summit Architecture, PA",PO Box 2912,Highlands,NC,28741-2912,UNITED STATES,www.summitarchitecturepa.com
Summit Consulting & Architecture,"1081 Camino del Rio S , Ste 225",San Diego,CA,92108-3545,UNITED STATES,
Summit Design Group,PO Box 681302,Park City,UT,84068-1302,UNITED STATES,www.summitdesignarchitecture.com
Summit Engineering,131 Summit Dr,Pikeville,KY,41501-1580,UNITED STATES,www.summit-engr.com
Summit Studio,102 Roanoke St E,Blacksburg,VA,24060-3910,UNITED STATES,thesummitstudio.com
"Sun Plans, Inc.",5235 Todd Acres Dr.,Mobile,AL,36619,UNITED STATES,sunplans.com
Sundberg Design,614 2nd Ave SE,Cedar Rapids,IA,52401-1306,UNITED STATES,www.sundbergdesign-architect.com
Sundberg Kennedy Ly-Au Young Architects,"1501 E. Madison Street, Ste 205",Seattle,WA,98122,UNITED STATES,www.sklarchitects.com
"Sundeleaf Mackenzie Architecture, Inc.",PO Box 2966,Portland,OR,97208-2966,UNITED STATES,sundeleafmackenzie.com
Sunland Group Inc.,"1812 Centre Creek Dr , Ste 350",Austin,TX,78754-5188,UNITED STATES,www.sunlandgrp.com
Sunlit Architecture,PO BOX 970,Crested Butte,CO,81224-0970,UNITED STATES,sunlitarchitecture.com
Sunset Consultants,"24350 N Whispering Ridge Way , Unit 38",Scottsdale,AZ,85255-5732,UNITED STATES,
suoLL,6619 N Scottsdale Rd,Scottsdale,AZ,85250-4421,UNITED STATES,www.suoll.com
Suomi Design Works,"215 Park Avenue South
11th Floor",New York,NY,10003,UNITED STATES,www.suomidesignworks.com
"Supernormal, LLC","288 Norfolk St , Ste 4A",Cambridge,MA,02139-1430,UNITED STATES,www.supernormal.io
"Surber Barber Choate & Hertlein Arch., PC","675 Ponce de Leon Ave NE , Ste 4400",Atlanta,GA,30308-1857,UNITED STATES,www.sbcharch.com
Surber Barber Choate & Hertlein Architects,"675 Ponce de Leon Ave NE , Ste 4400",Atlanta,GA,30308-1857,UNITED STATES,www.sbcharch.com
Surber Barber Choate & Hertlein Archs,"1776 Peachtree St Nw, 700 South",Atlanta,GA,30309-2307,UNITED STATES,www.sbcharch.com
"Surround Architecture, Inc.","150 SW Harrison St , Ste 100",Portland,OR,97201-5392,UNITED STATES,www.surroundinc.com
"Surround Architecture, Inc.",900 Pearl Street | Suite 200,Boulder,CO,80302,UNITED STATES,www.surroundarchitecture.com
Susan Anders Architects,PO Box 8520,Fayetteville,AR,72703-0010,UNITED STATES,
"Susan Anders, Architect",1303 Bradburn Drive,Durham,NC,27713,UNITED STATES,
"Susan Bower, LLC",8 The Knolls Ln,Saint Louis,MO,63141-7726,UNITED STATES,
Susan Briere Shafer,214 Commonwealth Avenue # 2,Boston,MA,02116-2036,UNITED STATES,
"Susan E. Kary, AIA",PO Box 341056,Bethesda,MD,20827-1056,UNITED STATES,
"Susan E. Podufaly, AIA",143 Henry St,Brooklyn,NY,11201-2501,UNITED STATES,
Susan Herre Architecture + Urban Planning,"4396 Maryland Ave , # 3W",Saint Louis,MO,63108-4102,UNITED STATES,
Susan M. Rochelle Architect,252 Rick Rd,Milford,NJ,08848-2137,UNITED STATES,www.susanrochellearchitect.com
Susan McClymonds Architect,200 Robb Rd,Amsterdam,NY,12010-7040,UNITED STATES,
"Susan McFarland, AIA",8317 Young Ln,Austin,TX,78737-3140,UNITED STATES,www.mcfarland-architecture.com
Susan Oldroyd Architect,"645 Stockton St , Apt 1005",San Francisco,CA,94108-2353,UNITED STATES,www.susanoldroydarchitect.com
"Susan Phillips-Hungerford, Architect",PO Box 431,Peterborough,NH,03458-0431,UNITED STATES,
"Susan Spears, AIA",17 Hialeah Dr,Midland,TX,79705-1809,UNITED STATES,
Susan T. Rodriguez Architecture  Design PLLC,"555 W 25th St , Frnt 2",New York,NY,10001-5542,UNITED STATES,www.str-architecture.com
"Susana Honig, Architect",459 7th St,Brooklyn,NY,11215-3614,UNITED STATES,www.dubinconsulting.com
Susanka Studios,2600 Salisbury Pln,Raleigh,NC,27613-4331,UNITED STATES,www.susanka.com
Susanne Kortz Tejada Architect,2405 Calle Andalucia,Santa Barbara,CA,93109-1123,UNITED STATES,
