Firm Name,Address Line 1,City,State,Zip Code,Country,Firm URL
SFS Architecture,"2100 Central St , Ste 31",Kansas City,MO,64108-2173,UNITED STATES,www.sfsarch.com
SFS Architecture,"2100 Central St , Ste 31",Kansas City,MO,64108,UNITED STATES,www.sfsarch.com
SFV Design Inc.,140 Valley St,Sleepy Hollow,NY,10591-2727,UNITED STATES,
"SG Design, Inc.","3311 Elm St , Apt 105",Dallas,TX,75226-2526,UNITED STATES,www.sgdesign.biz
SGA,"54 W 21st Street, Suite 804",New York,NY,10010,UNITED STATES,www.sga-arch.com
SGA Architecture,"245 Business Center Dr , Ste B",Pawleys Island,SC,29585-6522,UNITED STATES,www.sgaarchitecture.com
SGA Architecture,"1535 Hobby St , Unit 204",North Charleston,SC,29405-1963,UNITED STATES,www.sgaarchitecture.com
"SGA Architecture, Inc.",PO Box 1859,Pawleys Island,SC,29585-1859,UNITED STATES,www.sgaarchitecture.com
SGA Design Group,1437 S Boulder Ave Ste 550,Tulsa,OK,74119-3643,UNITED STATES,www.scottgoble.com
"SGA Design Group, P.C.","105 NW 2nd St , Ste 307",Bentonville,AR,72712-4853,UNITED STATES,www.sgadesigngroup.com
"SGA Design Group, P.C.",1437 S Boulder Ave Ste 550,Tulsa,OK,74119-3643,UNITED STATES,www.sgadesigngroup.com
"SGA Design Group, PC",1437 S Boulder Ave Ste 550,Tulsa,OK,74119-3643,UNITED STATES,www.sgadesigngroup.com
SGA Narmour Wright Design,718-B S. Main Street,Greenville,SC,29601,UNITED STATES,www.sganwdesign.com
SGA | NarmourWright Design,"1815 S. Tryon St., Suite A",Charlotte,NC,28203,UNITED STATES,www.sganwdesign.com/
SGA |NarmourWright Design,"2459 Wilkinson Boulevard, Suite #120",Charlotte,NC,28208,UNITED STATES,www.sganwdesign.com
SGA|NarmourWright Design,"1815 S Tryon St , Ste A",Charlotte,NC,28203-3530,UNITED STATES,www.sganwdesign.com
"SGB Architects, LLC","1935 Airline Dr , Ste 200",Bossier City,LA,71112-2550,UNITED STATES,www.sgba.com
"SGDesign, Inc.","3311 Elm St , Apt 105",Dallas,TX,75226-2526,UNITED STATES,www.sgdesign.biz
SGH Architects,707 Brookside Avenue,Redlands,CA,92373-5101,UNITED STATES,www.sgharch.com
"SGN & A, Inc.","315 W Ponce de Leon Ave , Ste 755",Decatur,GA,30030-2497,UNITED STATES,www.sgnplusa.com
SGPA Architecture and Planning,200 Pine St Ste 500,San Francisco,CA,94104-2704,UNITED STATES,www.sgpa.com
Sguera Architecture PLLC,505 Eigth ave suite 2202,New York,NY,10018,UNITED STATES,
SH-6 architecture + design,2126 Columbine Ave,Boulder,CO,80302-7923,UNITED STATES,
"Shaeffer & Madama, Inc.",57 14th St,Wheeling,WV,26003-3426,UNITED STATES,www.shaeffer-madama.com
Shafer Zahner Zahner,510 University Dr,Starkville,MS,39759-3274,UNITED STATES,www.szzarch.com
Shafer Zahner Zahner,510 University Dr,Starkville,MS,39759-3274,UNITED STATES,www.szzarch.com
"Shaffer, Coath & Potter Architects Limited",119 North Ave,Barrington,IL,60010-3246,UNITED STATES,
"Shaffer, Wilson, Sarver & Gray, P.C.","555 Herndon Pkwy , Ste 260",Herndon,VA,20170-5262,UNITED STATES,www.swsgpc.com
Shah Architecture,PO BOX 10226,Savannah,GA,31412-0426,UNITED STATES,www.shaharchitecture.com
Shah Architecture & Interiors,2217 Bull Street,Savannah,GA,31401,UNITED STATES,www.shaharchitecture.com
"Shah Kawasaki Architects, Inc","1111 Broadway , Ste 1650",Oakland,CA,94607-4036,UNITED STATES,www.skarc.com
Shakil Patel and Associates,25982 Hinckley St,Loma Linda,CA,92354-3948,UNITED STATES,
Shalom Baranes Associates,1010 Wisconsin Ave Nw Ste 900,Washington,DC,20007-3673,UNITED STATES,www.sbaranes.com
"Shalom Baranes, PC","1010 Wisconsin Ave NW , Ste 900",Washington,DC,20007-3673,UNITED STATES,www.sbaranes.com
Shamburger Architectural Group,421 5th Ave W,Hendersonville,NC,28739-4201,UNITED STATES,shamburgerarchitecture.com
Shane Kitchens AIA Architect,PO Box 1446,Kailua Kona,HI,96745,UNITED STATES,www.shanekitchensarchitect.com
SHANGHAI ARCHI-UNION ARCHITECTURAL DESIGN CO. LTD,"Building 36-38, 1436 JUNGONGROAD, YANGPU DISTRICT",SHANGHAI,,200433,CHINA,www.archi-union.com
Shanks Architects,"901 Main Street, Suite 6250",Dallas,TX,75202,UNITED STATES,www.shanksarchitects.com
Shapeless Studio,100 Moffat St,Brooklyn,NY,11207-1421,UNITED STATES,www.shapelessstudio.com
Shapeless Studio Architecture,703 Putnam Ave,Brooklyn,NY,11221-1615,UNITED STATES,www.shapelessstudio.com
Shapiro & Company Architects Inc,"435 Madison Avenue, Suite 200 Memphis,",Memphis,TN,38103,UNITED STATES,shapiroandco.com
"Shapiro & Company Architects, P.C.","4646 Poplar Avenue, Suite 517",Memphis,TN,38117,UNITED STATES,www.shapiroandco.com
Shapiro Associates,1021 W Adams St Ste 400,Chicago,IL,60607-2934,UNITED STATES,www.shapiroassoc.com
Shapiro Associates Ltd.,"1021 W Adams St , Ste 400",Chicago,IL,60607-2938,UNITED STATES,www.shapiroandco.com
"Sharon Washburn, Architect, PC",5410 Huntington Pkwy,Bethesda,MD,20814-1370,UNITED STATES,www.sharonwashburnarchitect.com
"Sharp Architecture, Inc.","9801 Westheimer Rd , Ste 302",Houston,TX,77042-3955,UNITED STATES,www.sharp-architecture.com
"Shatkin Architecture, LLC",2266 Sw 43Rd Pl,Gainesville,FL,32608-4037,UNITED STATES,www.shatkin.net
"Shaw & Shanks Architects, P.C.",205 E Unaka Ave,Johnson City,TN,37601-4625,UNITED STATES,www.shawandshanksarchitects.com
"Shaw Architecture Planning, Inc.","2460 Garden Rd , # E",Monterey,CA,93940-5398,UNITED STATES,
"Shaw Architecture, LLC",1061 Bishops Lodge Rd,Santa Fe,NM,87501-1061,UNITED STATES,www.shawsf.com
