Firm Name,Address Line 1,City,State,Zip Code,Country,Firm URL
GH2 Architects,"1201 South Alma School Road, Suite #16100",Mesa,AZ,85210,UNITED STATES,www.gh2.com
GH2 Architects,"320 S Boston Ave Ste 100, Gh2 Architects",Tulsa,OK,74103-3714,UNITED STATES,www.gh2.com
"GH2 Architects, LLC",320 S Boston Ave Ste 100,Tulsa,OK,74103-3714,UNITED STATES,www.gh2.com/
"GH2 Architects, LLC","320 S Boston Ave , Ste 1600",Tulsa,OK,74103-4705,UNITED STATES,www.gh2.com
GHA Architects,14901 Quorum Dr Ste 300,Dallas,TX,75254-6735,UNITED STATES,www.gha-architects.com
Ghafari Associates,"89 Monroe Center St NW , Ste 400",Grand Rapids,MI,49503-2900,UNITED STATES,www.ghafari.com
Ghafari Associates LLC,17101 Michigan Ave,Dearborn,MI,48126-2736,UNITED STATES,www.ghafari.com
"Ghafari Associates, LLC","122 S Michigan Ave , Ste 1500",Chicago,IL,60603,UNITED STATES,www.ghafari.com
"Ghafari Associates, LLC",17101 Michigan Ave,Dearborn,MI,48126-2736,UNITED STATES,www.ghafari.com
GHB Architect,5124 White Hills Dr,Fort Worth,TX,76137-3933,UNITED STATES,
GHDWOODHEAD,"Level 7, 16 Marcus Clarke Street",Canberra ACT,,2601,AUSTRALIA,ghdwoodhead.com
Ghidorzi Companies,"2100 Stewart Ave , Ste 300",Wausau,WI,54401-1707,UNITED STATES,www.ghidorzi.com
GHL Inc.,228 E Badillo St,Covina,CA,91723-2115,UNITED STATES,www.ghl-ae.com
GHLA,3010 E Airfield Rd,DFW,TX,75261,UNITED STATES,www.ghla-inc.com
GHP Architectural + Environmental,217 5th Ave N,Nashville,TN,37219-1901,UNITED STATES,www.ghp1.com
GHp Environmental + Architecture,217 5th Ave N,Nashville,TN,37219-1901,UNITED STATES,www.ghp1.com
"Giacomelli Architecture, Inc.","224 Datura St , Ste 1108",West Palm Beach,FL,33401-5611,UNITED STATES,giacomelli-architect.com
Gianforcaro Architects & Engineers,555 Main St,Chester,NJ,07930-2627,UNITED STATES,www.gianforcaroaep.com
Giattina Aycock Architecture Studio Inc.,"2625 5th Ave N Bldg C, 2625 5th Ave N.,Bldg C",Bessemer,AL,35020-4169,UNITED STATES,www.gastudio.com
"Gibbons Architecture, PA",5490 Heritage Oaks Ln,Winston Salem,NC,27106-9558,UNITED STATES,www.gibbonsarchitecture.com
"Gibbons, Fortman & Associates","900 N Franklin St , Ste 612",Chicago,IL,60610-8103,UNITED STATES,www.gibbonsfortman.com
Gibbs Architects,3575 Long Beach Blvd,Long Beach,CA,90807,UNITED STATES,www.gibbs1934.com
"Gibraltar Design, Inc.","9102 N Meridian St , Ste 300",Indianapolis,IN,46260-1809,UNITED STATES,www.gibraltardesign.com
"Gibson, Mancini, Carmichael & Nelson, P.A.",115 E Laurel St,Garden City,KS,67846-5421,UNITED STATES,www.gmcnarchitects.com
Gienapp Architects,20 Conant St Ste 2,Danvers,MA,01923-2953,UNITED STATES,www.gienapparchitects.com
"Gies Architects, Inc.",PO Box 5824,Eagle,CO,81631-5824,UNITED STATES,www.giesarchitects.com
"Gieseke Rosenthal Architecture & Design, LLC","2631 Erie Ave , Ste 25",Cincinnati,OH,45208-2022,UNITED STATES,www.grad.cc
Gignac & Associates,416 Starr St,Corpus Christi,TX,78401-2343,UNITED STATES,www.gignacarchitects.com
"Gil L. Stewart Architect, LLC",212 Fairway Dr,Pickens,SC,29671-9445,UNITED STATES,www.glsarchitects.com
"Gil Sanchez, FAIA",3022 Glen Canyon Rd,Santa Cruz,CA,95066,UNITED STATES,www.sanchezarchitect.com
Gilbert Architects,626 N Charlotte St,Lancaster,PA,17603-2935,UNITED STATES,www.gilbertarchitects.com
"Gilbert Labrie, AIA, Architect",PO Box 183,Walnut Grove,CA,95690-0183,UNITED STATES,
"Gilbert | McLaughlin | Casella Architects, PLC","2305 Kline Ave , Ste 200",Nashville,TN,37211-2258,UNITED STATES,www.gilmc.com
"Gilchrist Ross Crowe Architects, PA",413 All Saints St,Tallahassee,FL,32301-2263,UNITED STATES,www.grc-architects.com
"Gill & Gill Architects, LLC","17 High St , Ste 301",Norwalk,CT,06851-4723,UNITED STATES,www.gillandgill.com
"Gilleland & Associates, Inc.",3005 Flagstone Dr,Franklin,TN,37069-7229,UNITED STATES,
"Giller & Giller, Inc.","975 Arthur Godfrey Rd , Ste 401",Miami Beach,FL,33140-3343,UNITED STATES,www.gillerandgiller.com
Gilley Design Associates Architects,131 Summer St,Bristol,CT,06010-5014,UNITED STATES,
Gilliam Architects,15017 Archwood St,Van Nuys,CA,91405-4504,UNITED STATES,
"Gilliland and Associates, Inc.","301 S Buncombe Rd , Ste C",Greer,SC,29650-1208,UNITED STATES,www.gilliland-associates.com
GILLILAND ARCHITECTS,"811 N Catalina Ave , Ste 1108",Redondo Beach,CA,90277-2187,UNITED STATES,www.gillilandarchitects.com
"Gillis + Panichapan Architects, Inc","1101 Quail Street,",Newport Beach,CA,92660,UNITED STATES,www.gparchitects.org
Gillis Architects PC,"345 7th Ave , Fl 25",New York,NY,10001-5027,UNITED STATES,www.gillisarch.com
"Gillum Architects, P.C.",PO Box 830,Orange,VA,22960-0492,UNITED STATES,www.gillumarchitects.com
"Gilman Hu Architect, AIA/FCSI",211 Atherton Road,Honolulu,HI,96822,UNITED STATES,
Gilpin Design,556 S Gilpin St,Denver,CO,80209-4510,UNITED STATES,
Gilsanz Murray Steficek,"129 W 27th St , Fl 5",New York,NY,10001-6206,UNITED STATES,www.gmsllp.com
"Ginnerty Architects, LLC",1716 Chesterbrook Vale Ct,Mc Lean,VA,22101-3244,UNITED STATES,
Gino O Longo Architect,12920 20Th Ave,College Point,NY,11356-2404,UNITED STATES,www.ginolongo.com
Gins Architecture,2026 Swansford Dr,Dublin,OH,43016-9559,UNITED STATES,www.ginsarchitectureco.com
