Firm Name,Address Line 1,City,State,Zip Code,Country,Firm URL
"Asher Associates Architects, LLC",115 West Ave Ste 202,Jenkintown,PA,19046-2031,UNITED STATES,www.asherarchitects.com
Asher Slaunwhite Architects,"115 West Ave , Ste 305",Jenkintown,PA,19046-2031,UNITED STATES,www.asherarchitects.com
Ashley McGraw Architects,"125 E Jefferson St , Fl 15",Syracuse,NY,13202-2020,UNITED STATES,www.ashleymcgraw.com
Ashley McGraw Architects,1140 3rd Street Northeast,Washington,DC,20002,UNITED STATES,ashleymcgraw.com
Ashley McGraw Architects | Vaysen Studio,125 E Jefferson St Fl 15,Syracuse,NY,13202-2020,UNITED STATES,www.ashleymcgraw.com
Ashley Zaworska Architecture,4603 15th Ave S,Seattle,WA,98108-1853,UNITED STATES,
"Ashok L. Sabnis, AIA, Architect",17 Starhaven Ave,Middletown,NY,10940-4617,UNITED STATES,www.middletownmedical.com
"Ashokan Architecture & Planning, PLLC","15 Railroad Ave , Ste 101",Kingston,NY,12401-3944,UNITED STATES,www.ashokanarchitecture.com
Asian Neighborhood Design,1245 Howard St,San Francisco,CA,94103-2711,UNITED STATES,www.andnet.org
ASK Studio,3716 Ingersoll Ave Ste A,Des Moines,IA,50312-3440,UNITED STATES,www.askstudio.com
ASK Studio,3716 Ingersoll Ave Ste A,Des Moines,IA,50312-3440,UNITED STATES,www.askstudio.com
ASM Architects Inc,17000 Preston Rd # 332,Dallas,TX,75248-1224,UNITED STATES,www.asm-architects.com
Aspect Architecture:Design,"221 2nd Ave SE , Ste 400",Cedar Rapids,IA,52401-1232,UNITED STATES,www.aspectinc.net
Aspen Engineering Construction Mgmt Inc,20934 Bandera St,Woodland Hills,CA,91364-4503,UNITED STATES,www.aspenengineering.com
Aspen Group,"101 2nd St , Ste 202",Holly Hill,FL,32117-4903,UNITED STATES,aspengroup.com
Aspen Group,9645 Lincolnway Ln Ste 201,Frankfort,IL,60423-1884,UNITED STATES,www.aspengroup.com
Aspen Ridge Architects,139 Aspen Ridge Rd,Kalispell,MT,59901-6967,UNITED STATES,
"Aspen Street Architects, Inc",PO Box 370,Angels Camp,CA,95222-0370,UNITED STATES,www.aspenstreetarchitects.com
Asral Architects,17 Northern Ave,Florham Park,NJ,07932-2512,UNITED STATES,
"ASSANYC, P.C.","412 W 110th St , Apt 4",New York,NY,10025-2404,UNITED STATES,www.assanyc.com
Assarsson Architects,1543 Foxhall Rd NW,Washington,DC,20007-2067,UNITED STATES,greeninq.com
Assemblage Architects,7427 Elmwood Ave,Middleton,WI,53562-3105,UNITED STATES,www.assemblagearchitects.com
assemblageSTUDIO,817 S Main St Ste 200,Las Vegas,NV,89101-6429,UNITED STATES,www.assemblagestudio.com
Assembledge+,"6255 W Sunset Blvd , Ste 920",Los Angeles,CA,90028-7410,UNITED STATES,www.assembledge.com
ASSIST Inc,218 E 500 S,Salt Lake City,UT,84111-3204,UNITED STATES,www.assistutah.org
Associated Design & Engineering,"66 E Escalon Ave , Ste 107",Fresno,CA,93710-5137,UNITED STATES,www.adeinc.biz
Associated Design Group Incorporation,PO Box 1785,Springfield,MO,65801-1785,UNITED STATES,
"Associated Space Design, Inc.",55 Ivan Allen Jr Blvd Nw Ste 100,Atlanta,GA,30308-3054,UNITED STATES,www.asdsky.com
Astrotecture,"4260 Terman Dr , Apt 104",Palo Alto,CA,94306-3864,UNITED STATES,www.astrotecture.com
"AT Architecture, Inc.","848 Main St , Ste 7",Billings,MT,59105-3362,UNITED STATES,www.atarchitecture.com
At-Six Architecture,PO Box 591477,San Francisco,CA,94159-1477,UNITED STATES,www.at-six.com
ATA,8924 Lindblade St,Culver City,CA,90232-2439,UNITED STATES,www.abramsonteiger.com
ATA Architects LLC,323 E 14th Ave,North Kansas City,MO,64116-3905,UNITED STATES,www.ataarch.com
"ATA Architecture, LLC",1613 Saddle Rock Cir,Las Vegas,NV,89117-6685,UNITED STATES,www.ataarchitecture.com
ATA Beilharz Architects,1063 Central Ave,Cincinnati,OH,45202-1058,UNITED STATES,www.ata-b.com
"ATA Beilharz Architects, LLC",2 Garfield Pl,Cincinnati,OH,45202-4303,UNITED STATES,www.ata-b.com
"Atelier 11, Ltd.",1 E Dover St,Easton,MD,21601-3012,UNITED STATES,www.atelier11architecture.com
Atelier 424,"1575 Treat Blvd , Ste 101",Walnut Creek,CA,94598,UNITED STATES,www.atelier424.com
Atelier 8,11427 Bedfordshire Ave,Potomac,MD,20854-2009,UNITED STATES,
Atelier Addison,470 Malcolm X Blvd Ste 15M,New York,NY,10037-3003,UNITED STATES,
"Atelier AEC, Inc.","502 E Ross Ave , Ste A",Tampa,FL,33602-2403,UNITED STATES,www.atelieraec.com
Atelier Architects,3019 Stoner's Ford Way,Frederick,MD,21701,UNITED STATES,www.atelierarchitects.com
Atelier Capital Partners (HK) Limited,"20th Floor, Hang Seng Mongkok Building",Kowloon,,,CHINA,
Atelier Cho Thompson,938 State Street,New Haven,CT,06511,UNITED STATES,
"Atelier CS, corp",14037 Cherry Ave,Flushing,NY,11355-7818,UNITED STATES,
Atelier d'Architecture,645 Beachland Blvd Ste 5,Vero Beach,FL,32963-1725,UNITED STATES,www.atelierdarch.com
atelier d'architecture Brodbeck-Roulet,"19 rue du Pont Neuf, cp 1751",Carouge,,1227,SWITZERLAND,www.brodbeck-roulet.com
Atelier Darling-Wolf Architecture + Design,412 W Durham St,Philadelphia,PA,19119-2910,UNITED STATES,johndarlingwolf.carbonmade.com
Atelier MjK,"1624 Corcoran St NW , Unit D",Washington,DC,20009-3031,UNITED STATES,atelier-mjk.com
Atelier New York Architecture,2134 44th Rd,Long Island City,NY,11101-5011,UNITED STATES,www.atelierny.com
