Firm Name,Address Line 1,City,State,Zip Code,Country,Firm URL
ITZEN,"1800 N Bristol St , # C418",Santa Ana,CA,92706-3336,UNITED STATES,www.itzen.com
ITZEN,"3843 S Bristol St , # 158",Santa Ana,CA,92704-7426,UNITED STATES,www.itzen.com
ITZEN Architects,"1800 N Bristol St , # C-418",Santa Ana,CA,92706-3336,UNITED STATES,www.itzen.com
"Iu + Bibliowicz Architects, LLP",156 W 13th St,New York,NY,10011-7802,UNITED STATES,www.ibarchitects.com/
Ivan Brice Architecture,511 Canal St,New York,NY,10013-1301,UNITED STATES,www.ivanbrice.com
Ivan Brice Architecture,511 Canal St Rm 302,New York,NY,10013-1301,UNITED STATES,www.ivanbrice.com
"Ivan E. Johnson, III, AIA",525 E Call St,Tallahassee,FL,32301-2508,UNITED STATES,www.jparchitects.com
Ivary and Associates Architects,551 NE 65th St,Seattle,WA,98115-6475,UNITED STATES,
"iVin NY, Inc.","2074 Wallace Ave , Apt 407",Bronx,NY,10462,UNITED STATES,
"Ivonne L. Ibarra, Architect",108 W 39th St,New York,NY,10018-3614,UNITED STATES,
Ivy Architectural Innovations,"207 Business Park Dr , Ste 200",Virginia Beach,VA,23462-6536,UNITED STATES,www.ivyarchpc.com
Ivy Group Consultants,"2950 5th Ave. N., Ste 200",St. Petersburg,FL,33713,UNITED STATES,www.ivygroupconsultants.com
"Ivy Group Consultants, Inc.",3950 3rd St N,St Petersburg,FL,33703-6123,UNITED STATES,www.ivygroupconsultants.com
IwamotoScott Architecture,729 Tennessee St,San Francisco,CA,94107-3031,UNITED STATES,www.iwamotoscott.com
IZ Design Studio,"7229 W Sahara Ave , Ste 120",Las Vegas,NV,89117-2860,UNITED STATES,www.izdesignstudio.com
"Izor and Associates, Inc.",2048 Aldergrove Ave. Suite A,Escondido,CA,92029,UNITED STATES,www.izoraccess.com
J A Buchek AIA Architect LLC,8 Bishop Rd,West Hartford,CT,06119-1535,UNITED STATES,www.jabaia.com
J E Amaral Arquitecto Assoc.,578 Calle Maximo Gomez,San Juan,PR,00918-4328,UNITED STATES,
J Jen Group PC,901 E Maple St,Mount Pleasant,MI,48858-2830,UNITED STATES,
"J K Janiga Architects, Inc.",204 Chestnut Street,Lewisburg,WV,24901,UNITED STATES,www.jkjaniga.com
J Linnert  architecture,1980 Continental Ave,Costa Mesa,CA,92627-4126,UNITED STATES,www.facebook.com/jlinnertarchitecture
J Martinolich Architect,838 E High St Ste 199,Lexington,KY,40502-2107,UNITED STATES,www.jmmarchitecture.com
"J R Coleman Davis-Pagan, AIA",63 Calle Santa Cecilia,San Juan,PR,00911-1714,UNITED STATES,www.davisarquitectos.com
J R Keller LLC,2325 Locust St,Philadelphia,PA,19103-5512,UNITED STATES,www.jrkeller.com
J Randolph Parry Architects PC,613 Main St,Riverton,NJ,08077,UNITED STATES,www.jrparchitects.com
"J Reeser Architect, LLC","PO BOX 599, 117 W Georgia St",Gunnison,CO,81230-0599,UNITED STATES,www.jreeserarchitect.com
"J S Dugger, AIA & Associates",25 Beach Rd,Gloucester,MA,01930-3246,UNITED STATES,jsdaia.com
"J Thomas Stratford, Architect",475 Mayfair Ln,Buffalo Grove,IL,60089-3467,UNITED STATES,
"J W Smith, Architects",1073 Lakepointe St,Grosse Pointe Park,MI,48230-1317,UNITED STATES,
J Wilson Fuqua & Assoc.,3402 McFarlin Blvd,Dallas,TX,75205-1885,UNITED STATES,www.wilsonfuqua.com
"J-Cubed, LLC",47-198B Hui Akepa Place,Kaneohe,HI,96744,UNITED STATES,
J-Gaviria Arquitectos,"Calle Monte Rosa, Suite 208 - D",Santiago De Surco,,Lima 33,PERU,
J. A. L. Architects,1924 E Millcreek Way,Salt Lake City,UT,84106-3831,UNITED STATES,
"J. B. Jones, Architect",PO Box 10389,Tamuning,GU,96931-0389,UNITED STATES,
J. Barry Moffitt Architect,5723 N Invergordon Rd,Paradise Valley,AZ,85253-5263,UNITED STATES,
J. Blaise Calderia,PO Box 5203,Hilo,HI,96720-8203,UNITED STATES,
J. Bohn Associates,"204 Yale Ave , Ste A",Claremont,CA,91711-4771,UNITED STATES,www.jbohn.com
"J. Bradley Moore & Associates Architects, Inc.","2232 S Main St , Ste 406",Ann Arbor,MI,48103-6938,UNITED STATES,www.jbradleymoore.com
"J. Bryant Boyd, Architect",902 Forest St,Georgetown,TX,78626-5524,UNITED STATES,www.jbryantboyd.com
J. Calvin Homcombe Architect,1906 N Hamilton St,Richmond,VA,23230-4113,UNITED STATES,
J. Carter Bean Architect,"4400 N High St , Ste 401",Columbus,OH,43214-2635,UNITED STATES,
"J. Cassorla Architect, LLC","309 W 100th St , Apt 3",New York,NY,10025-5375,UNITED STATES,
J. Christopher Architecture,500 E Whitestone Blvd Unit 2647,Cedar Park,TX,78630-4408,UNITED STATES,www.jschrisopherarchitecture.com
J. Dan Snead Associates Inc.,101 N Kanawha St Ste 203,Beckley,WV,25801-4733,UNITED STATES,www.mmcopyservice.com
J. E. MacLeamy Architect,95 Alameda del Prado,Novato,CA,94949-6643,UNITED STATES,www.jeannemacleamy.com
"J. E. Schram Architect, LLC",5 Saint Dunstans Garth,Baltimore,MD,21212-3515,UNITED STATES,www.jeschram.com
J. F. Gayton III & Associates,PO Box 244,Norvelt,PA,15674-0244,UNITED STATES,
"J. Fetzer, LLC",PO BOX 12076,San Antonio,TX,78212-0076,UNITED STATES,
J. Fletcher Biggar Architects,207 Washington Ct,Trappe,PA,19426-2237,UNITED STATES,www.jfbarchitects.com
J. Glenn Gregory & Associates,1807 N Patterson St,Valdosta,GA,31602-2989,UNITED STATES,www.gregory-architects.com
