Firm Name,Address Line 1,City,State,Zip Code,Country,Firm URL
Monty Mitchell Architect,2127 45th Ave,Long Island City,NY,11101-4796,UNITED STATES,montymitchell.com
Moody Nolan,209 S La Salle St Ste 820,Chicago,IL,60604-1214,UNITED STATES,www.moodynolan.com
Moody Nolan,5001 Spring Valley RD,Dallas,TX,75244-3946,UNITED STATES,www.moodynolan.com
Moody Nolan,"500 Fashion Ave , Ste 14B",New York,NY,10018-4502,UNITED STATES,www.moodynolan.com
Moody Nolan,"1201 West Peachtree Street, Suite 750",Atlanta,GA,30309,UNITED STATES,www.routematch.com
Moody Nolan,"500 7th Avenue, Suite #14B 123",New York,NY,10018,UNITED STATES,www.moodynolan.com
"Moody Nolan, Inc.","1625 Broadway , Fl 4",Nashville,TN,37203-3138,UNITED STATES,www.moodynolan.com
"Moody Nolan, Inc.",300 Spruce ST Ste 300,Columbus,OH,43215-1175,UNITED STATES,www.moodynolan.com
Moody-Nolan inc,300 Spruce St,Columbus,OH,43215-1174,UNITED STATES,www.moodynolan.com
Moody-Nolan Inc.,4415 Euclid Ave,Cleveland,OH,44103-3759,UNITED STATES,www.moodynolan.com
MoodyNolan,"300 Spruce Street, #300",Columbus,OH,43210,UNITED STATES,www.moodynolan.com
"Moon Mayoras Architects, Inc.","3465 Camino del Rio S , Ste 220",San Diego,CA,92108-3904,UNITED STATES,www.moonmayoras.com
"Moonlight Architecture, Inc.",29003 Lewes Georgetown Hwy,Lewes,DE,19958-3909,UNITED STATES,www.moonlightarch.com
Moontower,828 airport,Austin,TX,78702,UNITED STATES,HTTPS://Www.moontoweraustin.com
"Moor, Baker & Associates Architects PA",2928 Cardinal Dr,Vero Beach,FL,32963-1971,UNITED STATES,www.moorarch.com
Moore 2 Design,706 Riverside Dr,Palmetto,FL,34221-5156,UNITED STATES,www.moore2design.com
"Moore Architects, P.C.","105 N Maple Ave , Ste 100",Falls Church,VA,22046-4317,UNITED STATES,www.moorearch.com
"Moore Architecture & Design, LLC","2327 SW Market Street Dr , Apt B",Portland,OR,97201-2495,UNITED STATES,www.moorearchdesign.com
Moore Ruble Yudell,933 Pico Blvd,Santa Monica,CA,90405-1326,UNITED STATES,moorerubleyudell.com
"Moosavi Design Group Architects, Inc.",14300 N Northsight Blvd Ste 113,Scottsdale,AZ,85260-3674,UNITED STATES,www.moosavidesign.com
Moran Hook Architecture PLLC,"37 W 39th St , Rm 1001",New York,NY,10018-3893,UNITED STATES,www.moranhook.com
Morehouse MacDonald & Associates,441 MAIN ST STE 200,Melrose,MA,02176,UNITED STATES,www.morehousemacdonald.com
"Morelan Associates, Inc.","1101 S Winchester Blvd , Ste G181",San Jose,CA,95128-3903,UNITED STATES,www.billy.com
"Morgan Design Group LLC, Architects",11207 Fremont Ave N,Seattle,WA,98133-8230,UNITED STATES,www.morgan-design.net
"Morgan Griffin Design, PLLC",131 Great Falls St Ste 200,Falls Church,VA,22046-3446,UNITED STATES,www.morgangick.com
Morgan Hill Sutton & Mitchell Architects,"415 S 1st St , Ste 120",Lufkin,TX,75901-3801,UNITED STATES,
Morgan Spear Associates Inc,225 S Carancahua St,Corpus Christi,TX,78401-3033,UNITED STATES,www.msa-architect.com
"Morgante-Wilson Architects, Ltd.",2834 Central St,Evanston,IL,60201-1222,UNITED STATES,www.morgantewilson.com
Morimoto Matano Kang Architects,1204 10th St,Berkeley,CA,94710-1509,UNITED STATES,www.mmkarch.com
Mork Ulnes Architects,602 Minnesota St,San Francisco,CA,94107-3027,UNITED STATES,www.morkulnes.com
"Morkovsky + Associates, Inc.",10010 San Pedro Ave Ste 600,San Antonio,TX,78216-3899,UNITED STATES,www.morkovskyaia.com
Morley's,4800 Rosebud Ln,Newburgh,IN,47630-9351,UNITED STATES,www.morleyandassociates.com
Morning Star Studio,"600 3rd St. SE, Studio 201",Cedar Rapids,IA,52401,UNITED STATES,www.morning-starstudio.com
Morphosis Architects,3440 Wesley St,Culver City,CA,90232-2328,UNITED STATES,www.morphosis.net
"Morphosis Architects, Inc.","153 W 27th St , Ste 1200",New York,NY,10001-6250,UNITED STATES,www.morphopedia.com
"MORRIS & RITCHIE ASSOCIATES, INC.",1414 Key Hwy #201p,baltimore,MD,21230,UNITED STATES,www.mragta.com
"Morris & Ritchie Associates, Inc.",1220C E Joppa Rd,Towson,MD,21286-5814,UNITED STATES,www.mragta.com
Morris Adjmi Architects,1033 Jackson Ave. Suite 201,New Orleans,LA,70130,UNITED STATES,www.ma.com
Morris Adjmi Architects,1033 Jackson Avebue Suite 201,New Orlean,LA,70130,UNITED STATES,www.ma.com
Morris Architects,"1717 McKinney Ave , Ste 1400",Dallas,TX,75202-1239,UNITED STATES,
"Morris Architects, A Huitt-Zollars Company","111 N Magnolia Ave , Ste 1600",Orlando,FL,32801-2367,UNITED STATES,www.morris-hz.com
"Morris Architects, Inc.","1001 Fannin St , Ste 4040",Houston,TX,77002-6721,UNITED STATES,
"Morris Architects, Inc. PS",8 Boston St Ste 6,Seattle,WA,98109-2362,UNITED STATES,www.morrisarchitects.com
Morris Architects/Planners,944 W Huron St,Chicago,IL,60642-5914,UNITED STATES,www.morrisap.com
Morris Berg Architects,"1018 Jay Street
Suite 130",Charlotte,NC,28208,UNITED STATES,www.morrisberg.com
Morris M. Skenderian & Associates,"1590 S Coast HWY, Ste. 8",Laguna Beach,CA,92651,UNITED STATES,www.msaarchitects.com
Morris Switzer Enviornments for Health,183 Middle St,Portland,ME,04101-4064,UNITED STATES,www.morrisswitzer.com
Morris Workshop Architects,4404 Simpson Ln,Richmond,KY,40475-7945,UNITED STATES,www.morrisworkshop.com
Morris Workshop Architects pllc,151 N Eagle Creek Dr Ste 105,Lexington,KY,40509,UNITED STATES,www.morrisworkshop.com/
"Morris-Berg Architects, Inc.","1401 W Morehead St , Ste 125",Charlotte,NC,28208-5600,UNITED STATES,www.morrisberg.com
