Firm Name,Address Line 1,City,State,Zip Code,Country,Firm URL
Perkins Eastman,"1045 Huai Hai Middle Road, Suite 3803",Shanghai,,200031,CHINA,www.perkinseastman.com
Perkins Eastman,115 Fifth Avenue,New York,NY,10003,UNITED STATES,www.perkinseastman.com
Perkins Eastman,"100 Montgomery Street, Suite 2300",San Francisco,CA,94104,UNITED STATES,www.perkinseastman.com
Perkins Eastman,"115 5th Avenue, Third Floor",New York,NY,10014,UNITED STATES,www.perkinseastman.com/
Perkins Eastman,1 Thomas Cir NW #200,"Washington, DC",DC,20005,UNITED STATES,www.perkinseastman-dc.com
Perkins Eastman,"Av. Rodriguez Chavez Gonzalez, Parque Empresarial Colon, Edif. , Coloncorp Mezz 1",Guayaquil,,,ECUADOR,www.perkinseastman.com
Perkins Eastman,"One Thomas Circle, NW, Ste 200",Washington,DC,20005,UNITED STATES,www.perkinseastman.com
Perkins Eastman,115 5th Ave,New York,NY,10003-1004,UNITED STATES,www.perkinseastman.com
Perkins Eastman,"115 5th Ave, 3rd floor",New York,NY,10003,UNITED STATES,www.perkinseastman.com
Perkins Eastman,"1 thomas circle nw, ste 270, ste 270, ste 270",Washington,DC,20005,UNITED STATES,www.perkinseastman-dc.com
Perkins Eastman,115 5Th Ave,New York,NY,10003-1004,UNITED STATES,www.perkinseastman.com
Perkins Eastman,"50 Franklin St , Fl 203",Boston,MA,02110-1352,UNITED STATES,www.perkinseastman.com
Perkins Eastman,677 Washington Blvd Ste 101,Stamford,CT,06901-3707,UNITED STATES,www.perkinseastman.com/
Perkins Eastman,209 S LA Salle ST Ste 400,Chicago,IL,60604,UNITED STATES,www.perkinseastman.com
Perkins Eastman Architects,"100 Montgomery St , Ste 2300",San Francisco,CA,94104-4355,UNITED STATES,www.perkinseastman.com
Perkins Eastman Architects,"1045 Huaihai Middle Road, Suite 3803",Shanghai,,200031,CHINA,www.perkinseastman.com
Perkins Eastman Architects,"115 Fifth Avenue, 3rd Floor",New York,NY,10003,UNITED STATES,www.perkinseastman.com
Perkins Eastman Architects,1100 Liberty Ave,Pittsburgh,PA,15222-4240,UNITED STATES,www.perkinseastman.com
Perkins Eastman Architects,"5510 Lincoln Blvd , Ste 250",Los Angeles,CA,90094-3008,UNITED STATES,www.perkinseastman.com
Perkins Eastman Architects,520 W 6th St,Charlotte,NC,28202-1893,UNITED STATES,www.perkinseastman.com
Perkins Eastman Architects,"677 Washington Blvd , Ste 101",Stamford,CT,06901-3707,UNITED STATES,www.perkinseastman.com
Perkins Eastman Architects DPC,"115 Fifth Avenue, 3rd Flr",New York,NY,10001,UNITED STATES,www.perkinseastman.com
Perkins Eastman Architects DPC,115 5Th Ave Fl 3,New York,NY,10003-1004,UNITED STATES,www.perkinseastman.com
Perkins Eastman DC,"One Thomas Circle NW, Suite 270",Washington,DC,20001,UNITED STATES,www.perkinseastman-dc.com
PERKINS EASTMAN | Dougherty,"1904 Franklin St , Ste 909",Oakland,CA,94612-2923,UNITED STATES,www.dougherty.us
Perkins Eastman | LBL,5510 Lincoln Blvd Ste 250,Los Angeles,CA,90094-3008,UNITED STATES,www.perkinseastman.com/
PERKINS EASTMAN |Dougherty,3194 Airport Loop Dr Ste D,Costa Mesa,CA,92626,UNITED STATES,www.perkinseastman.com
"Perkins VonDeylen and Associates, PC",410 S College Ave,Indianapolis,IN,46203-1285,UNITED STATES,www.blacklinestudio.net
Perkins Will,"225 Franklin St, 
Ste 1100",Boston,MA,02110,UNITED STATES,www.perkinswill.com
Perkins&Will,1315 Peachtree Street NE,Atlanta,GA,30309,UNITED STATES,www.perkinswill.com
Perkins&Will,617 W 7Th St Ste 1200,Los Angeles,CA,90017-3830,UNITED STATES,www.perkinswill.com
Perkins&Will,"80 South 8th Street, Suite 300",Minneapolis,MN,55402,UNITED STATES,www.perkinswill.com
Perkins&Will,"617 W 7th St , Ste 1200",Los Angeles,CA,90017,UNITED STATES,www.perkinswill.com/
Perkins&Will Houston,"1001 McKinney, #1300",Houston,TX,77002,UNITED STATES,www.perkinswill.com
Perkins&Will Houston,1001 Mckinney St Ste 1300,Houston,TX,77002-6404,UNITED STATES,www.perkinswill.com
Perkins+Will,2 Bryant St Ste 300,San Francisco,CA,94105-1641,UNITED STATES,www.perkinswill.com
Perkins+Will,2800 Ponce de Leon Blvd,Coral Gables,FL,33134-6913,UNITED STATES,perkinswill.com/
Perkins+Will,80 S 8Th St Ste 300,Minneapolis,MN,55402-2116,UNITED STATES,www.perkinswill.com
Perkins+Will,55 Court St Fl 2Nd,Boston,MA,02108-2111,UNITED STATES,
Perkins+Will,"1301 5th Ave , Ste 2300",Seattle,WA,98101-2676,UNITED STATES,www.perkinswill.com
Perkins+Will,1315 Peachtree St NE,Atlanta,GA,30309-7515,UNITED STATES,www.perkinswill.com
Perkins+Will,"330 S Tryon St , Ste 300",Charlotte,NC,28202-1916,UNITED STATES,perkinswill.com/
Perkins+Will,617 W 7Th St Ste 1200,Los Angeles,CA,90017-3830,UNITED STATES,www.perkinswill.com
Perkins+Will,"1221 2nd Ave , Ste 200",Seattle,WA,98101-2942,UNITED STATES,www.perkinswill.com
Perkins+Will,"225 Franklin St , Ste 110",Boston,MA,02110-2804,UNITED STATES,www.perkinswill.com
Perkins+Will,"1315 Peachtree Street NE, Perkins+Will",Atlanta,GA,30309,UNITED STATES,www.perkinswill.com
Perkins+Will,"1315 Peachtree St Ne, Suite 800",Atlanta,GA,30309-7515,UNITED STATES,www.perkinswill.com
Perkins+Will,"1221 2nd Ave , Ste 200",Seattle,WA,98101-2942,UNITED STATES,www.perkinswill.com
Perkins+Will,"80 S 8th St , Ste 300",Minneapolis,MN,55402-2116,UNITED STATES,www.perkinswill.com
Perkins+Will,"1301 Fifth Avenue, Suite 2300",Seattle,WA,98101,UNITED STATES,perkinswill.com/offices/seattle.html
