Firm Name,Address Line 1,City,State,Zip Code,Country,Firm URL
Design Concepts Architects,"15 Calder Pl , Bsmt",Brooklyn,NY,11215-8087,UNITED STATES,www.designconceptsarchitect.com
"Design Consultants, LLC",10437 W Innovation DR # 100,Milwaukee,WI,53226-4838,UNITED STATES,
"Design Continuum, Inc.","44 Broad St NW , Ste 310",Atlanta,GA,30303-2328,UNITED STATES,www.designcontinuuminc.com
Design Cooperative,29941 N Fremont Center Rd,Grayslake,IL,60030-9529,UNITED STATES,www.nordmarkdesign.com
"Design Core, Inc.",PO Box 778425,Henderson,NV,89077-8425,UNITED STATES,
"Design Develop, LLC",418 E Main St,Charlottesville,VA,22902-5236,UNITED STATES,www.designdevelop.org
Design Development,800 Salem Woods Dr Ste 102,Raleigh,NC,27615-3344,UNITED STATES,www.designdevelopment.com
Design Development Architects,"237 Mamaroneck Ave , Ste 400",White Plains,NY,10605-1318,UNITED STATES,www.ddpllc.com/
Design Direction,919 N Tanglebriar Ln,Fayetteville,AR,72701-2447,UNITED STATES,
"Design Dynamics, Inc.","1500 2nd Ave SE , Ste 212",Cedar Rapids,IA,52403-2371,UNITED STATES,www.designdynamics.biz
"Design Element, Inc.",PO BOX 898,Wrightsville Beach,NC,28480-0898,UNITED STATES,www.designele.com
Design Evolution Architecture,1680 Bullock Cir,Owings Mills,MD,21117-1609,UNITED STATES,www.dea-llc.com
"Design Forum Architects, Inc.",2056 Byers Rd.,Miamisburg,OH,45342,UNITED STATES,www.interbranddesignforum.com
Design Group,515 E Main St,Columbus,OH,43215-5304,UNITED STATES,www.designgroup.us.com
Design Group Collaborative,40 Church St,Ellsworth,ME,04605-1905,UNITED STATES,www.dgcarchitects.com
Design Group Facility Solutions,"5 Chenell Dr, Box 3",Concord,NH,03301-8503,UNITED STATES,dg.barry-wehmiller.com/services/facility-solutions
Design Group Inc. Architects & Planners,7600 Olentangy River Rd,Columbus,OH,43235-1362,UNITED STATES,
Design Group International,1701 Mier St,Laredo,TX,78043-2916,UNITED STATES,
design house studio,22 Woodruft Dr,Valparaiso,IN,46385-8154,UNITED STATES,
"Design Ideas Group Architecture + Planning, LLC.",15 Bethany St,New Brunswick,NJ,08901-2323,UNITED STATES,www.designideasgroup.com
Design Innovation Architects,"402 S Gay St , Ste 201",Knoxville,TN,37902-1164,UNITED STATES,dia-arch.com
Design Innovations Architects,402 S Gay St Ste 201,Knoxville,TN,37902-1164,UNITED STATES,www.dia-arch.com
Design Intent Architects,103 E Lincoln Ave,Fergus Falls,MN,56537-2216,UNITED STATES,www.designintentarchitects.com
Design Kor,715 Nesbitt Dr,Dallas,TX,75214-4443,UNITED STATES,www.designkor.net
Design Lab SOYOHUN,"24 Jungdae-ro, Olympic family Apt. 208-403",Seoul,,05834,"KOREA, SOUTH",
"Design Lead, LLP","7661 Girard Ave , Ste 200",La Jolla,CA,92037-4434,UNITED STATES,www.designlead.com
"Design Logic Architects, PC","3 Winners Cir , Ste 305",Albany,NY,12205-1161,UNITED STATES,designlogicarchitects.com
Design Manage Advise,W128N6813 Parkway Drive,Menomonee Falls,WI,53051,UNITED STATES,
"Design Matters, PC",2301 Staley Rd,Reston,VA,20191-4610,UNITED STATES,www.designmatterspc.com
"Design Mavens Architecture, PLLC",1702 W COLLEGE AVE STE E,NORMAL,IL,61761,UNITED STATES,
"Design Methods, Inc.",210 29th St,West Palm Beach,FL,33407-5208,UNITED STATES,www.designmethodssinc.com
Design Muscle - Healthcare URBAN Design,"433 Berwyn Dr, Great Lakes - Midwest",Madison,WI,53711,UNITED STATES,
Design Office LLC,"3308 Tulane Ave , Ste 324",New Orleans,LA,70119-7191,UNITED STATES,www.dostudio.us
"Design on the Square, LLC",PO Box 4647,Silver Spring,MD,20914,UNITED STATES,designonthesquare.com
"Design One Studio, LLC","358 Roswell Street Northeast
Suite 1250",Marietta,GA,30060,UNITED STATES,www.designone-studio.com
Design Online,433 Berwyn Dr,Madison,WI,53711-1203,UNITED STATES,
"Design OPERA, Inc.",440 19th St,San Diego,CA,92102-2802,UNITED STATES,www.designopera.com
Design Partners Incorporated,1580 Makaloa St Ste 1100,Honolulu,HI,96814-3240,UNITED STATES,www.designpartnersinc.com
Design Partners Incorporated,"1580 Makaloa Street, Suite 1100",Honolulu,HI,96814,UNITED STATES,www.designpartnersinc.com
Design Partnership Architects,85 Brockton Ave,Haverhill,MA,01830-2703,UNITED STATES,www.designpartnershiparchitects.com
"Design Partnership, Inc.","37 E Main St , Ste 19",Bozeman,MT,59715-4739,UNITED STATES,www.design5la.com
Design Path Studio,"364 2nd St , Ste 2",Encinitas,CA,92024-3557,UNITED STATES,www.designpathstudio.com
Design Peridot,4603 Olsen Boulevard,Amarillo,TX,79106,UNITED STATES,
Design Perspective,1713 Republican St,Honolulu,HI,96819-3112,UNITED STATES,
"Design Phase Architecture, LLC","11891 US Highway 1 , Ste 202",North Palm Beach,FL,33408-2864,UNITED STATES,www.designphasearchitecture.com
"DESIGN PHASE ARCHITECTURE, LLC",1090 Bimini Ln,Riviera Beach,FL,33404-2704,UNITED STATES,www.designphasearchitecture.com
"Design Place, PLLC","275 S 5th Ave , Ste 240",Pocatello,ID,83201-6422,UNITED STATES,www.designplace1.com
"Design Plus, Inc.","The Historic Pike House, 230 East Fulton",Grand Rapids,MI,49503-3211,UNITED STATES,www.design-plus.com
Design Point Inc,4676 St John Cir,Zionsville,IN,46077-8140,UNITED STATES,
Design R Architects,"27 Strawberry Hill Ave , Ste 201",Stamford,CT,06902-2780,UNITED STATES,www.designrarchitects.com
