Firm Name,Address Line 1,City,State,Zip Code,Country,Firm URL
Elevar Design Group,555 Carr St,Cincinnati,OH,45203-1815,UNITED STATES,www.elevar.com/
Elevate Studio,2026 Joan Ave NE,Grand Rapids,MI,49505-4483,UNITED STATES,elevatestudio.net
Elevation Architecture,3116 W Lawn Ave,Tampa,FL,33611-1927,UNITED STATES,www.elevationarch.com
Elevation Design LLC,PO Box 188,Harveysburg,OH,45032,UNITED STATES,www.elevationdesignllc.com
Elevatus Architecture,111 E Wayne St Ste 555,Fort Wayne,IN,46802-2600,UNITED STATES,www.elevatusarchitecture.com
"Eleven18 Architecture, PL","424 E Central Blvd , Ste 542",Orlando,FL,32801-1923,UNITED STATES,www.eleven18architecture.com
Eley Guild Hardy Architects,329 E Capitol St,Jackson,MS,39201-3404,UNITED STATES,www.eleyguildhardy.com
Eley Guild Hardy Architects PA,"106 S President St , Ste 300",Jackson,MS,39201-3601,UNITED STATES,www.eleyguildhardy.com
"Eley Guild Hardy Architects, PA",1091 Tommy Munro Dr,Biloxi,MS,39532-2100,UNITED STATES,www.eleyguildhardy.com
"Eley Guild Hardy Architects, PA",329 E Capitol St,Jackson,MS,39201-3404,UNITED STATES,www.eleyguildhardy.com
"Eley|Barkley, P.A.",306 3rd St,Cleveland,MS,38732-2346,UNITED STATES,www.eleybarkley.com
ELIA Architecture & Interiors LLC,3125 W Queen Ln,Philadelphia,PA,19129-1019,UNITED STATES,www.elia-architecture.com
"Elisabeth Doermann, Architecture",518 20Th Ave,San Francisco,CA,94121-3123,UNITED STATES,
"Elisabeth Sloan, Architect",2024 Minor Rd,Charlottesville,VA,22903-1720,UNITED STATES,www.lizsloan-architect.com
Elisco Design Architects LLC,2546 Mulberry Ln,Northbrook,IL,60062-5935,UNITED STATES,www.eliscodesign.com
"Elise A. Hergan, Architect",40 Foote Bridge Rd,Guilford,CT,06437-2127,UNITED STATES,www.eah-architect.com
Elise Fett & Associates,PO BOX 5989,Incline Village,NV,89450-5989,UNITED STATES,www.parallelgeo.com
Elise Johnson-Schmidt AIA Architect,"5 E Market St , Ste 304",Corning,NY,14830-2642,UNITED STATES,
Eliseo Berrios Arquitectura,PO Box 351758,San Juan,PR,00936,UNITED STATES,
"Elissa Winzelberg Architect, PC",42 Sycamore Dr,Roslyn,NY,11576-1436,UNITED STATES,
Elite Kedan Architecture,"450 Alton Rd , Apt 1403",Miami Beach,FL,33139-6717,UNITED STATES,
Elizabeth Ann Murrell,"15 W 72nd St , Ph",New York,NY,10023-3402,UNITED STATES,
Elizabeth C Masters Architect,220 E Benezet St,Philadelphia,PA,19118-4411,UNITED STATES,www.ma.com
"Elizabeth Calabrese and Calabrese Architects, Inc",PO Box 16,Perkinsville,VT,05151,UNITED STATES,www.calabresearchitects.com
Elizabeth Cwik Architecture LLC,2303 Willard Ave,Madison,WI,53704-5643,UNITED STATES,
"Elizabeth Drake, Architect",240 Cedar Knolls Rd,Cedar Knolls,NJ,07927-1621,UNITED STATES,www.elizabeth-drake.com
Elizabeth Eason Architecture,"524 S Gay St , Ste 301",Knoxville,TN,37902-1540,UNITED STATES,www.eearchitecture.com
Elizabeth G. Camargo LLC,1530 W 27th St,Miami Beach,FL,33140-4211,UNITED STATES,www.ecamargodesign.com
"Elizabeth Haynes, LLC",4047 Broadway St,San Antonio,TX,78209-6313,UNITED STATES,ehaynesarch.com
Elizabeth Herrmann Architecture & Design,29 North St,Bristol,VT,05443-1222,UNITED STATES,www.eharchitect.com
Elizabeth Jahn Architecture LLC AIA,7 Evergreen Ave,Westport,CT,06880-2561,UNITED STATES,www.elizabethjahn.com
"Elizabeth M. Schuncke, AIA",55 S Winchester Rd,Annapolis,MD,21409-5809,UNITED STATES,www.emschuncke.com
"Elizabeth Metz Architect, PC",717 Mariposa St,Denver,CO,80204-4409,UNITED STATES,www.emarchitect.com
Elizabeth Roberts Archiecture and Design PC,99 Gates Ave,Brooklyn,NY,11238-1801,UNITED STATES,www.ensemblearchitecture.com
Elizabeth Roberts Architecture & Design,"168 7th St , # 3C",Brooklyn,NY,11215-7095,UNITED STATES,www.elizabethroberts.com
Elkus Manfredi Architects,"25 Drydock Avenue, Floor 7",Boston,MA,02210,UNITED STATES,www.elkus-manfredi.com
Elkus Manfredi Architects,25 Drydock Ave Fl 7,Boston,MA,02210,UNITED STATES,www.elkus-manfredi.com
Elkus-Manfredi Architects,25 Drydock Ave,Boston,MA,02210-2344,UNITED STATES,www.elkus-manfredi.com
Ella Architecture,15329 SW 111th St,Miami,FL,33196-4536,UNITED STATES,
"Ellen Cassilly Architect, Inc.",600 Foster St,Durham,NC,27701-2109,UNITED STATES,www.ellencassillyarchitect.com
Ellen Fortin Design + Architecture,3702 E Burnside St,Portland,OR,97214-2057,UNITED STATES,
Ellen Happ Architect,343 Union St,Doylestown,PA,18901-3526,UNITED STATES,ellenhapparchitect.com
"Ellen Lind, Architect",7351 W 93rd Way,Westminster,CO,80021-4898,UNITED STATES,www.ellenlind.com
"Ellen Neal Pruitt, Architect",935 Heard Ave,Augusta,GA,30904-4113,UNITED STATES,
"Ellen Pulner Hunt Architect, Inc.",1100 Constant Springs Dr,Austin,TX,78746-6614,UNITED STATES,
"Ellen R. Matson, AIA",5703 Fairlane Dr,Austin,TX,78757-4412,UNITED STATES,
Ellen Roche Architect PLLC,PO BOX 177,Cold Spring Harbor,NY,11724-0177,UNITED STATES,www.ejroche.com
"Ellender Architects & Associates, LLC",1521 Cypress St,Sulphur,LA,70663-5144,UNITED STATES,www.ellenderarchitects.com
Ellenzweig,230 Congress St,Boston,MA,02110-2409,UNITED STATES,www.ellenzweig.com
Eller Architecture LLC,6161 New Albany Rd W,New Albany,OH,43054-9099,UNITED STATES,www.ellerarchitecture.com
