Firm Name,Address Line 1,City,State,Zip Code,Country,Firm URL
Cannon Group,"520 Fellowship Rd , Ste A111",Mount Laurel,NJ,08054-3400,UNITED STATES,www.hjcannongroup.com
CannonDesign,"595 Market St , Ste 1250",San Francisco,CA,94105-2820,UNITED STATES,www.cannondesign.com
CannonDesign,360 Madison Ave,New York,NY,10017-7111,UNITED STATES,www.cannondesign.com
CannonDesign,225 N Michigan Ave Ste 1100,Chicago,IL,60601-7683,UNITED STATES,cannondesign.com
CannonDesign,99 Summer St Ste 600,Boston,MA,02110-1213,UNITED STATES,www.cannondesign.com
CannonDesign,1100 Clark Ave,Saint Louis,MO,63102-1110,UNITED STATES,www.cannondesign.com
CannonDesign,"595 Market St , Ste 1250",San Francisco,CA,94105-2820,UNITED STATES,www.cannondesign.com
CannonDesign,99 Summer St Ste 600,Boston,MA,02110-1213,UNITED STATES,www.cannondesign.com
CannonDesign,"3535 Travis St , Ste 260",Dallas,TX,75204-1403,UNITED STATES,www.cannondesign.com
CannonDesign,"3030 Clarendon Blvd , Ste 500",Arlington,VA,22201-6520,UNITED STATES,cannondesign.com
CannonDesign,"225 N Michigan Ave , Ste 1100",Chicago,IL,60601-7683,UNITED STATES,www.cannondesign.com
CannonDesign,"50 Fountain Plaza, Suite 200",Buffalo,NY,14202,UNITED STATES,www.cannondesign.com
CannonDesign,"1560 Wilson Blvd , Ste 200",Arlington,VA,22209-2422,UNITED STATES,www.cannondesign.com
CannonDesign,"3737 Buffalo Speedway
Suite 1200",Houston,TX,77098,UNITED STATES,www.cannondesign.com
CannonDesign,,,,,,
CannonDesign,50 Fountain Plz Ste 200,Buffalo,NY,14202-2212,UNITED STATES,www.cannondesign.com
CannonDesign,1560 Wilson Blvd Ste 200,Arlington,VA,22209,UNITED STATES,cannondesign.com
CannonDesign,"3737 Buffalo Speedway , Ste 1200",Houston,TX,77098-3741,UNITED STATES,www.cannondesign.com
Canopy / architecture + design,"180 W Washington St , Ste 200",Chicago,IL,60602,UNITED STATES,www.canopy-chicago.com
Canopy Architecture + Design,"180 W Washington St , Ste 200",Chicago,IL,60602-4450,UNITED STATES,www.canopy-chicago.com/
Canova Associates Architecture,PO Box 429,Mechanicsville,VA,23111-0429,UNITED STATES,www.canovapeterson.com
Cansult Maunsell I AECOM,"Al Jazira Sports & Cultural Club, Muroor Road (4th Street), PO Box 43266",Abu Dhabi,,,UNITED ARAB EMIRATES,www.cansultmaunsell.com
"Canteros+Zorrilla Architects, P. C.",129 Elm St,New Rochelle,NY,10805-2008,UNITED STATES,www.canterosarchitect.com
Canuto Associates + Design,837 Ford ST,Alcoa,TN,37701-3022,UNITED STATES,
Canzian Johnston and Associates,361 Main St,New Kensington,PA,15068-6088,UNITED STATES,www.cjaarchitects.com
Canzian/Johnston & Associates,361 Main St,New Kensington,PA,15068-6088,UNITED STATES,www.cjaarchitects.com
CAP Government,343 Almeria Avenue,Coral Gables,FL,33134,UNITED STATES,www.capfla.com
Capitol Hill Construction,814 E 100 S,Salt Lake City,UT,84102-4109,UNITED STATES,www.caphillcon.com
Caples Jefferson Architects PC,3718 Northern Blvd,Long Island City,NY,11101-1631,UNITED STATES,www.capjeff.com
"Capri Architecture, LLC",PO Box 178,Newport,OR,97365-0015,UNITED STATES,www.capriarchitecture.com
Capstone Advisors,"11682 El Camino Real , Ste 300",San Diego,CA,92130-2092,UNITED STATES,
"Capstone Project Services, PLC",158 Sunaire Ter,Nokomis,FL,34275-2544,UNITED STATES,
"Carangelo Architects, LLC",PO Box 6297,Savannah,GA,31414-6297,UNITED STATES,
Carawan Architecture,1516 Brodiea Ave,Ventura,CA,93001-2240,UNITED STATES,www.carawanarchitecture.com
Carballo Architecture,1816 Aliceanna St,Baltimore,MD,21231-2445,UNITED STATES,www.carballoarchitecture.com
Carde Ten Architects,"5855 Green Valley Cir , Ste 301",Culver City,CA,90230-6969,UNITED STATES,www.cardeten.com
Cardinal Architecture PC,"1326 5th Ave , Ste 443",Seattle,WA,98101-2628,UNITED STATES,www.cardinalarchitecture.com
Cardinal Architecture PC,"1326 5th Ave , Ste 440",Seattle,WA,98101-2628,UNITED STATES,www.cardinalarchitecture.com
"Caren Yglesias, AIA, Architect",1712 Allison St NW,Washington,DC,20011-4232,UNITED STATES,
"Carhuff and Cueva Architects, LLC","3149 E Prince Rd , Ste 151",Tucson,AZ,85716-0834,UNITED STATES,www.cca-az.com
"Carhuff and Cueva Architects, LLC",3149 E Prince Rd Ste 151,Tucson,AZ,85716-0834,UNITED STATES,www.cca-az.com
Caribbean Professional Consul.,PO Box 305647,St Thomas,VI,00803-5647,UNITED STATES,www.cpc.build
Caribeno Architectural Group,"1250 W Eau Gallie Blvd , Ste F",Melbourne,FL,32935-5386,UNITED STATES,www.cag-architects.com
Caridad Sola Studio LLC,"250 Mercer St , Apt A204",New York,NY,10012-1144,UNITED STATES,www.caridadsola.com
Carissimi Rohrer McMullen Architects and Planners,5921 Folsom Blvd,Sacramento,CA,95819-4611,UNITED STATES,www.crmarchitects.com
"Carl A. Worthington AIA, ASLA & Associates",2206 Pearl St,Boulder,CO,80302-4630,UNITED STATES,www.carlworthingtonassociates.com
Carl Abbott FAIA Architect/Planner PA,2846 Riverside Dr,Sarasota,FL,34234-7458,UNITED STATES,www.carlabbott.com
"Carl Abbott, FAIA, Architects/Planners PA",2846 Riverside Dr,Sarasota,FL,34234-7458,UNITED STATES,www.carlabbott.com
Carl Berry Architecture,911 Ebbtide Way,Mount Pleasant,SC,29464-2641,UNITED STATES,www.onceuponatandem.com
Carl Daniel Architects,305 Leon St,El Paso,TX,79901-1021,UNITED STATES,
