Firm Name,Address Line 1,City,State,Zip Code,Country,Firm URL
"GPF Architects, LLC","721 Dove Circle, Suite 100",Coppell,TX,75019,UNITED STATES,gpfarchitects.com
"GPHdesign, LLC","1 Adams Street at Lower Mills, Suite 500",Milton,MA,02186,UNITED STATES,www.gphdesign.com
"GPS Designs, LLC",PO Box 333,Minturn,CO,81645-0333,UNITED STATES,www.gpsdesigns.com
"GPS Designs, LLC",512 Stephen Cir SW,Vienna,VA,22180-6346,UNITED STATES,www.gpsdesigns.com
"GRA Architects & Associates, Inc.",PO Box 9082,Stockton,CA,95208-1082,UNITED STATES,
"GRA Architects, Inc.",312 Springfield Ave,Berkeley Heights,NJ,07922-1277,UNITED STATES,www.graarchitects.com
GRA Architecture,205 23rd ST Ste 130,Sacramento,CA,95816-3067,UNITED STATES,www.gra-architecture.com
GRA+D Architects,"330 W Spring St , Ste 355",Columbus,OH,43215-7305,UNITED STATES,www.grad.cc
Grace & Herbert Architects,650 Poydras St Ste 1400,New Orleans,LA,70130-6116,UNITED STATES,graceandherbert.com
Grace Architects PLLC,7310 15th Ave NW,Seattle,WA,98117-5401,UNITED STATES,www.gracearchitectspllc.com
Grace Architecture & Design,518 W Green ST,Winterset,IA,50273-1640,UNITED STATES,www.gracearch.com/
"Grace Hebert Curtis Architects, APAC",501 Government St Ste 200,Baton Rouge,LA,70802-6171,UNITED STATES,gracehebert.com/
"Grace Hebert Curtis Architects, APAC",501 Government St,Baton Rouge,LA,70802-6170,UNITED STATES,www.gracehebert.com
"Grace Hebert Curtis Architects, APAC","5000 Quorum Dr , Ste 500",Dallas,TX,75254-1483,UNITED STATES,www.ghc-arch.com
"Grace Hebert Curtis Architects, APAC","501 Government St Ste 200, Suite 500",Baton Rouge,LA,70802-6171,UNITED STATES,www.ghc-arch.com
"Grace Partnership, Inc.",550 S Wilton Pl,Los Angeles,CA,90020-4911,UNITED STATES,www.gpinc.us
GRADE,"180 Varick Steet, Suite 916",New York,NY,10014,UNITED STATES,www.gradenewyork.com
GRADE new York,"180 Varick St , Rm 916",New York,NY,10014-5408,UNITED STATES,www.gradenewyork.com/home
"Grade, LLC","180 Varick St , Rm 916",New York,NY,10014-5408,UNITED STATES,www.gradenewyork.com
"Grady L. Woods, Architect LLC",893 Grays Hwy,Ridgeland,SC,29936-5459,UNITED STATES,www.gradywoodsarchitects.com
"Graeber, Simmons & Cowan","3100 Alvin Devane Blvd , Bldg A",Austin,TX,78741-7406,UNITED STATES,www.gscarchitects.com
Graf & Lewent Architects,90-30 161st Street,Jamaica,NY,11432,UNITED STATES,glarchitects.com/pages/home.html
Graf Architects,2 Liberty St,Newburyport,MA,01950-2769,UNITED STATES,www.grafarch.com
Graff Architects,494 Hawthorne Ave Ste B,Oakland,CA,94609-3037,UNITED STATES,www.graffarchitects.com
Graham & Hyde Architects Inc,1010 Clock Tower Dr,Springfield,IL,62704-6047,UNITED STATES,www.grahamandhyde.com/
Graham Architects,59 Mills Rd,Kennebunkport,ME,04046-5708,UNITED STATES,www.grahamarchitects.com
"Graham B. Luhn, FAIA, Architect, Inc.","2400 Augusta Dr , Ste 110",Houston,TX,77057-4911,UNITED STATES,
Graham Baba Architects,1507 Belmont Ave Ste 200,Seattle,WA,98122-3711,UNITED STATES,www.grahambabaarchitects.com
Graham Station Architects,410 Higgins Ave,Brielle,NJ,08730-1471,UNITED STATES,www.grahamarchitect.com
Graham/Meus Inc. Architects,"45 Newbury St , Ste 503",Boston,MA,02116-3143,UNITED STATES,www.gmiarchitects.com
Gran Kriegel Associates Architects & Planners,"219 36th ST # 25, Camp David",Brooklyn,NY,11232-2547,UNITED STATES,www.grankriegel.com
Grand Rapids-AECOM,3950 Sparks Dr Se,Grand Rapids,MI,49546-6146,UNITED STATES,www.aecom.com
Grandberg & Associate Architects,117 E Main St,Mount Kisco,NY,10549-2303,UNITED STATES,www.grandbergarchitects.com
"grandview architecture, pllc","447 Lowden Point Rd, 447 Lowden Point Rd",Rochester,NY,14612,UNITED STATES,www.grandviewarchitecture.com
Granger Architecture,4000 Aspen DR,North Platte,NE,69101-4704,UNITED STATES,
Grant + Grant,1782 Kelton Ave,Los Angeles,CA,90024-5508,UNITED STATES,www.grantandgrantai.com
Grant Group Architecture,1502 W NC Highway 54 Suite 602,Durham,NC,27707-5599,UNITED STATES,www.bizios.com
Grant/Weiland Architects,"5353 McAuley Dr , Apt 317",Ypsilanti,MI,48197-1018,UNITED STATES,
Granum A/I,990 Spring Garden St,Philadelphia,PA,19123,UNITED STATES,granumai.com/
"Granville Taylor Architects, LLC",104 S Front St,Memphis,TN,38103-2906,UNITED STATES,
Graphia,"100 Gateway Drive, Suite 120",Lincoln,CA,95648,UNITED STATES,graphia.com
Graphite Design Group,1809 7Th Ave Ste 700,Seattle,WA,98101-1318,UNITED STATES,www.graphitedesigngroup.com
Grassi Design Group,46 Waltham St,Boston,MA,02118-2106,UNITED STATES,www.grassides.com
Grasso-Menziuso Architects,"350 7th Ave , Rm 405",New York,NY,10001-1957,UNITED STATES,
Gratton International,2749 Gannet Dr,Costa Mesa,CA,92626-4723,UNITED STATES,
"Gravatte Design Services, Inc.",4030 Leland Rd,Louisville,KY,40207-2008,UNITED STATES,
"Graves Architects, Inc.",2031 Murray Ave,Pittsburgh,PA,15217-2103,UNITED STATES,www.gravesdesigngroup.com
"Graves Design Group, LLC",223 4Th Ave Ste 600,Pittsburgh,PA,15222-1705,UNITED STATES,gravesdesigngroup.com/index.php
Gravity : : Works Architecture PA,101 S Star St,El Dorado,KS,67042-2932,UNITED STATES,www.gravityworks-architecture.com
Gray & Gray Architects,"1505 E Valley Rd , Ste A",Santa Barbara,CA,93108-2155,UNITED STATES,www.grayarchitects.com
