Firm Name,Address Line 1,City,State,Zip Code,Country,Firm URL
"TK Architects, Inc.",1100 Main St Ste 2200,Kansas City,MO,64105-5185,UNITED STATES,www.tkarch.com
"TK Design and Associates, Inc.",26030 Pontiac Trl,South Lyon,MI,48178-8050,UNITED STATES,tkhomedesign.com
"tk studio, llc",38 Newton Ave,Woodbury,NJ,08096-4610,UNITED STATES,tkstudioarch.com
"TK-Architecture, LLC","12325 Oracle Blvd, Suite 111",Colorado Springs,CO,80921,UNITED STATES,www.tk-architecture.com
TKA Architects,4951 Centre Ave,Pittsburgh,PA,15213-1805,UNITED STATES,www.tkainc.com
TKDA,"5151 Mochel Dr , Ste 205",Downers Grove,IL,60515-5083,UNITED STATES,www.tkda.com
TKDA,11 E Superior St Ste 340,Duluth,MN,55802-2187,UNITED STATES,www.tkda.com
TKDA Engineering Architecture Planning,444 Cedar St Ste 1500,Saint Paul,MN,55101-2110,UNITED STATES,www.tkda.com
TKG West Inc,8178 Aster Rd,Oak Hills,CA,92344-9475,UNITED STATES,www.tkgwest.com
"TKP Architects, PC","1509 Washington Ave , Ste A",Golden,CO,80401-1919,UNITED STATES,www.tkparch.com
TKS Architects,930 Century Dr Ste 103,Mechanicsburg,PA,17055-4504,UNITED STATES,www.tksarchitects.com
TL Stroh Architects and Interiors,8 7th St N,Fargo,ND,58102-4911,UNITED STATES,www.tlstroh.com
TLA Design,33 Russell Rd,Ringwood,NJ,07456-2218,UNITED STATES,
TLB Architecture,92 W Main St,Chester,CT,06412-1305,UNITED STATES,www.tlbarchitecture.com
TLCD Architecture,"520 3rd St , Ste 250",Santa Rosa,CA,95401-6414,UNITED STATES,www.tlcd.com
TLCR Architecture,14 Iron Hill St,East Weymouth,MA,02189-2715,UNITED STATES,
"TLD Architects, Inc.","15995 N Barkers Landing Rd , Ste 295",Houston,TX,77079-2467,UNITED STATES,
TLM & Associates PC,42017 Farm Lane Ct,Sterling Heights,MI,48313-2433,UNITED STATES,
"TLM Associates, Inc.",117 E Lafayette St,Jackson,TN,38301-6203,UNITED STATES,www.tlmae.com
tma Architecture,"814 Pennsylvania Ave , Ste 100",Fort Worth,TX,76104-2260,UNITED STATES,tma-fw.com
TMA-CHA ARCHITECTS,814 Pennsylvania Ave,Fort Worth,TX,76104-2210,UNITED STATES,www.tma-fw.com
TMar Architects LLC,"3403 73rd St , Ste 16",Lubbock,TX,79423-1101,UNITED STATES,
TMD Architects,705 Hibbens Grant Blvd,Mount Pleasant,SC,29464-8235,UNITED STATES,tmdarchitects.com
"TMG Architects, LLC",468 Saybrook Rd,Haddam,CT,06438-1001,UNITED STATES,www.tmgarchitects.com
"TMP Architecture, Inc",1191 W Square Lake Rd,Bloomfield Hills,MI,48302-0374,UNITED STATES,www.tmp-architecture.com
"TMP Architecture, Inc.",1191 W Square Lake RD,Bloomfield Hills,MI,48302-0374,UNITED STATES,www.tmp-architecture.com
"TMP Architecture, Inc.",259 E Michigan Ave,Kalamazoo,MI,49007-3949,UNITED STATES,www.tmp-architecture.com
"TMP Architecture, Inc.",1191 W Square Lake Rd,Bloomfield Hills,MI,48302-0374,UNITED STATES,www.tmp-architecture.com
TMPartners,"211 Franklin Rd , Ste 200",Brentwood,TN,37027-2515,UNITED STATES,www.tmpartners.com
"TMPartners, PLLC","211 Franklin Rd #200,","Brentwood,",TN,37027,UNITED STATES,www.tmpartners.com
"TMPartners, PLLC","211 Franklin Rd , Ste 200",Brentwood,TN,37027-2515,UNITED STATES,www.tmpartners.com
"TMPartners, PLLC.","5210 Maryland Way , Ste 200",Brentwood,TN,37027-5065,UNITED STATES,www.tmpartners.com
TMS architects,"1 Cate St , Fl 4",Portsmouth,NH,03801-7108,UNITED STATES,www.tmsarchitects.com
TMS Architects,1 Cate St,Portsmouth,NH,03801-7108,UNITED STATES,www.tmsarchitects.com
"TMS Architects, P.A.","1 Cate St , Fl 4",Portsmouth,NH,03801-7108,UNITED STATES,www.tmsarchitects.com
"TN Design Associates, AIA, Inc.",15745 Midvale Ave N,Shoreline,WA,98133-5722,UNITED STATES,tndesig9.wix.com/tnda
TOA Group LLC,"2286 Hyde Park St , Fl Sarasota",Sarasota,FL,34239-3945,UNITED STATES,
"Toano Design, Inc.",PO Box 504,Norge,VA,23127-0504,UNITED STATES,
Tobias Arianna Architect,"11 W 25th St , Fl 9",New York,NY,10010-2055,UNITED STATES,
Tobias Guggenheimer Architect,"145 Palisade St , Ste 315",Dobbs Ferry,NY,10522-1631,UNITED STATES,www.guggenheimerarchitect.com
Tobin & Associates,"PO BOX 2420, 1820 Dillon Ave",Cheyenne,WY,82003-2420,UNITED STATES,www.tobin-assoc.com
Tobin Parnes Design,"304 Hudson St, 5th Floor Suite 500",New York,NY,10013,UNITED STATES,www.tobinparnes.com
Tobin PLLC,"333 W Trade St , Unit 350",Charlotte,NC,28202-1978,UNITED STATES,tobinarch.com
Tobin Smith Architect,2201 San Pedro Ave.,San Antonio,TX,78212,UNITED STATES,www.tobinsmitharchitect.com
"Tobin T. Dougherty, Architects & Associates",727 Zion St,Nevada City,CA,95959-2920,UNITED STATES,
"Tobin Weaver, Architect PC","1983 NW Flanders St , Apt 501",Portland,OR,97209-2047,UNITED STATES,
"Toby Pugh Architects, LLC",3 Chamisa Dr,Ranchos de Taos,NM,87557-7930,UNITED STATES,
tobylongdesign,"665 3rd St , Ste 400",San Francisco,CA,94107-1968,UNITED STATES,www.cleverhomes.net
Tod Williams Billie Tsien Architects,"222 Central Park S , Fl 1",New York,NY,10019-1408,UNITED STATES,www.twbta.com
"Todd & Associates Inc., Architects",753 Richwil Dr,Salisbury,MD,21804-5627,UNITED STATES,
