Firm Name,Address Line 1,City,State,Zip Code,Country,Firm URL
Buxton Architecture,454 Maryleborn Rd,Severna Park,MD,21146-1667,UNITED STATES,www.buxtonarchitecture.com/
"Buxton Kubik Dodd, Inc.",2849 W Oxbow Ln,Springfield,MO,65810-1910,UNITED STATES,www.bk-dc.com
"Buz Design Consultants, Ltd.","7 F Pacific Plaza, 410 Des Vouex Road West",Western District,,,CHINA,
"BVH Architects, Ltd",440 N 8Th St Ste 100,Lincoln,NE,68508-3647,UNITED STATES,www.bvh.com
BVH Architecture,901 Jones St,Omaha,NE,68102-2941,UNITED STATES,www.bvh.com
BVH Architecture,1425 Jones St,Omaha,NE,68102-3212,UNITED STATES,www.bvh.com/
BVZ Architects,8805 Blue Mountain Dr,Golden,CO,80403-8312,UNITED STATES,www.bvzarchitects.com
BW Architects,"611 Broadway , Rm 311",New York,NY,10012-2654,UNITED STATES,www.bw-architects.com
BW Architecture PLLC,100A Oakmont Dr,Greenville,NC,27858-5936,UNITED STATES,www.bwarchitecture.info
BW-ARCHITECTS,611 Broadway Suite 311,New York,NY,10002,UNITED STATES,www.bw-architects.com/
BWArchitects,"611 Broadway , Rm 311",New York,NY,10012-2654,UNITED STATES,www.bw-architects.com
BWBR,380 Saint Peter St Ste 600,Saint Paul,MN,55102,UNITED STATES,www.bwbr.com/
BWBR,380 Saint Peter St Ste 600,Saint Paul,MN,55102-1316,UNITED STATES,www.bwbr.com
BWBR,"950 S 10th St , Ste 5",Omaha,NE,68108-3296,UNITED STATES,
BWBR Architects Inc.,"1 S Pinckney St , Ste 500",Madison,WI,53703-3220,UNITED STATES,www.bwbr.com
BWS Architects,261 N Court Ave,Tucson,AZ,85701-1030,UNITED STATES,www.bwsarchitects.com
BWZ Architects,2211 Rowley Avenue,Madison,WI,53726,UNITED STATES,www.bwzarchitects.com
By Design,29 Baker St,Yarmouth,ME,04096-7927,UNITED STATES,www.mainebydesign.com/file/home.html
By Design Consultants,1950 Market St,Camp Hill,PA,17011-4701,UNITED STATES,www.bydesignconsultants.com
Byrens Kim Design Works,681 4th St,Oakland,CA,94607-3556,UNITED STATES,www.byrenskim.com
"Byron Folse Associates, Inc.",PO Box 150669,Fort Worth,TX,76108-0669,UNITED STATES,
Byron J. Stewart and Assoc.,2300 Marengo St,New Orleans,LA,70115-6254,UNITED STATES,
"Byron W. Folwell, Architect","199 N Capitol Blvd , Ste 602",Boise,ID,83702-5985,UNITED STATES,www.byronfolwell.com
BZ Architects,"562 Calle Trigo , Apt 2A",San Juan,PR,00907-2524,UNITED STATES,
C & J Land Planning LLC,507 Koko Isle Cir,Honolulu,HI,96825-1816,UNITED STATES,
C + TC Design Studio,"3300 Northeast Expy NE , Bldg 6",Atlanta,GA,30341-3937,UNITED STATES,ctcdesignstudio.com
C A Lorentz Architect,14 Poplar St,Cape May Court House,NJ,08210-1830,UNITED STATES,www.capemayarchitect.com
C C Hodgson Architectural Group,6105 PARKLAND BLVD STE 130,Beachwood,OH,44122,UNITED STATES,www.ccharch.com
C d/A,PO Box 3734,Ketchum,ID,83340-3721,UNITED STATES,
C Design Inc,"1000 W Morehead St , Ste 170",Charlotte,NC,28208-5359,UNITED STATES,www.cdesigninc.com
C Design Inc.,1000 W Morehead St Ste 170,Charlotte,NC,28208-5359,UNITED STATES,www.cdesigninc.com
"C R Goodman Associates, PC","37 West Cross Street, Suite 300",Baltimore,MD,21230,UNITED STATES,www.crgadesign.com
C Studio Architecture,2570 Jardin Ct,Weston,FL,33327-1513,UNITED STATES,
C&H ASSOCIATES LLC,1241 east washington street suite 101,phoenix,AZ,85034,UNITED STATES,
"C&H Associates, Inc.",5825 Doyle Rd,Clifton,VA,20124-1308,UNITED STATES,
"C+C Architecture, LLC",684 Parker St,Newark,NJ,07104-2224,UNITED STATES,
"C+P Design, Inc","3400 Airport Ave , Ste 90",Santa Monica,CA,90405,UNITED STATES,www.cp-dc.com
C-L Architects Limited,"Block 3, 242 Choi Hung Road, KLN, 22D",Hong Kong,,,CHINA,
C. Allen Mullins architect,606 N Main St,Wilkes Barre,PA,18705-1741,UNITED STATES,www.callenmullinsarchitect.com/
C. B. Goldsmith & Associates,"13101 - 56th Court N., Suite 801",Clearwater,FL,33760,UNITED STATES,www.cbgoldsmith.com
"C. B. Goldsmith and Associates, Inc.","13101 56th Ct , Ste 801",Clearwater,FL,33760-4043,UNITED STATES,www.cbgoldsmith.com
C. David Morton Associates,"4444 SW 71st Ave , Ste 103",Miami,FL,33155-4658,UNITED STATES,
"C. E. McCord, AIA",402 Allen Dr,Dublin,GA,31021-3847,UNITED STATES,
"C. Easterling, Architect",27 York Hills Dr,Brentwood,MO,63144-1058,UNITED STATES,
"C. Edward Coughlin, AIA",15 Vermont Dr,Paramus,NJ,07652-2348,UNITED STATES,
"C. F. Starck & Associates, LLC",6005 Honeytree Dr,Arlington,TX,76016-2060,UNITED STATES,starckarchitecture.com
"C. Gayle Zembower Architect, Inc.",1401 Hillcroft Dr,Lake Charles,LA,70605-2566,UNITED STATES,
"C. Michael Barker, AIA",PO Box 2702,Ketchum,ID,83340-2681,UNITED STATES,
C. N. Carley Associates,72 N Main St,Concord,NH,03301-4983,UNITED STATES,www.cncarley.com
C. Renier Architects Inc.,348 Main Ave,De Pere,WI,54115-2203,UNITED STATES,www.renierarch.com
