Firm Name,Address Line 1,City,State,Zip Code,Country,Firm URL
Christoff Finio Architecture,"250 W Broadway , Fl 4",New York,NY,10013-2431,UNITED STATES,www.christofffinio.com
"Christoph Kruger, AIA",11530 Evanston Ave N,Seattle,WA,98133-8223,UNITED STATES,www.krugerarchitecture.com
Christopher @ Architects LLC,"820 W Superior Ave , Ste 425",Cleveland,OH,44113-1800,UNITED STATES,www.architects-llc.cc
Christopher Architects,3040 Independence Dr,Homewood,AL,35209-4157,UNITED STATES,www.candassociates.com
Christopher Architecture & Interiors,3040 Independence Dr,Birmingham,AL,35209-4157,UNITED STATES,www.christopherai.com
Christopher Booker & Assoc. P.C.,670 Broad St,Augusta,GA,30901-1436,UNITED STATES,www.cbarchitectspc.com
Christopher Booker & Associates PC,670 Broad St,Augusta,GA,30901-1436,UNITED STATES,cbarchitectspc.com
Christopher Carpiniello Architect,30 Blue Ridge Ln,Wilton,CT,06897-4127,UNITED STATES,ccaia.net
Christopher Craven Architecture,"1200 West Ave , Apt 703",Miami Beach,FL,33139-4316,UNITED STATES,
"Christopher D. Lauriat, Architect",511 S Williston St,Wheaton,IL,60187-5981,UNITED STATES,
Christopher Delgado Architect,"1796 Tribute Rd , Ste 100",Sacramento,CA,95815-4319,UNITED STATES,
"Christopher E. Johnson, Architect, LLC",2126 Calhoun St,New Orleans,LA,70118-6224,UNITED STATES,www.cejarchitect.com
"Christopher E. McClure AIA CSI, CCS",511 Hillsborough St,Raleigh,NC,27603-1729,UNITED STATES,
Christopher F. Caponigro,37 Hazelhurst St,Daniel Island,SC,29492-7962,UNITED STATES,cfcaia.com
"Christopher J. Gilman, Architect","3397 Mt Diablo Blvd , Ste D",Lafayette,CA,94549-4018,UNITED STATES,
"Christopher J. Grasso, AIA, Architect",222 Linden St,Santa Cruz,CA,95062-1020,UNITED STATES,
"Christopher J. Longe AIA, LLC",124 Peabody St,Birmingham,MI,48009-6329,UNITED STATES,
"Christopher J. Longe, AIA",124 Peabody St,Birmingham,MI,48009-6329,UNITED STATES,
"Christopher Jackson Architect, PA",PO Box 2279,Sarasota,FL,34230-2279,UNITED STATES,www.jacksonarchitect.com
"Christopher Jackson, Architect, PA","8437 Tuttle Ave , Ste 346",Sarasota,FL,34243-2868,UNITED STATES,
Christopher Jeffrey Architects pllc,"711 3rd Ave , Fl 12",New York,NY,10017-4014,UNITED STATES,www.christopherjeffrey.com
Christopher Kidd & Associates LLC,N48w16550 Lisbon Rd,Menomonee Falls,WI,53051-6630,UNITED STATES,www.cka-ae.com
"Christopher Max Design & Development, LLC",2533 Lopez Ln,Green Bay,WI,54311-4410,UNITED STATES,www.cmddllc.com
"Christopher McMahan Architects, Inc.","17 Virginia Ave , Ste 200",Providence,RI,02905-4406,UNITED STATES,
"Christopher O. Collins Architect, LLC",12473 Jesse Smith Rd,Mount Airy,MD,21771,UNITED STATES,www.cocarch.com
"Christopher O. Dougherty RA, AIA",PO BOX 122,Waldwick,NJ,07463-0122,UNITED STATES,
"Christopher P. Chouinard, AIA","2336 Seneca Rd , Ste 101",Scotch Plains,NJ,07076-4532,UNITED STATES,
"Christopher P. Williams Architects,  PLLC",PO Box 703,Meredith,NH,03253-0703,UNITED STATES,www.cpwarchitects.com
"Christopher Price, Architect",217 E Devon Dr,Mount Airy,NC,27030-5819,UNITED STATES,
"Christopher Rose Architects, P.A.",3509 Meeks Farm Rd,Johns Island,SC,29455-8170,UNITED STATES,chrisrosearchitects.com
Christopher S. Moomaw Architect,"120 Prospect St , Apt 29",Ridgefield,CT,06877-4647,UNITED STATES,www.alliedbuilding.com
Christopher Williams Architects LLC,85 Willow Street,New Haven,CT,06511,UNITED STATES,www.cwarchitectsllc.com
CHS Architects,"2500 NE Green Oaks Blvd , Ste 200",Arlington,TX,76006-3028,UNITED STATES,www.chsarchitects.com
