Firm Name,Address Line 1,City,State,Zip Code,Country,Firm URL
"W Partnership, Inc.",5120 Woodway Drive #8000,Houston,TX,77056,UNITED STATES,www.wgwarchitects.com
"W R Arnquist, AIA",4701 Sycamore St,Dallas,TX,75204-7029,UNITED STATES,
W Squared Architects,"800 Sampson Street
Suite 104",Houston,TX,77003,UNITED STATES,
"W. Alan Kenson & Associates, PC",PO BOX 11593,Prescott,AZ,86304-1593,UNITED STATES,www.kenson-associates.com
W. David Winitzky Architect,3463 State St,Santa Barbara,CA,93105-2662,UNITED STATES,
"W. David Winitzky, AIA Architects","3463 State St , # PMB508",Santa Barbara,CA,93105-2662,UNITED STATES,
"W. Douglas Gilpin, Jr. FAIA - Architect, PLC",1665 Brandywine Dr,Charlottesville,VA,22901-2801,UNITED STATES,www.gilpinarchitect.com
W. E. Jackson Corporation,"5900 Wilshire Blvd , Ste 2600",Los Angeles,CA,90036-5028,UNITED STATES,www.wejcorp.com
"W. Henry Schwab, Architect","37-28th Street, NW",Atlanta,GA,30309,UNITED STATES,
W. I. Van Campen Architect,73 North Walnut Street,Beacon,NY,12508,UNITED STATES,
"W. J. Nolan, AIA","721 Papworth Ave , Ste 203",Metairie,LA,70005-4925,UNITED STATES,
"W. Kelly Oliver Architect, LLC",9602 E Orchard Dr,Greenwood Village,CO,80111-3503,UNITED STATES,
"W. Lerman Architecture, LLC",121 State Route 36 Fl 2,West Long Branch,NJ,07764-1454,UNITED STATES,www.wlermanarchitecture.com
"W. Lewis Barlow, IV and Architects, Inc.",41 Hawkes St,Marblehead,MA,01945-3142,UNITED STATES,
"W. Mark Gunderson, Architect","919 Summit Ave , Ste 200",Fort Worth,TX,76102-3480,UNITED STATES,
"W. Michael Davis, Architect",210 Skyline Dr,Brentwood,TN,37027-5303,UNITED STATES,www.wmdavisarchitect.com
"W.A. Brown & Associates, P.C.","21515 Ridgetop Cir , Ste 145",Sterling,VA,20166-6509,UNITED STATES,www.wabrownarchitects.com
"W.C. Ralston Architects, LLC",3684 Centerview Dr Ste 110,Chantilly,VA,20151-4301,UNITED STATES,www.wcralston.com/
W.G. Pitts Company,"7807 Baymeadows Rd E , Ste 403",Jacksonville,FL,32256-9668,UNITED STATES,www.wgpitts.com
W.J. Benjamin & Assoc.,176 Hanapepe Lp.,Honolulu,HI,96825-2110,UNITED STATES,
W.J. Wolczynski Architects,136 S Ridgedale Ave,East Hanover,NJ,07936-1808,UNITED STATES,
W2A Design Group,"609 Hamilton St Ste 200, Hamilton Mall, Suite # 200",Allentown,PA,18101-2111,UNITED STATES,www.w2adesign.com
"WA Architects, Inc.","611 N 10th St , Ste 600",Saint Louis,MO,63101-1232,UNITED STATES,www.wa-architectsinc.com
"WA, Inc. architects","807 Broadway St , Fl 2",Cincinnati,OH,45202-1363,UNITED STATES,wa-inc.biz
Waddell + Associates,17526 Madison Ave,Lakewood,OH,44107-3541,UNITED STATES,
Waddill Group,"4925 Greenville Ave , Ste 200",Dallas,TX,75206-0500,UNITED STATES,www.waddill.com
Wade Architecture,"13200 Fountain Head Plaza, Suite #103",Hagerstown,MD,21742,UNITED STATES,www.wade-architecture.com
Wade Architecture,13200 Fountain Head Plz Ste 103,Hagerstown,MD,21742-3607,UNITED STATES,wade-architecture.com
Wade Architecture LLC,"13200 Fountain Head Plaza
Ste 103",Hagerstown,MD,21742,UNITED STATES,www.wade-architecture.com
Wade Weissmann Architecture,"124 South Highland Avenue, Suite #208",Pittsburgh,PA,15206,UNITED STATES,
Wade Weissmann Architecture Inc.,8655 N Deerwood Dr,Milwaukee,WI,53209-1310,UNITED STATES,www.weissmannarchitecture.com
"Wadia Associates, LLC",134 Main ST,New Canaan,CT,06840-5512,UNITED STATES,www.wadiaassociates.com
Wadsworth Kamm Architects,256 Williams St E,Glastonbury,CT,06033-2304,UNITED STATES,www.wadsworthkamm.com
"Waechter Architects, PC",4712 N Ravenswood Ave,Chicago,IL,60640-4408,UNITED STATES,www.w-arch.com
Waechter Architecture,3928 N Williams Ave,Portland,OR,97227-1445,UNITED STATES,www.waechterarchutecture.com
Waechter Architecture,"4224 N Mississippi Ave
Ste 201",Portland,OR,97217,UNITED STATES,www.benwaechter.com
"Waga Enterprises-Architects, LLC",2109 Saint Georges Ave,Rahway,NJ,07065-2060,UNITED STATES,www.wearchitects.com
Waggonner & Ball Architecture/Environment,2200 Prytania Street,New Orleans,LA,70130,UNITED STATES,www.wbae.com
"Waggonner & Ball, LLC",2200 Prytania St,New Orleans,LA,70130-5804,UNITED STATES,www.wbae.com
Wagner Murray Architects,"720 S. Summit Avenue, Suite B",Charlotte,NC,28208,UNITED STATES,www.wagnermurray.com
Wagner Zaun Architecture,1331 E 11th ST,Duluth,MN,55805-1561,UNITED STATES,
Wah Yee Associates,37911 W 12 Mile Rd,Farmington Hills,MI,48331-3035,UNITED STATES,www.wahyeeassoc.com
Wah Yee Associates,"42400 Grand River Ave , Ste 200",Novi,MI,48375-2573,UNITED STATES,www.wahyeeassoc.com
"Wahl Architects, LLC.",8404 Peck Pl,Bethesda,MD,20817-2726,UNITED STATES,
"Waite International Conservation Architects  AIA, RIBA",111 Elm St,Edmonds,WA,98020-4105,UNITED STATES,
Wakako Tokunaga Architecture,509 Albany Ave,Takoma Park,MD,20912-4139,UNITED STATES,
Wakefield Beasley & Associates,5200 Avalon Blvd,Alpharetta,GA,30009-2209,UNITED STATES,www.wakefieldbeasley.com
Wakefield Beasley & Associates,5200 Avalon Blvd,Alpharetta,GA,30009-2209,UNITED STATES,www.wbassociates.com
Wakely Associates A/E Inc.,"30500 Van Dyke Ave , Ste M7",Warren,MI,48093-2108,UNITED STATES,www.wakelyaia.com
"Walcott Adams Verneuille Architects, Inc.",1 S School St,Fairhope,AL,36532-2139,UNITED STATES,www.wavarchitects.com/
