Firm Name,Address Line 1,City,State,Zip Code,Country,Firm URL
MWDC,609 Lucas Drive,Blacksburg,VA,24060,UNITED STATES,www.mwdc.co
"MWM Architects, Inc.",2022 Broadway,Lubbock,TX,79401-3020,UNITED STATES,www.mwm-arch.com
"MWM Architects, Inc.",2022 Broadway,Lubbock,TX,79401-3020,UNITED STATES,www.mwm-arch.com
MWM Design Group,"9001 North Interstate Highway 35, Unit #102",Austin,TX,78753,UNITED STATES,www.mwmdesigngroup.com
MWM DesignGroup,"305 E Huntland Dr , Ste 200",Austin,TX,78752-3730,UNITED STATES,www.mwmdesigngroup.com
MWT Architects,"5820 Main St , Ste 501",Williamsville,NY,14221-8232,UNITED STATES,hotelplans.com
"My Architect, LLC","504 Main Street
Suite 480",Lewiston,ID,83501-1819,UNITED STATES,www.myarchitect.com
mYamaguchi Architect,6718 Sycamore Ave Nw,Seattle,WA,98117-4848,UNITED STATES,www.yamarch.com
myDNA Architecture & Design LLC,"1110 N. Pleasant View Rd, #205",Middleton,WI,53562,UNITED STATES,
Myefski Architects Inc.,"400 N Michigan Ave, Suite 400",Chicago,IL,60611,UNITED STATES,www.myefski.com
Myers Anderson Architects PLLC,122 S Main St Suite 1,Pocatello,ID,83204-4985,UNITED STATES,www.myersanderson.com
Myers Architecture,5058 Harold Pl NE,Seattle,WA,98105-2809,UNITED STATES,www.myerspartners.com
"Myers Architecture, PLLC",8003 Sea Hero Run,Versailles,KY,40383-8801,UNITED STATES,www.myersarchitecture.com
Myles Architecture,"134 W 26th St , Rm 740",New York,NY,10001-6803,UNITED STATES,
Myles Trudell Architect LLC,"18 Broad Street, Suite #203",Charleston,SC,29401,UNITED STATES,www.mylestrudell.com
Myles W. Glynn & Associates,321 Grand Ave,Long Beach,CA,90814-2739,UNITED STATES,
Myron A. Kusnitz Architect,3632 Sepulveda Blvd,Sherman Oaks,CA,91403-4728,UNITED STATES,
"Myrvang Architects, Inc.",PO Box 1018,Christiansted,VI,00821-1018,UNITED STATES,www.myrvangarchitects.com
MZA,"600 108th Ave NE , Ste 108",Bellevue,WA,98004-5110,UNITED STATES,www.mza-us.com
MZA,1911 116th Avenue Northeast,Bellevue,WA,98004,UNITED STATES,www.mza-us.com
MZA Architecture,"600 108th Ave NE , Ste 108",Bellevue,WA,98004-5110,UNITED STATES,www.mza-us.com
MZO Architectural Group Inc.,"335 Main St , Ste 201",Stoneham,MA,02180-3571,UNITED STATES,www.mzogroup.com
MZO Architectural Group Inc.,"92 Montvale Ave , Ste 2400",Stoneham,MA,02180-3667,UNITED STATES,www.mzogroup.com
"M|P Design Group, PLLC","918 Howard Ave , Ste F",Biloxi,MS,39530-4118,UNITED STATES,www.mpeng.us
N Thomas Warner Architect Inc,847 Mountain Rd,Bridport,VT,05734-9507,UNITED STATES,
N Visions Architects,83 Olde Main Plz,Saint Albans,WV,25177-2707,UNITED STATES,www.n-visions.com
"N-Y Associates, Inc.",2750 Lake Villa Dr,Metairie,LA,70002-6786,UNITED STATES,www.n-yassociates.com
"N. Christopher - Architectural Specifications, P.C.",15662 Ridge Rd W,Kent,NY,14477-9742,UNITED STATES,
N. Fay AIA,"19229 Index St , Unit 1",Porter Ranch,CA,91326-3730,UNITED STATES,
"N. J. Cifaretto, AIA, Architect","170 Changebridge Rd , Ste C-1",Montville,NJ,07045-9115,UNITED STATES,
N. J. White Associates,117 Howard St,Petoskey,MI,49770-2682,UNITED STATES,www.nickwhite.com
N.E.E.D. Architecture LLC,14 High St,Demarest,NJ,07627-1607,UNITED STATES,www.n-e-e-d.org
N.J. White & Associates,117 Howard St,Petoskey,MI,49770-2682,UNITED STATES,www.nickwhite.com
"N.K. BHANDARI, Architecture & Engineering, P.C.","1020 7th North St., Ste. 130",Liverpool,NY,13088,UNITED STATES,www.nkbpc.com
N/A (Not employed at the present),N A N A N A,N A,FL,,UNITED STATES,
N2 Architecture + Design,"2081 SE Ocean Blvd , Ste 1A",Stuart,FL,34996-3326,UNITED STATES,n2archdesign.com
"N2 Design & Architecture, P.C.","315 Main St , Fl 2",Port Washington,NY,11050-2705,UNITED STATES,www.n2design.net
"N2Design & Architecture, PC","403 Main St , Ste 3",Port Washington,NY,11050-3170,UNITED STATES,www.n2design.net
na,na,Woodside,NY,11377,UNITED STATES,
NAC Architecture,"837 N Spring St , Fl 3",Los Angeles,CA,90012-2377,UNITED STATES,www.nacarchitecture.com
NAC Architecture,837 N Spring St 3rd Fl,Los Angeles,CA,90012-2323,UNITED STATES,www.nacarchitecture.com
NAC Architecture,"2025 1st Ave , Ste 300",Seattle,WA,98121-3131,UNITED STATES,www.nacarchitecture.com
NAC Architecture,1203 W Riverside Ave,Spokane,WA,99201-1107,UNITED STATES,www.nacarchitecture.com
NAC Architecture,2025 1St Ave Ste 300,Seattle,WA,98121-3131,UNITED STATES,www.nacarchitecture.com
NAC Architecture,"2025 1st Ave , Ste 300",Seattle,WA,98121-3131,UNITED STATES,www.nacarchitecture.com
Nacht & Lewis Architects,600 Q St Ste 100,Sacramento,CA,95811-6353,UNITED STATES,www.nlarch.com
NAC|Architecture,6074 S Krameria St,Centennial,CO,80111-4274,UNITED STATES,www.nacarchitecture.com
"NADAAA, Inc.",1920 Washington St,Boston,MA,02118-3262,UNITED STATES,www.nadaaa.com
"Nadel Architects, Inc.",1990 S Bundy Dr Fl 4,Los Angeles,CA,90025-5240,UNITED STATES,www.nadelarc.com
Nader Design Group,554 S Sugartree Drive,Lipan,TX,76462,UNITED STATES,www.naderdesign.com
