Firm Name,Address Line 1,City,State,Zip Code,Country,Firm URL
HKS,"602 N Acadia Rd , # B",Thibodaux,LA,70301-4823,UNITED STATES,
HKS,379 W Broadway,New York,NY,10012,UNITED STATES,www.hksinc.com
HKS,"350 N Saint Paul St, #100",Dallas,TX,75201,UNITED STATES,www.hksinc.com
HKS,225 E Robinson St Ste 405,Orlando,FL,32801-4303,UNITED STATES,www.hksinc.com
HKS,"999 18th Street, North Tower, STE 2255N",Denver,CO,80202,UNITED STATES,www.hksinc.com
HKS,125 S Clark ST Ste 1100,Chicago,IL,60603-5200,UNITED STATES,
HKS,"712 Main St , Ste 1200",Houston,TX,77002-3262,UNITED STATES,www.hksinc.com
HKS,"125 S Clark St , Ste 1100",Chicago,IL,60603-5200,UNITED STATES,www.hksinc.com/
HKS Architects,225 E Robinson,Orlando,FL,32801,UNITED STATES,www.hksinc.com
HKS Architects,"712 Main Street, Suite 1200, Suite 1200",Houston,TX,77002,UNITED STATES,
HKS Architects,2100 E Cary St Ste 100,Richmond,VA,23223-7270,UNITED STATES,www.hksinc.com
HKS Architects,"111 W Washington St , Ste 1700",Chicago,IL,60602-2699,UNITED STATES,www.hksinc.com
HKS Architects,7 Soho Square,London,,W1D 3QB,UNITED KINGDOM,
HKS Architects,14019 Tiger Bend Rd,Baton Rouge,LA,70817-4602,UNITED STATES,www.hksinc.com
HKS Architects,"350 N St. Paul Street, Suite 100",Dallas,TX,75201,UNITED STATES,www.hksinc.com/
HKS Architects,"10880 Wilshire Blvd , Ste 1850",Los Angeles,CA,90024-4115,UNITED STATES,www.hksinc.com
HKS ARCHITECTS (CHINA) LTD.,"Units [2901-08&14-16], Floor [29]
One ICC, No. 999, Middle Huai Hai Road",Shanghai,,200031,CHINA,www.hksinc.com
"HKS Architects, Inc.","225 East Robinson Street, Suite #405",Orlando,FL,32801,UNITED STATES,www.hksinc.com
"HKS Architects, Inc.",10680 Wilshire Blvd # 1850,Los Angeles,CA,90024,UNITED STATES,www.hksinc.com
"HKS Architects, Inc.","222 East Robinson Street, Suite #405",Orlando,FL,32801,UNITED STATES,www.hksinc.com
"HKS Architects, Inc.",100 N Tampa St Ste 2450,Tampa,FL,33602-3638,UNITED STATES,www.hksinc.com
"HKS Architects, Inc.",539 Bryant ST Ste 100,San Francisco,CA,94107-1269,UNITED STATES,www.hksinc.com
"HKS Architects, Inc.",222 S Main St Ste 200,Salt Lake City,UT,84101,UNITED STATES,www.hksinc.com
"HKS Architects, Inc.",10880 Wilshire Blvd Ste 1850,Los Angeles,CA,90024-4115,UNITED STATES,www.hksinc.com
"HKS Architects, P.C.",235 E Main St Ste 102C,Northville,MI,48167,UNITED STATES,hksinc.com
"HKS Asia Pacific Design Consulting PTE., LTD.",51 Duxton Road,Singapore,,089515,SINGAPORE,www.hksinc.com
HKS Inc,"3445 Peachtree Rd NE , Ste 675",Atlanta,GA,30326-3221,UNITED STATES,www.hksinc.com
HKS Inc,"350 N Saint Paul St , Ste 100",Dallas,TX,75201-4200,UNITED STATES,www.hksinc.com
HKS Inc,235 E Main St. #102 C,Northville,MI,48167,UNITED STATES,www.hksinc.com
HKS Inc,,,,,,www.hksinc.com
HKS Inc,"1250 I St NW , Ste 600",Washington,DC,20005,UNITED STATES,www.hksinc.com
HKS inc.,"539 Bryant St , Ste 100",San Francisco,CA,94107-1269,UNITED STATES,www.hksinc.com
HKS Inc.,2100 E Cary St,Richmond,VA,23223-7270,UNITED STATES,www.hksinc.com
HKS Inc.,"2100 E Cary St , Ste 100",Richmond,VA,23223-7270,UNITED STATES,www.hksinc.com
HKS Inc.,"125 S. Clark St., #1100",Chicago,IL,60603,UNITED STATES,www.hksinc.com/
HKS Inc.,712 Main St. Suite 1200,Houston,TX,77002,UNITED STATES,www.hksinc.com
HKS Inc.,"1250 I St NW , Ste 600",Washington,DC,20005-5930,UNITED STATES,www.hksinc.com
HKS Inc.,"712 Main St, 1200",Houston,TX,77002-3201,UNITED STATES,www.hksinc.com
HKS Inc.,"10880 Wilshire Blvd , Ste 1850",Los Angeles,CA,90024-4115,UNITED STATES,www.hksinc.com/offices/los-angeles/
HKS PC,"1250 I St NW , Ste 600",Washington,DC,20005-5930,UNITED STATES,www.hksinc.com
"HKS, Inc","350 N Saint Paul St , Ste 100",Dallas,TX,75201,UNITED STATES,www.hksinc.com
"HKS, Inc",1250 I St Nw,Washington,DC,20005-3922,UNITED STATES,www.hksinc.com
"HKS, Inc.","1250 I St NW, #600",Washington,DC,20005,UNITED STATES,www.hksinc.com
"HKS, Inc.","10500 NE 8th St , Ste 800",Bellevue,WA,98004-4351,UNITED STATES,
"HKS, Inc.",1227 W Magnolia Ave Ste 200,Fort Worth,TX,76104,UNITED STATES,www.hksinc.com
"HKS, Inc.",2100 E Cary St Ste 100,Richmond,VA,23223-7270,UNITED STATES,www.hksinc.com
"HKS, Inc.",10880 Wilshire Ste 1850,Los Angeles,CA,90024,UNITED STATES,www.hksinc.com
"HKS, INC.","225 E Robinson St , Ste 405",Orlando,FL,32801-4303,UNITED STATES,www.hksinc.com
"HKS, Inc.","3280 Peachtree Road Northeast, Suite #900",Atlanta,GA,30305,UNITED STATES,www.hksinc.com
"HKS, Inc.","999 18th ST, North Tower, Suite 2255N",Denver,CO,80202-2499,UNITED STATES,www.hksinc.com
