Firm Name,Address Line 1,City,State,Zip Code,Country,Firm URL
Powe Studio Architects PC,"1189 Parker Street, #97",Upperville,VA,20184,UNITED STATES,www.powestudioarchitects.com
Powell Architecture,"1808 Memorial Cir , Ste A",Clarksville,TN,37043-4528,UNITED STATES,www.powellarc.com
Powell Architecture,812 Rhode Island St,San Francisco,CA,94107-2611,UNITED STATES,www.bokapowell.com
Powell Dudley Firth Architects,200 Brooks St,Laguna Beach,CA,92651-2974,UNITED STATES,
Power Architects LLC,362 Ferguson St NE,Atlanta,GA,30307-2085,UNITED STATES,
"POWER Engineers, Inc.",PO Box 1066,Hailey,ID,83333-1066,UNITED STATES,www.powereng.com
Powers Bowersox Associates Inc.,7401 Clayton RD,Clayton,MO,63117-1416,UNITED STATES,www.powersbowersox.com
Powers Brown Architecture,"150 S Washington St , Ste 301",Falls Church,VA,22046-2921,UNITED STATES,www.powersbrown.com
Powers Brown Architecture,"1580 N Lincoln St , Ste 400",Denver,CO,80203-1506,UNITED STATES,www.powersbrown.com
Powers Brown Architecture,"2100 Travis, Suite 501",Houston,TX,,UNITED STATES,
Powers Brown Architecture,"2100 Travis St , Ste 501",Houston,TX,77002-8770,UNITED STATES,www.powersbrown.com
Powers Brown Architecture,"2100 Travis Street, Suite 501",Houston,TX,77002,UNITED STATES,www.powersbrown.com
PowersSchram,9 Calvin Rd,Jamaica Plain,MA,02130-3414,UNITED STATES,
PPA Architecture,1974A Douglass Blvd,Louisville,KY,40205-1868,UNITED STATES,www.pickarch.com
"PPK Architects, P.C.","444 N Main St , Ste 200",Glen Ellyn,IL,60137-5118,UNITED STATES,www.ppkarchitects.com
PQH Group,4141 Southpoint Dr E,Jacksonville,FL,32216-8060,UNITED STATES,www.pqh.com/
"PQH Group, Inc.",4141 Southpoint Dr E Ste 200,Jacksonville,FL,32216-8061,UNITED STATES,www.pqh.com
Practice,135 W Green St Ste 200,Pasadena,CA,91105-4131,UNITED STATES,www.gonzalezgoodale.com
Practice of Architecture,517 Mcbride DR,Lafayette,CA,94549-5717,UNITED STATES,practiceofarchitecture.com/
practis,3450 Magazine Street,New Orleans,LA,70115,UNITED STATES,practis.design
Prairie Centre Architecture PLLC,"214 Briggs Ave S.
PO Box 235",Park River,ND,58270,UNITED STATES,
"Prairie Wind Architecture, PC",PO Box 626,Lewistown,MT,59457-0626,UNITED STATES,
"Prairie Works Design, INC.",1678 Cheyenne Rd,Moundridge,KS,67107-7492,UNITED STATES,www.pwdstudios.com
"Prater Architects, Inc.",12776 Jordan Ridge Court,San Diego,CA,92130,UNITED STATES,www.praterarch.com
Pratt Architecture,"1207 13th St , Ste 6",Modesto,CA,95354-0934,UNITED STATES,www.prattarch.com
"Pratt Design Studio, Ltd.","4619 N Ravenswood Ave , Ste 300",Chicago,IL,60640-4579,UNITED STATES,www.prattdesign.com
PRAVDA ARCHITECTURE/ DESIGN,"3505 S Ocean Dr , Apt 1417",Hollywood,FL,33019-2820,UNITED STATES,www.pravdaarchitecture.com
Pravin Sheth Associates,5140 Oakbrooke Dr,West Bloomfield,MI,48323-3551,UNITED STATES,
Praxis Architecture,278 NW 37th St,Miami,FL,33127-3138,UNITED STATES,www.praxisarch.com
Praxis Design/ Build,920 Barchetta Dr,College Station,TX,77845-4339,UNITED STATES,www.praxisdb.net
PRAXIS3,100 Peachtree ST NW # Suite1450,Atlanta,GA,30303-1906,UNITED STATES,www.praxis3.com/p3/
"PRD, Inc.","10440 Valley Forge Dr , Apt 9",Houston,TX,77042-1918,UNITED STATES,prd.managebuilding.com
PRDG architecture + design,"330 W 38th St , Rm 708",New York,NY,10018-8474,UNITED STATES,www.prdg.net
PRDG PC,PO Box 16328,Seattle,WA,98116-0328,UNITED STATES,www.prdg.net
"PRDG, LLC","3535 Travis St , Ste 265",Dallas,TX,75204-1465,UNITED STATES,www.prdgarch.com
"Precision Concepts, Inc.","1140 US Highway 287 , Ste 400-272",Broomfield,CO,80020-7080,UNITED STATES,
"Precision Designs Architecture, P.C.",52 Commerce Dr,Farmingdale,NY,11735-1206,UNITED STATES,www.pdarch.com
"Precision Planning, Inc.",PO Box 2210,Lawrenceville,GA,30046-2210,UNITED STATES,www.ppi.us
Preis & Associates Architects Planners & Construc. Consult. Intl.,47-344 Mawaena St,Kaneohe,HI,96744-4721,UNITED STATES,www.preisarchitectsplanners.com
"Preiss Breismeister, P.C.","39 Wall St , Ste 1",Norwalk,CT,06850-3423,UNITED STATES,www.pbarchts.com
Prellwitz Chilinksi Associates,221 Hampshire St,Cambridge,MA,02139-1306,UNITED STATES,www.prellwitzchilinski.com/
Prellwitz Chilinski Associates,221 Hampshire St,Cambridge,MA,02139-1306,UNITED STATES,www.prellchil.com
Prellwitz Chilinski Associates,221 Hampshire St,Cambridge,MA,02139-1306,UNITED STATES,www.prellwitzchilinski.com
"Premier Presentations, PLLC",8689 Nottingham Ter,Buffalo,NY,14221-7520,UNITED STATES,premierpresentations.com
Prendergast Laurel Architects,"143 Duane St , Apt 2",New York,NY,10013-3878,UNITED STATES,www.prendergast-laurel.com
Prentiss + Balance + Wickline Architects,224 W Galer St,Seattle,WA,98119-3066,UNITED STATES,pbwarchitects.com
"Prescott Muir Architects, P.C.",171 W Pierpont Ave,Salt Lake City,UT,84101-1902,UNITED STATES,www.prescottmuir.com/
Preservation Design Partnership,"2979 W School House Ln, Kenilworth K1104",Philadelphia,PA,19144-5356,UNITED STATES,www.pdparchitects.com
Preservation Design Partnership,"10 Shurs Ln , Ste 104",Philadelphia,PA,19127-2123,UNITED STATES,www.pdparchitects.com
"Preservation Design Partnership, LLC","30 S 17th St , Ste 1301",Philadelphia,PA,19103-4009,UNITED STATES,www.pdparchitects.com
