Firm Name,Address Line 1,City,State,Zip Code,Country,Firm URL
"Red House Workshop, LLC",2211 Dahl Ln,Anchorage,AK,99503-1725,UNITED STATES,redhouseworkshop.com
RED Inc. Architects,1217 J St,Modesto,CA,95354-0933,UNITED STATES,www.redincarchitects.com
Red Iron Architects,4591 Durant Avenue,North Charleston,SC,29405,UNITED STATES,www.red-ironarchitects.com
Red Line Architects,266 Sterling Ln,Bloomingdale,IL,60108-1930,UNITED STATES,www.redlinearch.com
Red Oxide Studio,619 Micheltorena St,Los Angeles,CA,90026-3622,UNITED STATES,
Red Prairie Design Group,PO Box 21565,Oklahoma City,OK,73156-1565,UNITED STATES,www.redprairiedg.com
Reddy Architecture PLLC,80 W 3Rd St Fl 2,New York,NY,10012-1008,UNITED STATES,www.reddymadedesign.com
"Redicheck Firm, LLC","109 Greensway , # 100",Peachtree City,GA,30269-1359,UNITED STATES,www.redicheck-review.com
"Redland Childers Architects, PC","117 N Broadway Ave , Ste 207",Ada,OK,74820-5052,UNITED STATES,www.rcada.com
"Redline Architecture, LLC","1119 Flores Ave , Ste 200",Laredo,TX,78040-6371,UNITED STATES,www.redlinearchitecture.com
Redline Design,"1023 W Morehead St , Ste 22O",Charlotte,NC,28208-5324,UNITED STATES,www.redlinedg.com
Redline Design Group,925 tuckaseegee rd. suite 110,Charlotte,NC,28208-5341,UNITED STATES,www.redlinedg.com
Redline Design Group,925 TUCKASEEGEE RD # 110,Charlotte,NC,28208,UNITED STATES,www.redlinedg.com/
"Redstone Architects, Inc.",2709 S Telegraph Rd,Bloomfield Hills,MI,48302-1008,UNITED STATES,www.redstonearchitects.com
"Redtop Architects, LLP","29 W 17th St , Fl 4",New York,NY,10011-5508,UNITED STATES,www.redtoparchitects.com
Redwoods Design Studio,"50 E Palisade Ave , Ste 409",Englewood,NJ,07631-2943,UNITED STATES,redwoodsdsa.com
Reece & Rowe,4343 E Avalon Dr,Phoenix,AZ,85018-7209,UNITED STATES,www.rararchitects.com
Reece Design LLC,120 Lake Forrest Ln NE,Atlanta,GA,30342-3210,UNITED STATES,
REED A MORRISON ARCHITECT,1 Sheridan SQ Apt 8B,New York,NY,10014-6826,UNITED STATES,reedmorrisonarchitect.com
Reed Architects,7920 Scott Ave,Liberty,MO,64068-7939,UNITED STATES,www.wineflower.com
Reed Architectural Firm,417 W 6Th Ave,Pine Bluff,AR,71601-4153,UNITED STATES,www.reedarchitecturalfirm.com
Reed Architectural Group,657 Rose Ave,Venice,CA,90291-2716,UNITED STATES,reedarchgroup.com
Reed Architecture and Interiors,18 E Hobson Ave,Sapulpa,OK,74066-2806,UNITED STATES,www.sparksreed.com
Reed Rubey Architect,"174 Hudson St, Fl 4",New York,NY,10013-1522,UNITED STATES,www.reedrubeyarchitect.com
Reedy and Sykes Architecture and Design,613 E Elk Ave,Elizabethton,TN,37643-3329,UNITED STATES,www.reedyandsykes.com
ReelGrobman & Associates,96 N 2nd St,San Jose,CA,95113-1204,UNITED STATES,
Rees Architects LLC,3700 E High Ln,Seattle,WA,98112-5004,UNITED STATES,www.reesarch.com
"Rees Associates, Inc.",9211 Lake Hefner Pkwy Ste 300,Oklahoma City,OK,73120-2073,UNITED STATES,www.rees.com
"Rees Associates, Inc.",1025 N Stemmons Fwy Ste 737,Dallas,TX,75207-3741,UNITED STATES,www.rees.com
"Reese Design Collaborative, Inc.","445 Baxter Ave , Ste 250",Louisville,KY,40204-1781,UNITED STATES,www.reesedesign.com
"Reese Owens Architects, LLC",PO Box 410,Washington Depot,CT,06794-0410,UNITED STATES,www.halperowens.com
"reform, llc",4348 Blagden Ave NW,Washington,DC,20011-4238,UNITED STATES,www.reformarch.com
"reform, llc",4348 Blagden Ave NW,Washington,DC,20011-4238,UNITED STATES,www.reformarch.com
REG Architects,"120 South Olive Avenue , Ste. 210",West Palm Beach,FL,33401,UNITED STATES,www.regarchitects.com
REG Architects Inc.,"120 S Olive Ave , Ste 210",West Palm Beach,FL,33401-5514,UNITED STATES,www.regarchitects.com
rega+d,185 I St,Boston,MA,02127-4113,UNITED STATES,
Regal Manor Inc.,PO Box 7367,Shrewsbury,NJ,07702-7367,UNITED STATES,
"Regan Kline Cross Architects, LLC","7670 Queen Street, Ste 200",Wyndmoor,PA,19038,UNITED STATES,www.reganklinecrossllc.com
REGAN YOUNG ENGLAND BUTERA,456 High St,Mount Holly,NJ,08060-1456,UNITED STATES,ryebread.com
"Regan, Young, England, Butera, P.C.",456 High St,Mount Holly,NJ,08060-1456,UNITED STATES,www.ryebread.com
"Regarding Architecture, LLC",2930 27th St N,Birmingham,AL,35207-4610,UNITED STATES,www.regardingarchitecture.com
Reginald L. Thomas Architect LLC,"415 Madison Ave , Fl 14",New York,NY,10017-7935,UNITED STATES,www.rltarchitects.com/
Regional Transit Partners,"2400 Piedmont Rd NE , Ste 300",Atlanta,GA,30324-3309,UNITED STATES,
"Rehkamp Larson Architects, Inc.",2732 W 43Rd St,Minneapolis,MN,55410-1656,UNITED STATES,www.rehkamplarson.com
Reid & Associates,"6300 Riverside Plaza Ln NW , Ste 220",Albuquerque,NM,87120-2617,UNITED STATES,www.reidandassociates.com
Reid Lerner Architect,PO Box 2437,Morgan Hill,CA,95038-2437,UNITED STATES,www.reidlerner.com
"Reid Smith Architects, P.C.",212 S Tracy Ave,Bozeman,MT,59715-4604,UNITED STATES,www.reidsmitharchitects.com
Reifsteck Reid & Company Architects,909 Arrow Rd.,Champaign,IL,61821,UNITED STATES,www.rr-arch.com
Reilly Johnson Architecture,"1775 N Sherman St , Ste 1320",Denver,CO,80203-1100,UNITED STATES,www.reillyjohnsonarchitecture.com
Reilly Johnson Architecture,"700 17th Street, Suite #1850",Denver,CO,80202,UNITED STATES,www.rjarch.com
