Firm Name,Address Line 1,City,State,Zip Code,Country,Firm URL
ESG Architecture and Design,500 Washington Ave S,Minneapolis,MN,55415-1149,UNITED STATES,www.esgarch.com/
Esherick Homsey Dodge And Davis,"500 Treat Ave , Ste 201",San Francisco,CA,94110-2068,UNITED STATES,www.ehdd.com
ESI Group USA,950 Walnut Ridge Dr,Hartland,WI,53029-9388,UNITED STATES,www.esidesignbuild.com
"Esin Pektas, Architect","2124 31st St , Apt 3M",Astoria,NY,11105-2626,UNITED STATES,
Eskew+Dumez+Ripple,"365 Canal St , Ste 3150",New Orleans,LA,70130-6524,UNITED STATES,www.studioedr.com
Eskew+Dumez+Ripple,365 Canal Street Suite 3150,New Orleans,LA,70130,UNITED STATES,www.eskewdumezripple.com/
Eskew+Dumez+Ripple,365 Canal St Ste 3150,New Orleans,LA,70130-6524,UNITED STATES,www.eskewdumezripple.com
Eskew+Dumez+Ripple,1701 Rhode Island Avenue Northwest,Washington,DC,20036,UNITED STATES,https://www.eskewdumezripple.com/
EskewDumezRipple,365 Canal ST Ste 3150,New Orleans,LA,70130-6524,UNITED STATES,www.eskewdumezripple.com
Eskilsson Architecture,"1932 1st Ave , Ste 815",Seattle,WA,98101-1040,UNITED STATES,
Eskin Associates,7J Taggart Dr,Nashua,NH,03060-5591,UNITED STATES,www.eskinarchitects.com
ESKW/A,100 Lafayette St,New York,NY,10013-4400,UNITED STATES,www.edelmansultan.com
ESKYIU Ltd.,"16th Floor, Kin Tech Ind Bldg, 26 Wong Chuk Hang Rd",Wong Chuk Hang,,,CHINA,
ESM Architects Inc.,211 E Main St,Mason,OH,45040-1919,UNITED STATES,www.esmarchitects.com
Esocoff & Associates Architects,3005 Normanstone Dr NW,Washington,DC,20008-2727,UNITED STATES,www.esocoff.com
ESPA Architects & Planners,"2638 Willard Dairy Rd
Ste 100",High Point,NC,27265,UNITED STATES,www.efirdsutphin.com
Espacio Architectural Inc.,Ashford Ave. 996 Ste B,San Juan,PR,00907,UNITED STATES,
"Espinal Architects, LLC",1903 Northwood Ct,Pearland,TX,77581-6623,UNITED STATES,www.espinalarchitects.com
Essalat Architects,312 N San Mateo Dr,San Mateo,CA,94401-2182,UNITED STATES,
Essenza Architecture,"685 S Arthur Ave , Unit 12B",Louisville,CO,80027-3141,UNITED STATES,www.essenza-arch.com
"Esterly, Schneider & Associates, Inc.",1736 E Sunshine St Ste 417,Springfield,MO,65804-1328,UNITED STATES,www.esterlyschneider.com
Estes Twombly Architects Inc,79 Thames St,Newport,RI,02840-2530,UNITED STATES,www.estestwombly.com
Estudio Noir Architecture DPC,230 Stratford Rd,Brooklyn,NY,11218-4316,UNITED STATES,www.estudionoir.com
"estudioHACEDOR, PSC","#6 Calle Joffre, 8A, Condado",San Juan,PR,00907,UNITED STATES,
ET Architecture,2 Innisfree Dr,Durham,NC,27707-5068,UNITED STATES,
ETAL,19 Granville Rd,Lincoln,MA,01773-3103,UNITED STATES,etalstudio.com
Etelamaki Architecture,"540 President St , Ste 2J",Brooklyn,NY,11215-1492,UNITED STATES,etelamakiarchitecture.com
"Ethelind Coblin Architect, P.C.","505-8th Avenue, Suite 2202",New York,NY,10018,UNITED STATES,www.eca.nyc
"Ethos Design Group, Inc.",,,,,UNITED STATES,www.ethos.archi
ETHOS WORKSHOP ARCHITECTS,"105 West Jackson Avenue, Suite 2",Naperville,IL,60540-7960,UNITED STATES,www.ethosworkshop.com
ethos|three architecture,8985 S Eastern Ave Ste 220,Las Vegas,NV,89123-4852,UNITED STATES,www.ethosthree.com
Etin Design LLC,104 Colinsburgh Ct,Cary,NC,27518-9030,UNITED STATES,www.etindesign.com
EUA,"1899 Wynkoop St , Ste 300",Denver,CO,80202-1008,UNITED STATES,www.burkettdesign.com
Eubanks Group Architects,4116 Center St,Houston,TX,77007-5612,UNITED STATES,www.eubanks-architects.com
"Eubanks Harris Roberts Craig Architects, Inc.",1530 E Grande Blvd,Tyler,TX,75703-3978,UNITED STATES,www.eharchitects.com
Eugene Architecture,"1133 Broadway
Suite 802",New York,NY,10010,UNITED STATES,www.rowellbrokaw.com
"Eugene E. Burr, AIA, AICP Architect-Planner",3621 Maloney Rd,Knoxville,TN,37920-4755,UNITED STATES,
Eugene J. Thibodeaux- Architect Planner,202 Ardoyne Dr,Houma,LA,70360-7949,UNITED STATES,
Eugene Khananov Architect,"180 Varick St , Rm 419",New York,NY,10014-5437,UNITED STATES,www.ffarch.com
Eugene Stoltzfus Architects,"61 S Main St , Ste 300",Harrisonburg,VA,22801-3716,UNITED STATES,www.eugenestoltzfus.com
Eugenio Fernandez Architects,PO Box 3423,Guaynabo,PR,00970-3423,UNITED STATES,www.studio-umbra.com
Euk Kwon Architect PLLC,1229 Diane Pl,Bayside,NY,11360-1290,UNITED STATES,
Eunice Murray Architect,3408 Fiddlers Grn,Falls Church,VA,22044-1239,UNITED STATES,
"EV&A Architects, Inc.","1160 N Town Center Dr , Ste 170",Las Vegas,NV,89144-0562,UNITED STATES,
EVA Architecture,2558 NW Marcia St,Portland,OR,97210-2812,UNITED STATES,www.evapdx.com/index.php?fuseaction=main.home
Eva Jensen Design LLC,"4332 22nd St , Ste 402-1",Long Island City,NY,11101-5075,UNITED STATES,www.evajensendesign.com
"evan chan architect, PC","265 Canal St , Ste 307",New York,NY,10013-6010,UNITED STATES,www.evanchanarchitect.com
Evan Lloyd Associates Inc,1630 S 6th St,Springfield,IL,62703-2598,UNITED STATES,www.evanlloydarchitects.com
"Evan Terry Associates, LLC",1 Perimeter Park S Ste 200-S,Birmingham,AL,35243-2327,UNITED STATES,www.evanterry.com
Evans & Associates Architecture,11576 S State St,Draper,UT,84020-6431,UNITED STATES,
