Firm Name,Address Line 1,City,State,Zip Code,Country,Firm URL
Work Program Architects,"400 Granby Street, Suite #301",Norfolk,VA,23510,UNITED STATES,www.wparch.com
Work Program Architects,"400 Granby Street, Suite #301",Norfolk,VA,23510,UNITED STATES,www.wparch.com
WORKPLAYS Studio * Architecture,"8254 Fountain Ave , Apt A",West Hollywood,CA,90046-8406,UNITED STATES,www.workplays.com
WORKSBUREAU,2524 N 24Th St,Phoenix,AZ,85008-1806,UNITED STATES,www.worksbureau.com
Workshop 315,8821 22ND AVE SW,Seattle,WA,98106,UNITED STATES,www.workshop315.com
"Workshop AD, LLC","911 Western Ave , Ste 215",Seattle,WA,98104-1071,UNITED STATES,www.workshopad.com
Workshop apd,"39 west 38th street, 7th floor",New York,NY,10018,UNITED STATES,www.workshopapd.com/
Workshop Architects,201 E Pittsburgh Ave Ste 301,Milwaukee,WI,53204-4339,UNITED STATES,www.workshoparchitects.com
"Workshop Design Collective, Inc.","1010 Sycamore Avenue, 208",South Pasadena,CA,91030,UNITED STATES,www.workshopdesigncollective.com
Workshop for Architecture LLC,5275 Sycamore Ave,Bronx,NY,10471-2835,UNITED STATES,www.wfora.com
WORKSHOP-HI LLC,"1111 Nuuanu Ave , Ste 211",Honolulu,HI,96817-5183,UNITED STATES,www.workshop-hi.com
Workshop/APD Architecture DPC,"39 W 38th St , Fl 7",New York,NY,10018-1922,UNITED STATES,www.workshopapd.com
WORKSHOP8,3014 BLUFF â€” 200,Boulder,CO,80301,UNITED STATES,www.workshop8.us/home
Workshop: Architecture,PO Box 11563,Chattanooga,TN,37401,UNITED STATES,
"World Design, Inc.",818 13th St W,Bradenton,FL,34205-7425,UNITED STATES,www.wdiarchitects.com
Worley Associates Architects,908 N Thompson St,Richmond,VA,23230-4909,UNITED STATES,www.worleyassociates.com
"Worn Jerabek Wiltse Architects, P.C.","401 W Superior St , Ste 400",Chicago,IL,60654-3430,UNITED STATES,www.wjwarchitecture.com
Worth Group Architects,"5245 Ponderosa Way , Ste B-110",Las Vegas,NV,89118-2867,UNITED STATES,www.worthgroup.com
Worth Group Architects,7535 E Hampden Ave Ste 300,Denver,CO,80231-4842,UNITED STATES,www.worthgroup.com/
"Woven Architecture, LLC","1114 Hickox Street
Suite A",Santa Fe,NM,87505,UNITED STATES,www.bjfelix.com
WOW Atelier,248 S Edison St,Salt Lake City,UT,84111-2307,UNITED STATES,be-wow.com
WPA Architecture,475 N Freedom Blvd,Provo,UT,84601-2824,UNITED STATES,www.wpa-architecture.com
"WPH Architecture, Inc.","6625 S Valley View Blvd , Ste 300",Las Vegas,NV,89118-4557,UNITED STATES,www.wphinc.com
WQB Architecture PLLC,"545 W 45th St , Fl 4",New York,NY,10036-3409,UNITED STATES,www.wqbarchitecture.com
WRA Architects,"12377 Merit Dr , Ste 1800",Dallas,TX,75251-3227,UNITED STATES,www.wraarchitects.com/
"WRA Architects, Inc.",12377 Merit Dr Ste 1800,Dallas,TX,75251,UNITED STATES,wraarchitects.com
Wraight Architects,"18201 Von Karman Ave , Ste 400",Irvine,CA,92612-1078,UNITED STATES,
WRD' Architecture,3147 Hanging Moss Cir,Kissimmee,FL,34741-7613,UNITED STATES,
WRI ASSOCIATES ARCHITECTS,274 Genoa Highlands Cir,Genoa,NV,89411-1550,UNITED STATES,
Wright & Dalbin Architects Inc,2112 Murchison Dr,El Paso,TX,79930-1102,UNITED STATES,www.wrightdalbin.com
Wright & Robinson Architects,63 Adams Pl,Glen Ridge,NJ,07028-2041,UNITED STATES,www.wright-robinson-architects.com
Wright Architecture Inc,"2222 NE Oregon St , Ste 211",Portland,OR,97232-3390,UNITED STATES,wright-architecture.com
"Wright Design, LLC",123 W. Broad St.,Greenville,SC,29601,UNITED STATES,www.wrightdesignllc.com
"Wright Gardner Architect, LLC","154 Krog St NE , Ste 125",Atlanta,GA,30307-2418,UNITED STATES,www.wrightgardnerarchitect.com
Wright Group Architects-Planners,1430 S Broadway St,Carrollton,TX,75006-7222,UNITED STATES,www.wrightgroup.net
Wright Heerema Architects,"140 S Dearborn St , Ste 200",Chicago,IL,60603-5238,UNITED STATES,www.wharchs.com
Wright Heerema Architects,140 S Dearborn St Ste 200,Chicago,IL,60603-5238,UNITED STATES,www.wharchs.com
Wright Street Design Group Inc.,"3003 Washtenaw Ave , Ste 1A",Ann Arbor,MI,48104-5107,UNITED STATES,www.wrightstreetdesign.com
Wright-Pierce,99 Main St,Topsham,ME,04086-1204,UNITED STATES,www.wright-pierce.com
"Wrkplc, Inc.","1420 Peerless Pl , Apt 218",Los Angeles,CA,90035-2869,UNITED STATES,
WRN Architects,3112 S 3rd St W,Missoula,MT,59804-1133,UNITED STATES,www.wrnarchitects.com/
WRNS Studio,"26 Broadway , Ste 1105",New York,NY,10004-1804,UNITED STATES,www.wrnsstudio.com
WRNS Studio,"501 2nd St , Ste 402",San Francisco,CA,94107,UNITED STATES,www.wrnsstudio.com
WRNS Studio,2003 Western Ave Ste 500,Seattle,WA,98121,UNITED STATES,www.wrnsstudio.com
WRNS Studio,501 2nd ST Ste 402,San Francisco,CA,94107,UNITED STATES,www.wrnsstudio.com/
WRNS Studio,677 Ala Moana Blvd #307,Honolulu,HI,96813,UNITED STATES,www.wrnsstudio.com
WRNS Studio,26 Broadway Ste 1105,New York,NY,10004-1804,UNITED STATES,www.wrnsstudio.com
WROAD,2020 Lemoyne St,Los Angeles,CA,90026-1902,UNITED STATES,www.wroad.com
Wronsky Architect,PO BOX 141,Lake Worth,FL,33460-0311,UNITED STATES,www.wronskyarchitect.com
WRT,"1700 Market St , Fl 28",Philadelphia,PA,19103-3913,UNITED STATES,www.wrtdesign.com
