Firm Name,Address Line 1,City,State,Zip Code,Country,Firm URL
Ligo Architects,PO Box 698,Slippery Rock,PA,16057-0698,UNITED STATES,www.ligoarchitects.com
Lilian H. Weinreich Architects,"150 Central Park S , # 502",New York,NY,10019-1566,UNITED STATES,www.weinreich-architects.com
Lilly Architects,PO Box 4875,Tulsa,OK,74159-0875,UNITED STATES,www.lillyarch.com
"Lilly Haynes Architecture, Inc.",58 Evans Dr,Jacksonville Beach,FL,32250-2627,UNITED STATES,
Limbacher & Godfrey,"3406 Glenview Ave , # 200",Austin,TX,78703-1449,UNITED STATES,www.limbacher-godfrey.com
Limbacher & Godfrey Architects,"2124 E 6th St , Unit 102",Austin,TX,78702-3498,UNITED STATES,www.limbacher-godfrey.com
Limina,1030 Palm Avenue,South Pasadena,CA,91030,UNITED STATES,limina.us/index.html
"Linas B. Saplys, Architect","610 Ford Dr., Suite 338",Oakville,ON,L6J 7W4,CANADA,www.apidevelopmentconsultants.com
Linbeck,"201 Main St , Ste 1801",Fort Worth,TX,76102-3121,UNITED STATES,www.linbeck.com
Lincoln A. Poley Architect,234 Nickels Arc,Ann Arbor,MI,48104-2410,UNITED STATES,
Lincoln Architects LLC,"1 Mount Vernon St , Ste 203",Winchester,MA,01890-2719,UNITED STATES,www.lincarc.com/
Lincoln Lighthill Architect,299 Bonview St,San Francisco,CA,94110-5501,UNITED STATES,www.lincolnlighthill.com
Lincoln Street Studio Ltd.,45 E Lincoln St,Columbus,OH,43215-1515,UNITED STATES,www.lincolnstreet.com
"Lind Associates, PC",1017 Vine St,Winnetka,IL,60093-1832,UNITED STATES,
LINDA DANIEL ARCHITECT LLC,8 Auvergne Dr,Lake Saint Louis,MO,63367-2030,UNITED STATES,
Linda F. Grubb & Associates,"102 N Cook St , Ste 23",Barrington,IL,60010-3275,UNITED STATES,
Linda MacArthur Architect LLC,942 Calvert Ln NE,Atlanta,GA,30319-1202,UNITED STATES,www.lindamacarthurarchitect.com
"Linda Poncini, AIA Architecture & Planning",2902 Alameda Ave,Half Moon Bay,CA,94019-1368,UNITED STATES,
"Linda Randolph, AIA",403 Washburn Dr,Fremont,CA,94536-2851,UNITED STATES,
"Linda Reeder Architecture, LLC",96 Lyon St,New Haven,CT,06511-4927,UNITED STATES,www.lindareederarch.com
Linda Yowell Architects,277 Broadway Fl Suite,New York,NY,10007-2002,UNITED STATES,www.yowellarch.com/
"Linda Zaff Architecture, P.C.",20 Park Pl,East Aurora,NY,14052-2310,UNITED STATES,
Lindberg and Simmons,PO Box HM 2165,Hamilton HMJX,,,UNITED KINGDOM,
Linden Brown Architecture,"2100 NW 19th Avenue, 2",Portland,OR,97209,UNITED STATES,www.lindenbrownarchitecture.com
Linden Group Inc.,10100 Orland Pkwy Ste 110,Orland Park,IL,60467-5763,UNITED STATES,www.lindengroupinc.com
Linderoth Associates Inc,"8135 E Indian Bend Rd , Ste 103",Scottsdale,AZ,85250-4823,UNITED STATES,www.linderoth.com
Lindhout Associates Architects PC,10465 Citation Dr,Brighton,MI,48116-6560,UNITED STATES,www.lindhout.com
"Lindsay & Maples, Architects, Inc.","139 Fox Rd , Ste 115",Knoxville,TN,37922-3472,UNITED STATES,www.lindsaymaples.com
"Lindsay Pope Brayfield Clifford & Associates, Inc",344 W Pike St,Lawrenceville,GA,30046-4866,UNITED STATES,www.lpbatlanta.com
"Lindsay Pope Brayfield Clifford & Associates, Inc.",344 W Pike St,Lawrenceville,GA,30046-4866,UNITED STATES,www.lpbatlanta.com
"Lindsay Suter, Architect",16 Mill Rd,North Branford,CT,06471-1060,UNITED STATES,www.lindsaysuterarchitects.com
Lindsey Architects,4 Market Place Dr,York,ME,03909-1698,UNITED STATES,www.lindseyarchitects.com
Lindsey Architecture,"324 South Elm Street, Suite 500",Greensboro,NC,27401,UNITED STATES,www.lindseyarchitecture.com/
Lindsey Architecture,"125 S Elm St , Ste 300",Greensboro,NC,27401-2644,UNITED STATES,www.lindseyarchitecture.com
"Line and Space, LLC",627 E Speedway Blvd,Tucson,AZ,85705-7433,UNITED STATES,www.lineandspace.com
Line Scale Form Architects PC,101 Richard Arrington Jr Blvd S,Birmingham,AL,35233-2121,UNITED STATES,www.herringtonarchitects.com
"Linea Architects, P.C.","220 E 23rd St , Ste 905",New York,NY,10010-4650,UNITED STATES,www.linea3d.com
"Lineage Architects, P.C.",98 Lee Hwy,Verona,VA,24482-2505,UNITED STATES,www.lineagearch.com
"Linearscape Architecture, PLLC","1133 Broadway , Ste 1317",New York,NY,10010-7957,UNITED STATES,www.linearscape.com
"Lineberry Architectural Group, P.A.",P.O. Box 37456,Raleigh,NC,27627,UNITED STATES,www.lineberrygroup.com
LineSync Architecture,14 Castle Hill Rd,Wilmington,VT,05363-9745,UNITED STATES,www.linesync.com
Linework Design Studio,9931 64th Ave,Rego Park,NY,11374-2652,UNITED STATES,
Lineworks Architecture and Design LLC,"427 Bloomfield Ave , Ste 405",Montclair,NJ,07042-3551,UNITED STATES,www.lineworks.net
"Lingle Design Group, Inc.",158 W Main St,Lena,IL,61048-9247,UNITED STATES,www.lingledesign.com
Link Design Group LLC,439 Kirkland Way,Kirkland,WA,98033,UNITED STATES,www.linkdesigngroup.com
"Linnea Wingo Design, LLC",2328 Hutchins St,Houston,TX,77004-1302,UNITED STATES,
Linscott Haylett Wheat Architects,4510 Belleview Ave,Kansas City,MO,64111-3563,UNITED STATES,
Liollio Architecture,"1640 Meeting Street Road, Suite 202",Charleston,SC,29405,UNITED STATES,www.liollio.com
Lionakis,2025 19th St,Sacramento,CA,95818,UNITED STATES,www.lionakis.com
Lionakis,2025 19th St,Sacramento,CA,95818,UNITED STATES,www.lionakis.com/
