Firm Name,Address Line 1,City,State,Zip Code,Country,Firm URL
Zemanek Architecture + Design,546 Cross Timbers Blvd,Sapulpa,OK,74066-8212,UNITED STATES,zemanekad.com
Zemlan Design,721 N Nelson St,Arlington,VA,22203-2214,UNITED STATES,
"Zen B. Chen, AIA","35 Parkway Vlg , Apt A",Cranford,NJ,07016-2578,UNITED STATES,
Zenviro (HK) Ltd,"Unit 1627, One Island South, 2 Heung Yip Rd",Wong Chuk Hang,,,CHINA,
ZEPHYR architecture,604 Putnam Dr,Reno,NV,89503-5901,UNITED STATES,
"Zero 3, Inc.",1901 McMillan Ave,Dallas,TX,75206-7103,UNITED STATES,www.03design.com
Zero Lab Office,"Tai Kang Road, Lane 200, Bldg 1, 3rd Floor",Shanghai,,200025,CHINA,
ZeroEnergy Design,"156 Milk St , Ste 3",Boston,MA,02109-3487,UNITED STATES,www.zeroenergy.com
"Zerr Berg Architects, Inc.",510 4Th Ave N,Fargo,ND,58102-4821,UNITED STATES,www.zerrbergarchitects.com
Zervas Group Architects,209 Prospect St Ste 1,Bellingham,WA,98225-4461,UNITED STATES,www.zervasgroup.com
Zerza Architects,"138 Spring St , Fl 2",New York,NY,10012-3854,UNITED STATES,www.bettinazerza.com
ZFP Consultant,"Jeddah Alnaaem district, alnaaem street, Alnaaem",jeddah,,21422,SAUDI ARABIA,www.zfp.com
ZGA Architects and Planners Chartered,"300 E Mallard Drive,  Suite 325",Boise,ID,83706,UNITED STATES,www.zga.com
"ZGA Architects and Planners, Chartered","300 East Mallard Drive, Suite 325",Boise,ID,83706,UNITED STATES,www.zga.com
"ZGA Architects and Planners, Chartered",300 E Mallard Dr Ste 325,Boise,ID,83706,UNITED STATES,www.zga.com
"ZGA Architects and Planners, Chtd","408 E Parkcenter Blvd , Ste 205",Boise,ID,83706-6512,UNITED STATES,www.zga.com
ZGF Architects,1223 Sw Washington St # 200,Portland,OR,97205-2360,UNITED STATES,www.zgf.com
ZGF Architects,ZGF Architects 350-355 Burrard St.,Vancouver,BC,V6C 2G8,CANADA,www.zgf.com
ZGF Architects,"600 14th Street NW, Suite 800",Washington,DC,20005,UNITED STATES,www.zgf.com
ZGF Architects LLP,515 S Flower St Ste 3700,Los Angeles,CA,90071,UNITED STATES,www.zgf.com/
ZGF Architects LLP,600 14th ST NW Ste 800,Washington,DC,20005,UNITED STATES,www.zgf.com
ZGF Architects LLP,"1223 SW Washington Street, Suite 20",Portland,OR,97205,UNITED STATES,www.zgf.com
ZGF Architects LLP,"1223 SW Washington St , Ste 200",Portland,OR,97205-2360,UNITED STATES,www.zgf.com
ZGF Architects LLP,419 Park Ave S Fl 20,New York,NY,10016-8410,UNITED STATES,www.zgf.com
ZGF New York,"39 W 19th Street, 12th Floor",New York,NY,10011,UNITED STATES,www.zgf.com/
"ZHA Architects, P.C.","4031 University Dr , Ste 120",Fairfax,VA,22030-3409,UNITED STATES,www.zha-architects.com/
Ziebarth Architecture,PO Box 2592,Highlands,NC,28741-2592,UNITED STATES,
Ziegelman Norman H. Inc.,"850 N Adams Rd , Unit 2",Birmingham,MI,48009-5661,UNITED STATES,
Ziegler Cooper Architects,"700 Louisiana St , Ste 350",Houston,TX,77002,UNITED STATES,www.zieglercooper.com
"Ziese Architecture, Inc.",612 Moulton Ave #7,Los Angeles,CA,90031-3289,UNITED STATES,www.ziesearchitecture.com/
"Ziga Architecture Studio, PLLC",11723 Whisper Valley St,San Antonio,TX,78230-3739,UNITED STATES,www.studioziga.com
"Ziger/Snead Architects, LLP",1006 Morton St,Baltimore,MD,21201-5436,UNITED STATES,www.zigersnead.com
Zijlstra Architecture,"731 S Highway 101 , Ste 1L",Solana Beach,CA,92075-2626,UNITED STATES,
Ziler Architects,101 Calco Blvd,Lafayette,LA,70503-2572,UNITED STATES,www.zilerarchitects.net
"Ziler Architects, APAC",101 Calco Blvd,Lafayette,LA,70503-2572,UNITED STATES,www.zilerarchitects.net
Zilka & Associates Inc. Architects,1305 Beech St,Cheswick,PA,15024-1401,UNITED STATES,zilkaassociates.com
Zimmer Gunsul & Frasca Architects LLP,"925 4th Ave , Ste 2400",Seattle,WA,98104-1146,UNITED STATES,www.zgf.com
Zimmer Gunsul Frasca Architects,515 S Flower St Ste 3700,Los Angeles,CA,90071-2221,UNITED STATES,www.zgf.com
Zimmer Gunsul Frasca Architects LLC,"419 Park Ave S , Fl 20",New York,NY,10016-8410,UNITED STATES,www.zgf.com
Zimmer Gunsul Frasca Architects LLP,"1800 K St NW , Ste 200",Washington,DC,20006-2247,UNITED STATES,www.zgf.com
"Zimmer Gunsul Frasca Architects, LLP","1223 SW Washington St , Ste 200",Portland,OR,97205-2360,UNITED STATES,www.zgf.com
Zimmerman Architects,"40 Bloomfield Ave , Ste 2",Denville,NJ,07834-5701,UNITED STATES,www.zimarch.com
"Zimmerman Architectural Studios, Inc.",2122 W Mount Vernon Ave,Milwaukee,WI,53233-2671,UNITED STATES,www.zastudios.com
Zimmerman Architecture,14 Cliffview Dr,Norwalk,CT,06850-1601,UNITED STATES,www.zimmermanarchitecture.com
Zimmerman Architecture Inc.,2164 Phantom Rider Trl,Spring Branch,TX,78070-5678,UNITED STATES,www.zimmermanarchitectureinc.com
Zimmerman Studio LLC,"1927 S Broad St , Fl 1",Philadelphia,PA,19148-2216,UNITED STATES,www.zimmermanstudio.net
"Zimmerman Weintraub Associates, LLC","813 W Randolph St , Ste 300",Chicago,IL,60607-2342,UNITED STATES,www.zwalink.com
zimmerraystudios,2514 41St Ave Sw,Seattle,WA,98116-2511,UNITED STATES,www.zimmerray.com
Zinc Architecture,5228 Trousdale Dr,Nashville,TN,37220-2234,UNITED STATES,www.zincarch.com
Zingg Design Inc.,2 Prairie Hill CT,Madison,WI,53719-4122,UNITED STATES,www.zinggdesign.com
