Firm Name,Address Line 1,City,State,Zip Code,Country,Firm URL
Fergus Garber Architects,81 Encina Ave,Palo Alto,CA,94301-2314,UNITED STATES,
"Ferguson & Associates Architects, PA","100 Calumet Gdns , Ste 200",Madison,MS,39110-6107,UNITED STATES,www.ferguson-architects.com
Ferguson Architecture,1916 Jefferson Ave,Tacoma,WA,98402-1608,UNITED STATES,www.fergusonarch.com
Ferguson Architecture,1916 Jefferson Ave,Tacoma,WA,98402-1608,UNITED STATES,www.fergusonarch.com
Ferguson Architecture,1129 Chickering Park Dr,Nashville,TN,37215-4507,UNITED STATES,www.barbarashomecooking.com
Ferguson Architecture,428 Ramsdell St,Fircrest,WA,98466-6917,UNITED STATES,www.fergusonarch.com
"Ferguson Glasgow Schuster Soto, Inc.",901 Ponce De Leon Blvd Ste 304,Coral Gables,FL,33134-3059,UNITED STATES,www.fgss.net
"Ferguson Glasgow Schuster Soto, Inc.",901 Ponce De Leon Blvd Ste 304,Coral Gables,FL,33134-3059,UNITED STATES,www.fgss.net
Ferguson Malone Architects,"One Bridge Street, 14 South Ferris St.",Irvington,NY,10533,UNITED STATES,www.fergusonmalone.com
Ferguson Pape Baldwin Architects,"4499 Ruffin Rd , Ste 300",San Diego,CA,92123-4392,UNITED STATES,www.fpbarch.com
"FERLITA  ARCHITECTURE,  LLC",102 South 12th Street,Tampa,FL,33602,UNITED STATES,www.hafnerferlita.com
"Fernand W. Dahan, FAIA",5410 Amberwood Ln,Rockville,MD,20853-2501,UNITED STATES,
"Fernando Abruna, FAIA",PO Box 9022030,San Juan,PR,00902-2030,UNITED STATES,www.abrunaandmusgrave.com
Fernando Fisbein Architect DPC,"50 Underhill Avenue, 3rd Floor",Brooklyn,NY,11238,UNITED STATES,www.fernandofisbein.com
"Fernando Irizarry Architects, PSC","Ave Ponce de Leon , Ste",Hato Rey,PR,00917,UNITED STATES,
"Fernando Lugo, Arquitecto","Edif El Caribe 53 Calle Palmeras, Office 901",San Juan,PR,00901,UNITED STATES,
"Fernau & Hartman Architects, Inc.",2512 9Th St Ste 2,Berkeley,CA,94710-2542,UNITED STATES,www.fernauhartman.com
"Fernsler Hutchinson Architecture, LLC",521 E Beaver Ave,State College,PA,16801-5602,UNITED STATES,www.fernslerhutchinson.com
"Ferrari Moe, LLP",2138 4th St,San Rafael,CA,94901-2650,UNITED STATES,ferrarimoe.com
"Ferrari Moe, LLP",2138 4th St,San Rafael,CA,94901-2650,UNITED STATES,www.ferrarimoe.com
"Ferraro Choi And Associates, Ltd.",1240 Ala Moana Blvd Ste 510,Honolulu,HI,96814-4298,UNITED STATES,www.ferrarochoi.com
Ferrier Architecture Studio,"304 South Broadway, Suite 310",Los Angeles,CA,90013,UNITED STATES,www.ferrierstudio.com
Ferry & Associates Architects,217 S 7Th St,Springfield,IL,62701-1602,UNITED STATES,www.ferryarchitects.com
Fetterman Associates PC,3318 Ordway St NW,Washington,DC,20008-3260,UNITED STATES,
FFA Architecture + Interiors Inc.,"520 SW Yamhill St , Ste 900",Portland,OR,97204-1332,UNITED STATES,www.ffadesign.com
"FFA Architecture and Interiors, Inc.",520 Sw Yamhill St Ste 900,Portland,OR,97204-1332,UNITED STATES,www.ffadesign.com
"FFA Architecture and Interiors, Inc.",520 Sw Yamhill St Ste 900,Portland,OR,97204-1332,UNITED STATES,www.ffadesign.com
FFKR Architects,730 Pacific Ave.,Salt lake City,UT,84104,UNITED STATES,www.ffkr.com
FFKR Architects,730 W Pacific Ave,Salt Lake City,UT,84104-1021,UNITED STATES,www.ffkr.com
FFKR Architects,"8901 E Pima Center Pkwy , Ste 125",Scottsdale,AZ,85258-4448,UNITED STATES,www.ffkr.com
FFKR Architects,730 W Pacific Ave,Salt Lake City,UT,84104-1021,UNITED STATES,www.ffkr.com
FFKR Architects,730 W Pacific Ave,Salt Lake City,UT,84104-1021,UNITED STATES,www.ffkr.com
FFKR architects,"8901 E Pima Center Pkwy , Ste 125",Scottsdale,AZ,85258-4448,UNITED STATES,www.ffkr.com
FG Architecture Studio LLC,"349 W Grand St , Apt 106",Elizabeth,NJ,07202-1212,UNITED STATES,www.fgarchitecturestudio.com
FGM Architects,"3711 S. Mopac Expressway
Building Two, Suite 150",Austin,TX,7874,UNITED STATES,www.jacksongalloway.com/
FGM Architects,"1 Metropolitan Square, Suite 1945",St. Louis,MO,63102,UNITED STATES,www.fgmarchitects.com
FGM Architects,11250 Roger Bacon Dr Ste 16,Reston,VA,20190,UNITED STATES,www.lemayerickson.com
FGM Architects,"One Metropolitan Square, Ste 1945",Saint Louis,MO,63102,UNITED STATES,www.fgmarchitects.com/
FGM Architects,1211 W 22nd ST Ste 700,Oak Brook,IL,60523-3220,UNITED STATES,www.fgmarchitects..com
FGM Architects,1211 W 22nd Street #700,Oak Brook,IL,60523,UNITED STATES,www.fgmarchitects.com/
FGM Architects,"1211 W 22nd St , Ste 700",Oak Brook,IL,60523-3220,UNITED STATES,www.fgmarchitects.com
FGM Architects,475 Regency Park Ste 325,O Fallon,IL,62269-1991,UNITED STATES,www.fgmarchitects.com
FGM Architects,"300 South Wacker Dr. , Suite 1100",Chicago,IL,60606,UNITED STATES,www.fgmarchitects.com
FGM Architects,"1211 West 22nd Street, Suite 700",Oak Brook,IL,60523,UNITED STATES,www.fgmarchitects.com
FGM Architects,1 Metropolitan Sq,Saint Louis,MO,63102-2711,UNITED STATES,www.fgmarchitects.com
FGM Architects Engineers,475 Regency Park Ste 200,O Fallon,IL,62269-1993,UNITED STATES,www.fgmarchitects.com
FGM Architects Inc.,1211 West 22nd Street,oak brook,IL,60523,UNITED STATES,www.fgmarchitects.com
FGM Milwaukee,"219 N Milwaukee St , Ste 325",Milwaukee,WI,53202-5818,UNITED STATES,www.fgmarchitects.com
FGP Atelier,"1550 W Carroll Ave , Ste 215",Chicago,IL,60607-1035,UNITED STATES,www.fgp-atelier.com
FH Design,"1207 McGavock St , Ste A",Nashville,TN,37203-5198,UNITED STATES,fhdesign.com
