Firm Name,Address Line 1,City,State,Zip Code,Country,Firm URL
"The Woods Group, Inc.","3500 W Lake Center Dr , Ste B",Santa Ana,CA,92704-6900,UNITED STATES,
The Wooten Company,120 N Boylan Ave,Raleigh,NC,27603-1423,UNITED STATES,www.thewootencompany.com
The WW Reynolds Companies,"1375 Walnut St , Ste 10",Boulder,CO,80302-5291,UNITED STATES,www.wwreynolds.com
"The Zenner Group, Inc.",818 Marietta St NW,Atlanta,GA,30318-5538,UNITED STATES,www.zennergroup.com
TheeAe LTD,"Unit 5A, 1/F, Cheung Wah Insdustrial Building, 10 Shipyard Lane",Quarry Bay,,852,CHINA,www.theeae.com
TheeAe LTD,"Unit 5A, 3/F, Cheung Wah Insdustrial Building, 10 Shipyard Lane",Quarry Bay,,852,CHINA,www.theeae.com
"theGreenTeam, Inc.","2 W 6th St , Apt 304",Tulsa,OK,74119-1278,UNITED STATES,www.thegreenteaminc.com
Themes Architecture,1 E. Benton St.,Aurora,IL,60505,UNITED STATES,www.themesarchitecture.com
ThenDesign Architecture (TDA),4135 Erie Street,Willoughby,OH,44094,UNITED STATES,thendesign.com/
Theo David Architects,90 Water St,New York,NY,10005-3578,UNITED STATES,www.tdanyc.com
Theo Texture,"4/F Kam Chung Comm Bldg, 19-21 Hennessy Road",Wanchai,,,CHINA,
Theodore F. Lewis Jr AIA Architect,227 Wyckoff Rd,Eatontown,NJ,07724-1915,UNITED STATES,www.theesa.org
Theodore G Rieper,87 Ritchie Dr,Yonkers,NY,10705-2544,UNITED STATES,www.wix.com/rieper/architect
Theodore K. Guy Associates PC,PO Box 1640,Basalt,CO,81621-1640,UNITED STATES,www.tkga.net
Theodore R. Majdiak & Associates,6011 NE 18th Ter,Fort Lauderdale,FL,33308-2119,UNITED STATES,
Theorem,115 N 6th Ave,Durant,OK,74701-4733,UNITED STATES,www.theoremdb.com
"Theresa K. Greene, Architect, PLLC",16198 SE 48th Dr,Bellevue,WA,98006-4722,UNITED STATES,www.tkgarchitect.com
Theresa Ridley Architecture,"3459 Acworth Due West Rd NW , Ste 202",Acworth,GA,30101-5821,UNITED STATES,www.theresaridley.com
Therese Kelly Architecture & Urban Design,"731 Ozone St , Rear Studio",Santa Monica,CA,90405-5601,UNITED STATES,theresekelly.com
Thiel Architecture + Design,"1480 Post Road East, Unit #5A",Westport,CT,06880,UNITED STATES,thieldesign.com/
Thielen &amp; Green P.A.,2051 Red Oak Lane,Lino Lakes,MN,55038,UNITED STATES,
"Thielsen Architects, Inc. P.S.","720 Market St , Ste C",Kirkland,WA,98033-5446,UNITED STATES,www.thielsen.com
Thierry Pfister Architecture & Design,"150 W 28th St , Ste 801",New York,NY,10001-6181,UNITED STATES,www.thierrypfister.com
Think Architecture Inc.,"7927 South High Point Parkway, Suite 300",Sandy,UT,84094,UNITED STATES,thinkaec.com
Think Architecture LLC,2006 Lenape Unionville Rd,Kennett Square,PA,19348-1326,UNITED STATES,www.edrahme.com
"Think Design Architectural Studio, P.C.","1000 South Avenue, Suite 104",Staten Island,NY,10314,UNITED STATES,www.constructrelief.org
Think Design Studio,"1238 12th Ave, Suite 300",Grafton,WI,53024,UNITED STATES,www.thinkdesign-studio.com
Think Wilder Architecture,"726 Saint Nicholas Ave , Ste",New York,NY,10031-4002,UNITED STATES,www.thinkwilderarchitecture.com
think! architecture + design pllc,"1 Metrotech Ctr N , Fl 6",Brooklyn,NY,11201-3874,UNITED STATES,www.think-arc.com
ThinkForm Architects,"38 E Broad St , Ste 3",Hopewell,NJ,08525-1847,UNITED STATES,www.thinkformarchitects.com
ThinkForm Architects,55 Princeton Ave,Hopewell,NJ,08525-2035,UNITED STATES,www.thinkformarchitects.com
ThinkOne,"101 E Main St, Studio One",Bozeman,MT,59715-4795,UNITED STATES,www.delaneynco.com
Thira Incorporated,"1920 Bridge Ln , # 8",Steamboat Springs,CO,80487-5149,UNITED STATES,www.thirainc.com
"Third Coast Architecture, apac",82153 PO Box,Baton Rouge,LA,70884-2153,UNITED STATES,
"Third Floor Studios, LLC",1025 Katy Ln,Longmont,CO,80504-7327,UNITED STATES,
Third Level Design,2512 Euclid Pl,Minneapolis,MN,55405-2471,UNITED STATES,
Third Party Reviews,13816 Lakeside Dr,Clarksville,MD,21029-1300,UNITED STATES,
"Thoda & Associates, PLLC","5159 Wheelis Dr , Ste 100",Memphis,TN,38117-4519,UNITED STATES,www.thoda-assoc.com
"Thoemke Architecture, LLC",3962 Hickory Cove Ln,Moneta,VA,24121-6064,UNITED STATES,www.thoemkearchitecture.com
Thom Stauffer Architect,PO Box 314,Kent,OH,44240-0006,UNITED STATES,www.thomstaufferarchitect.com
Thomas & Denzinger Architects,"920 Bay St , Ste 27",Beaufort,SC,29902-5598,UNITED STATES,www.thomasanddenzingerarchitects.com
Thomas & Denzinger Architects,"138 Saint Philip St , Ste 200",Charleston,SC,29403-6140,UNITED STATES,www.thomasanddenzingerarchitects.com
Thomas A Holbrook,E2550 Oregon Ln,Eleva,WI,54738-9062,UNITED STATES,
"Thomas A Moulton, Architect","226 W Edith Ave , Apt 38",Los Altos,CA,94022-2728,UNITED STATES,
Thomas A. Dwyer AIA,11347 E Greythorn Dr,Scottsdale,AZ,85262-7492,UNITED STATES,
Thomas A. Fenniman Architect,"1 Union Sq W , Ste 501",New York,NY,10003-3303,UNITED STATES,
Thomas A. Rogers AIA,"410 N Newstead Ave , Ste 12",Saint Louis,MO,63108-2637,UNITED STATES,
"Thomas A. Todd, Architect",420 Queen Anne Way,Duxbury,MA,02332-4648,UNITED STATES,
Thomas Architects,211 S Maple Ln,Prospect Heights,IL,60070-2535,UNITED STATES,
Thomas Architects,4040 Los Robles Dr,Plano,TX,75074-3833,UNITED STATES,
