Firm Name,Address Line 1,City,State,Zip Code,Country,Firm URL
"Beatty, Harvey, Coco Architects","3 E 28th St , Fl 6",New York,NY,10016-7599,UNITED STATES,www.bhc-architects.com
"Beatty, Harvey, Coco Architects, LLP",325 Wireless Blvd,Hauppauge,NY,11788-3973,UNITED STATES,www.bhc-architects.com/
"Beaty Palmer Architects, Inc.",110 Broadway St Ste 600,San Antonio,TX,78205-1934,UNITED STATES,www.beatypalmer.com
"Beaudin & Associates, Inc.","1233 Shelburne Rd , Ste 430",South Burlington,VT,05403-7752,UNITED STATES,
BEC Associates,"2512 9th St , Ste 1",Berkeley,CA,94710-2542,UNITED STATES,
"Bechtel Frank Erickson Architects, Inc.",1840 Massachusetts Ave Ste 2,Lexington,MA,02420-5334,UNITED STATES,www.bfearc.com
Bechtle Architects,4515 Valley Commins Drive #201,Bozeman,MT,59718-6436,UNITED STATES,www.bechtlearchitects.com
Beck Architecture,"2305 Donley Dr , Ste 106",Austin,TX,78758-4535,UNITED STATES,
Beck Architecture Georgia LLC,"3500 Lenox Rd NE , Ste 250",Atlanta,GA,30326-4243,UNITED STATES,www.beckgroup.com
Beck Architecture Inc.,550 Liberty Hl,Cincinnati,OH,45202-6891,UNITED STATES,beckarchitects.com/
Beck Architecture LLC,"1108 Lavaca St , Ste 520",Austin,TX,78701-2125,UNITED STATES,www.beckgroup.com
Beck Architecture LLC,220 W 7th Ave,Tampa,FL,33602-2012,UNITED STATES,www.beckgroup.com
"Beck Architecture, LLC",1001 17th St Ste PL-100,Denver,CO,80202-2069,UNITED STATES,www.beckgroup.com
"Beck Architecture, LLC","220 W 7th Ave , Ste 200",Tampa,FL,33602-2012,UNITED STATES,www.beckgroup.com
Beck Design,"131 Dean a McGee Ave , Ste 135",Oklahoma City,OK,73102-6425,UNITED STATES,www.beckdesign.com
Beck Design,"110 W 7th St , Ste 710",Tulsa,OK,74119-1116,UNITED STATES,www.beckdesign.com
Beck Group,"1601 ELM STREET, SUITE 2800",Dallas,TX,75201,UNITED STATES,www.beckgroup.com
Beck Group,3500 Lenox Rd NE,Atlanta,GA,30326-4228,UNITED STATES,www.beckgroup.com
Becker & Becker Associates Inc.,"21 Bridge Sq
Ste 360",West Point,CT,06880,UNITED STATES,www.beckerandbecker.com
"Becker Architects, Ltd.",595 Elm Pl Ste 225,Highland Park,IL,60035-2529,UNITED STATES,www.beckerarchitects.com
Becker Associatti Inc,PO Box 50,Huddleston,VA,24104-0050,UNITED STATES,
Becker Henson Niksto Architects,34 W Mission St,Santa Barbara,CA,93101-2407,UNITED STATES,www.peterbeckerarchitect.com
Becker Morgan Group,100 Discovery Blvd Ste 102,Newark,DE,19713-1325,UNITED STATES,
Becker Morgan Group Inc.,312 W Main ST Ste 300,Salisbury,MD,21801,UNITED STATES,www.beckermorgan.com
"Becker Morgan Group, Inc.","Port Exchange
312 West Main Street, Suite 300",Salisbury,MD,21801,UNITED STATES,www.beckermorgan.com
"Becker Morgan Group, Inc.",309 S Governors Ave,Dover,DE,19904-6705,UNITED STATES,www.beckermorgan.com
"Becker Morgan Group, Inc.","3333 Jaeckle Dr , Ste 120",Wilmington,NC,28403-2842,UNITED STATES,www.beckermorgan.com
"BEDD Group, LLC",1744 Taylor St NW,Washington,DC,20011-5313,UNITED STATES,www.beddgroup.com
"Bede Van Dyke, Architect",1107 Skidaway Rd,Savannah,GA,31404-2321,UNITED STATES,
Bee Howes Architect,80 Oakcrest Rd,Needham,MA,02492,UNITED STATES,
Beebe Design Studio Architects,"825 Tamiami Trl S , Ste 1",Venice,FL,34285-3647,UNITED STATES,www.beebedesignstudio.com
Beebe Skidmore Architects,1500 Sw 11Th Ave Unit 2004,Portland,OR,97201-3545,UNITED STATES,www.beebeskidmore.com
Beecher Walker & Associates,"3115 E Lion Ln , Ste 200",Holladay,UT,84121-3525,UNITED STATES,www.beecherwalker.com
Beecher Walker & Associates,"3115 E Lion Ln , Ste 200",Holladay,UT,84121-3525,UNITED STATES,www.beecherwalker.com
Beecher Walker & Associates,"3115 E Lion Ln , Ste 200",Salt Lake City,UT,84121-3525,UNITED STATES,www.beecherwalker.com
Beem Management,"69 Sherman St , Ste 2",Fairfield,CT,06824-5821,UNITED STATES,
Beer Architectural Group LLC,112 Town Center Dr,Warren,NJ,07059-2650,UNITED STATES,www.beerarchitecturalgroup.com
Beers & Hoffman Ltd.,250 Harrisburg Avenue,Landcaster,PA,17603,UNITED STATES,www.beersltd.com
Beers + Hoffman,55 N Water St,Lititz,PA,17543-1612,UNITED STATES,www.beersltd.com
Beers Architects + Planners,"64 W Seegers Rd, Area 200",Arlington Heights,IL,60005-3917,UNITED STATES,www.beersarchitecture.com
"Beese Design, Plc.",907 Serenity Grove Ter,Purcellville,VA,20132-6143,UNITED STATES,www.beesequast.com
Beeson Lusk & Street,"207 E Main St , Ste 3C",Johnson City,TN,37604-5749,UNITED STATES,www.blsarch.com
BeFree Architecture LLC,430 Greenway Ter,Kansas City,MO,64113-1729,UNITED STATES,www.befreearch.com
Beglis Architects PC,"407 Church St NE , Ste I",Vienna,VA,22180-4737,UNITED STATES,www.beglisarchitects.com
"Behal Sampson Dietz, Inc.",990 W 3rd Ave,Columbus,OH,43212-3127,UNITED STATES,www.bsdarchitects.com
"Behar + Peteranecz, Inc.",113 W Strong St,Pensacola,FL,32501-3139,UNITED STATES,www.architecturebp.com
"Behar Font & Partners, P.A.",4533 Ponce de Leon Blvd,Coral Gables,FL,33146-1832,UNITED STATES,www.beharfont.com
"Behar Peteranecz, Inc",2430 Terminal DR S,Saint Petersburg,FL,33712-1667,UNITED STATES,www.architecturebp.com
"Behavioral Health Facility Consulting, LLC",16266 Marcum Rd,Tuscaloosa,AL,35406-8937,UNITED STATES,www.bhfcllc.com/
Behnisch Architekten,125 Kingston St,Boston,MA,02111-2135,UNITED STATES,www.behnisch.com
