Firm Name,Address Line 1,City,State,Zip Code,Country,Firm URL
Dimella Shaffer,24 Farnsworth ST FL 4th,Boston,MA,02210-1264,UNITED STATES,www.dimellashaffer.com
"DiMella Shaffer Associates, Inc.",24 Farnsworth ST FL 4th,Boston,MA,02210-1264,UNITED STATES,www.dimellashaffer.com
Dimension IV,PO Box 12585,Green Bay,WI,54307-2585,UNITED STATES,www.dimension-iv.com
Dimension IV Madison Design Group,"6515 Grand Teton Plz , Ste 120",Madison,WI,53719-1048,UNITED STATES,www.dimensionivmadison.com
Dimensional Architecture P.C.,PO Box 18,Geigertown,PA,19523,UNITED STATES,https://www.Dimensionalarchitecture.com
"Dimensional Dynamics Architects & Planners, Inc.",455 Old Baltimore Pike,Chadds Ford,PA,19317-9444,UNITED STATES,www.dimdyn.com/index.asp
Dimensional Strategy,1505 6th St NW,Washington,DC,20001-2420,UNITED STATES,www.dsusarch.com
Dimensions Architects,"703 McKinney Ave , Ste 310",Dallas,TX,75202-1013,UNITED STATES,www.dimarchs.com
Dimensions Architects,"8330 LBJ Fwy., Ste. 945",Dallas,TX,75243,UNITED STATES,www.dimarchs.com
"Dimensions Architects, Inc.","4150 Rio Bravo St , Ste 102",El Paso,TX,79902-1013,UNITED STATES,www.diarchitect.com
"Dimensions, Inc.",110 E Alto Rd,Kokomo,IN,46902-3601,UNITED STATES,www.dimensions-architects.com
"Dimit Architects, LLC",14414 Detroit Ave Ste 306,Lakewood,OH,44107-4473,UNITED STATES,www.dimitarchitects.com
"Dimitri Bulazel, AIA, Architect",80 John St,Greenwich,CT,06831-2609,UNITED STATES,
Dimovski Architecture,59 Kensico Rd,Thornwood,NY,10594-1150,UNITED STATES,www.dimovskiarchitecture.com
Dimster Architecture,623 Vernon Ave,Venice,CA,90291-2736,UNITED STATES,
Dinar & Associates,PO Box 70601,Oakland,CA,94612-0601,UNITED STATES,
Dindo Architect PC,130 Madison Ave,New York,NY,10016-7038,UNITED STATES,www.dindo.net
DINISCO DESIGN,99 Chauncy St,Boston,MA,02111-1703,UNITED STATES,www.dinisco.com
"DiNisco Design Partnership, Limited","99 Chauncy St , Ste 901",Boston,MA,02111-1717,UNITED STATES,www.dinisco.com
Diocese of Orlando,PO Box 1800,Orlando,FL,32802-1800,UNITED STATES,www.goodshepherd.org
DIOINNO ARCHITECTURE PLLC,18 Knotty Pine Ct.,Buffalo,NY,14221-7874,UNITED STATES,dioinno.com/
Dirk Denison Architect,"1123 W Washington Blvd , Ste 2",Chicago,IL,60607-2057,UNITED STATES,www.dirkdenisonarchitects.com
Dirk Denison Architects,1123 W Washington Blvd Fl 2Nd,Chicago,IL,60607-2057,UNITED STATES,www.dirkdenisonarchitects.com
Discover Architects,1735 19th St Ste 200,Denver,CO,80202-6002,UNITED STATES,http://DiscoverArchitects.com
"Diseno, Inc.",101 S Cage Blvd,Pharr,TX,78577-4823,UNITED STATES,
"Disney & Associates, PA","1865 Veterans Park Dr , Ste 301",Naples,FL,34109-0447,UNITED STATES,
Disneyland Architecture & Enigineering,1313 S Harbor Blvd,Anaheim,CA,92802-2309,UNITED STATES,www.disney.com
Distinctive Design Studio,215 Pine ST,Sheboygan Falls,WI,53085-1529,UNITED STATES,www.distinctivedesignstudio.com
"DiSunno Architecture, P.C.",20 Bay View Ave,East Hampton,NY,11937-4840,UNITED STATES,www.disunnoarchitecture.com
Diversified Design & Development,211 Laurence Ave,Lafayette,LA,70503-3121,UNITED STATES,
Dixon & Associates Architects,833 S 200 E,Salt Lake City,UT,84111-4202,UNITED STATES,www.dixonslc.com
Dixon Salo Architects,"300 Main St , Fl 1",Worcester,MA,01608-1505,UNITED STATES,www.dixonsaloarchitects.com
"DJ Associates Architect, PC","32 Broadway , Ste 114",New York,NY,10004-1675,UNITED STATES,djapc.com
DJB Architects Ltd.,5715 Clinton Ave,Minneapolis,MN,55419-1455,UNITED STATES,
"DJG, Inc.",449 Mclaws Cir,Williamsburg,VA,23185-5645,UNITED STATES,www.djginc.com
DJM Architecture LLC,"20130 Lakeview Center Plz , Ste 400",Ashburn,VA,20147-5905,UNITED STATES,www.djm-architecture.com
"DJR Architecture, Inc.",333 Washington Ave N Ste 210,Minneapolis,MN,55401-1353,UNITED STATES,www.djr-inc.com
"DK Studio, P.C.","1608 West 5th Street
Unit 100",Austin,TX,78703,UNITED STATES,www.studiodk.com
DKA,"The Malthouse, 17-20 Sydney Buildings,",Bath,,BA2 6BZ,UNITED KINGDOM,www.dka.co.uk/
DKA,106 Lenora St,Seattle,WA,98121-2210,UNITED STATES,www.dkarch.com
DKP Architecture & Consulting,PO Box 65509,Tucson,AZ,85728-5509,UNITED STATES,
DKRS Architects/Engineers,5221 Whispering Valley Dr,Nashville,TN,37211-7473,UNITED STATES,www.dkrs.net
"DKW Architecture, LLC","18 Maple Ave , # 119",Barrington,RI,02806-3560,UNITED STATES,
"DL Nichols, Inc","333 Clematis St , Ste 201",West Palm Beach,FL,33401-4613,UNITED STATES,
"DLA Architects, Ltd","2 Pierce Pl , Ste 1300",Itasca,IL,60143-3155,UNITED STATES,www.dla-ltd.com
"DLA Architects, Ltd.",2 Pierce Pl Ste 1300,Itasca,IL,60143-3155,UNITED STATES,www.dla-ltd.com
"DLA Architects, Ltd.","2 Pierce Pl , Ste 1300",Itasca,IL,60143-3155,UNITED STATES,www.dla-ltd.com
"DLA Architects, Ltd.","2 Pierce Place, Suite 1300",Itasca,IL,60143,UNITED STATES,www.dla-ltd.com
DLA Architecture + Fabrication,"1215 N Red Gum St , Ste E",Anaheim,CA,92806-1861,UNITED STATES,www.dlaaf.com
DLA+ ARCHITECTURE & INTERIOR DESIGN,"Foster Plaza 10, Suite 500, 680 Andersen Drive",Pittsburgh,PA,15220,UNITED STATES,www.dlaplus.com/
