Firm Name,Address Line 1,City,State,Zip Code,Country,Firm URL
Cearnal Andrulaitis Architects,521 State St,Santa Barbara,CA,93101-1601,UNITED STATES,www.cearnal.com
"Cearnal Collective, LLP",521 ½ State Street,Santa Barbara,CA,93101,UNITED STATES,www.cearnal.com
"Cearnal Collective, LLP",521 State St,Santa Barbara,CA,93101-1601,UNITED STATES,www.cearnal.com
Cecilia R. Vaniman AIA Architect,5020 Westlake Rd,Bozeman,MT,59718-9743,UNITED STATES,
CEDAR Architects,303 Cameron Street #2,Alexandria,VA,22314,UNITED STATES,www.cedararch.com
Cedar Corporation,604 Wilson Ave,Menomonie,WI,54751-2617,UNITED STATES,www.cedarcorp.com
Cedar Street Architecture,"5151 Mochel Dr , Ste 205",Downers Grove,IL,60515-5083,UNITED STATES,www.tkda.com
"Cedarwood Architectural, Inc.","3200 W Market St , Ste 200",Fairlawn,OH,44333-3325,UNITED STATES,www.cedarwoodarchitectural.com
CEDR Design Development,PO Box 84411,Fairbanks,AK,99708-4411,UNITED STATES,
Cee Architects,"442 Post St , Ste 302",San Francisco,CA,94102-1516,UNITED STATES,www.usgbc.org
Cee Jay Frederick & Associates Inc.,29 S Walnut St,West Chester,PA,19382-3169,UNITED STATES,www.cjfa.com
Celentano Design Studio & Affiliates,13184 SE 97th Terrace Rd,Summerfield,FL,34491-5718,UNITED STATES,
Celeste Allen Novak FAIA,10844 Quail Creek Lane,Manassas,VA,20112,UNITED STATES,www.celesteallennovakarchitect.com
Cella Architecture,2513 NE 59th Ave,Portland,OR,97213-4011,UNITED STATES,www.cellaarchitecture.com
CEM Architecture,917 S Holt Ave,Los Angeles,CA,90035-2007,UNITED STATES,
CEM Design,520 Anderson Ave,Rockville,MD,20850-2101,UNITED STATES,www.cemdesign.com
CEMS AE,"300 North 3rd Street, Suite 110",Wilmington,NC,28401,UNITED STATES,www.cems-ae.com/
CEMS Engineering & Architecture,"108 Bentons Lodge Rd., Suite B",Summerville,SC,29485-7195,UNITED STATES,www.cemsengineering.com
CEMS Engineering / Architecture,"300 N 3rd St , Ste 110",Wilmington,NC,28401-4098,UNITED STATES,www.cemsengineering.com
Cendes Architecture,3 Tianxianqiaobei Road,Chengdu,,610021,CHINA,cendes-arch.com
Centennial Collaborative,"815 S 25th St , Ste 201",Colorado Springs,CO,80904-3213,UNITED STATES,
Centerbrook Architects and Planners,67 Main St,Centerbrook,CT,06409-1004,UNITED STATES,www.centerbrook.com
Centerbrook Architects and Planners,PO BOX 955,Centerbrook,CT,06409-0955,UNITED STATES,www.centerbrook.com
"Centerline Architects & Planners, P.C.",PO Box 386,Bennington,VT,05201-0386,UNITED STATES,www.clarch.com
"Central Design Group, LLC","3200 Penn Ter , Ste 100",Columbia,MO,65202-0001,UNITED STATES,www.centraldesigngroup.com
"Central Kentucky Design, Inc.","109 Seventy Six Blvd , # B",Berea,KY,40403-9571,UNITED STATES,www.ckdinc.net
Centre for Health Care Planning,3807 Charlotte Ave,Nashville,TN,37209-3736,UNITED STATES,www.centreusa.com
Centre Sky Architecture,PO Box 161488,Big Sky,MT,59716,UNITED STATES,www.centresky.com
Centrepoint Architects,561 Windsor Street A404,Somerville,MA,02143-2136,UNITED STATES,www.centrepointarchitects.com
Centric Architecture,1206 Buchanan Street,Nashville,TN,37208,UNITED STATES,www.centricarchitecture.com
Century A&E,277 Crahen Ave NE,Grand Rapids,MI,49525-3459,UNITED STATES,www.centuryae.com
Cermak Associates Inc.,6980 SE Harbor Cir,Stuart,FL,34996-1915,UNITED STATES,
Cermak Rhoades Architects,"275 4th St E , Ste 800",Saint Paul,MN,55101-1687,UNITED STATES,www.cermakrhoades.com
Cerminara Architect,224 Courtyard Dr,Hillsborough,NJ,08844-4247,UNITED STATES,www.cerminaraarchitect.com
Certa Building Solutions,"1510 SE 44th AVE, Suite 102",Portland,OR,97215,UNITED STATES,www.certasolutions.com
CESO,3601 Rigby Rd,Miamisburg,OH,45342-5038,UNITED STATES,www.cesoinc.com
CetraRuddy Architecture - DUPE,"1 Battery Park Plz , Fl 8",New York,NY,10004-1445,UNITED STATES,cetraruddy.com
CETRARUDDY ARCHITECTURE DPC,"584 Broadway , Rm 401",New York,NY,10012-5245,UNITED STATES,www.usgbc.org
CetraRuddy Architecture DPC,1 Battery Park Plaza,New York,NY,10004,UNITED STATES,www.cetraruddy.com
CETRARUDDY ARCHITECTURE DPC,"1 Battery Park Plz
8th Fl",New York,NY,10004,UNITED STATES,www.cetraruddy.com
"Cevian Design Lab, LLC","208 Broad St , Ste 200",Rome,GA,30161-3022,UNITED STATES,www.ceviandesign.com
CF Architecture,PO Box 41077,Austin,TX,78704-0018,UNITED STATES,
CF Design Ltd,"230 E. Superior St., STE 102",Duluth,MN,55802,UNITED STATES,www.cfdesignltd.com
CF Design LTD,"230 E Superior St , Ste 102",Duluth,MN,55802-2185,UNITED STATES,www.cfdesignltd.com
CF Meyer Associates,"999 N Pacific Coast Hwy , Ste 100",El Segundo,CA,90245-2719,UNITED STATES,
CF Studio,"288 Clayton St , Ste 307",Denver,CO,80206-4810,UNITED STATES,www.cfstudioarchitecture.com
CGHJ Architects,1213 E 6th Ave,Tampa,FL,33605-4905,UNITED STATES,www.cghjarchitects.com
"CGID,LLC","319 E Francis St , Ste 101",North Platte,NE,69101-7603,UNITED STATES,www.cgidarch.com
"CGKV Architects, Inc.",204A Hampshire St,Cambridge,MA,02139-1333,UNITED STATES,www.cgkvarchitects.com
CGL Companes,"1330 Avenue of the Americas
28th Fl",New York,NY,10019,UNITED STATES,www.riccigreene.com
