Firm Name,Address Line 1,City,State,Zip Code,Country,Firm URL
e_space design,"601 E 11th St , Apt 3B",New York,NY,10009-4101,UNITED STATES,
"EA Architecture & Design, Inc.","802 North Clinton Street, Ste 1",Bloomington,IL,61701,UNITED STATES,ea-ad.net
EADS Architects,450 Aberdeen Dr,Somerset,PA,15501-1749,UNITED STATES,www.eadsgroup.com
EAG Studio,1553 Folsom Street,San Francisco,CA,94103,UNITED STATES,
Eagle Degisn,924 Newbridge Rd,North Bellmore,NY,11710-1619,UNITED STATES,
Eagle Pond Studio Architects,"464 Eagle Pond Road, 464 Eagle Pond Road",Wilmot,NH,03287,UNITED STATES,www.eaglepondstudio.com
EAPC Architects Engineers,2080 36th Ave SW Ste 210,Minot,ND,58701-7597,UNITED STATES,www.eapc.net
EAPC Architects Engineers,222 3rd St NW,Bemidji,MN,56601-3112,UNITED STATES,www.eapc.net
EAPC Architects Engineers,3100 Demers Ave,Grand Forks,ND,58201-4000,UNITED STATES,www.eapc.net
EAPC Architects Engineers,116 W Main Ave Ste A,Bismarck,ND,58501-3851,UNITED STATES,www.eapc.net
EAPC Architects Engineers,"112 Roberts St N , Ste 300",Fargo,ND,58102-4984,UNITED STATES,www.eapc.net
EAPC Architects Engineers,101 N Phillips Ave Ste 300,Sioux Falls,SD,57104-6751,UNITED STATES,www.eapc.net
EAPC Architects Engineers,"313 Main St., Ste 200",Williston,ND,58801,UNITED STATES,eapc.net/
EAPC Architects Engineers,3100 DeMers Avenue,Grand Forks,ND,58201,UNITED STATES,https://www.eapc.net
EAPC Architects Engineers,"539 Bielenberg Dr , Ste 115",Saint Paul,MN,55125-4435,UNITED STATES,www.eapc.net
EAPC Architects Engineers,901 E Madison St,Phoenix,AZ,85034,UNITED STATES,www.eapc.net
EAPC Architects Engineers,100 South State Avenue,Dickinson,ND,58601,UNITED STATES,
Earl Architects LLC,301 N Main St Ste 1730,Greenville,SC,29601-2186,UNITED STATES,www.earlarchitects.com
"Earl Reeder Associates, Inc.",346 Jones St,Dayton,OH,45410-1170,UNITED STATES,www.earlreederassociates.com
"Earl Swensson Associates, Inc","1033 Demonbreun St , Ste 800",Nashville,TN,37203,UNITED STATES,www.esarch.com
"Earles Architects and Associates, Inc. (EAA)",600 West Jackson Blvd Ste 100,Chicago,IL,60661,UNITED STATES,www.eaachicago.com
Earth And Sky Architecture,"800 W 8th Ave , Ste 113",Denver,CO,80204-4332,UNITED STATES,www.earthskyarchitecture.com
"Earth Tech, Inc.","One World Financial Center, 200 Liberty St, 25th Floor",New York,NY,10281,UNITED STATES,www.aecom.com
Earthlight Dwellings,55 Luzanne Cir,San Anselmo,CA,94960-1005,UNITED STATES,www.earthlightdwellings.com
EASA Architecture,"851 Burlway Road
Suite 422",Burlingame,CA,94010,UNITED STATES,www.easaarchitecture.com
East 9 Architects & Planners Pte Ltd,"Singapore, 89B Tanjong Pagar Road",Singapore,,088510,SINGAPORE,www.e9ap.com
"east arbor architecture, llc",405 Grove St,East Lansing,MI,48823-3334,UNITED STATES,www.eastarbor.com
"east arbor architecture, LLC",511 Bailey St,East Lansing,MI,48823-3401,UNITED STATES,www.eastarbor.com
East Side Studio Architects,2 Lexington Rd,Concord,MA,01742-2418,UNITED STATES,www.juliaminer.com
East Slope Industries,881 Lilac Pl,Lafayette,CO,80026,UNITED STATES,
East Tennessee Community Design Center,1300 N Broadway St,Knoxville,TN,37917-6501,UNITED STATES,www.communitydc.org
Eastlake Studio Inc.,333 N Michigan Ave Ste 2600,Chicago,IL,60601-4043,UNITED STATES,www.eastlakestudio.com
Easton + Combs Architects,"500 Driggs Ave , Apt 413",Brooklyn,NY,11211-9316,UNITED STATES,www.eastoncombs.com
"Easton Architects, LLP",21 W 44Th St Ste 604,New York,NY,10036,UNITED STATES,www.eastonarch.com
Eaton Architecture,2089 E Fort Union Blvd,Salt Lake City,UT,84121-3135,UNITED STATES,www.eatonarch.com
"Eaton Hall Architecture, Inc","1155 Meridian Ave , Ste 208",San Jose,CA,95125-4331,UNITED STATES,www.ehastudio.com
"EBA Ernest Bland Associates, P.C.",802 Sligo Ave,Silver Spring,MD,20910-4701,UNITED STATES,www.ebapc.com
Ebeling Noe Associates,4055 Grande View Dr,Pylesville,MD,21132-1511,UNITED STATES,www.ebelingnoe.com
Eberhard Architects LLC,"2077 E 4th St , Apt 2E",Cleveland,OH,44115-1080,UNITED STATES,www.eberhardarchitects.com
Ebersoldt + Associates,1214 Washington Ave,Saint Louis,MO,63103-1963,UNITED STATES,www.eplusa-arch.com
Ebert Norman Brady Architects,1361 13Th Ave S Ste 230,Jacksonville Beach,FL,32250-3236,UNITED STATES,www.enbarchitects.com/
"Ec,a Architecture, PC",PO BOX 30183,Charlotte,NC,28230-0183,UNITED STATES,www.eca-architecture.com
ECC,"9830 Colonnade Blvd , Ste 240",San Antonio,TX,78230-2209,UNITED STATES,www.ecc.net
Ecco Design Inc.,"203 N 36th St , Ste 201",Seattle,WA,98103-8610,UNITED STATES,www.eccodesigninc.com
"ECH Architecture, P.S.","1415 Western Ave , Ste 418",Seattle,WA,98101-2051,UNITED STATES,www.ech-ps.com
Echo Architecture,136 W Suburban Dr,Fox Point,WI,53217-2335,UNITED STATES,
Echo Architecture,"4 S Wahsatch Ave , Ste 120",Colorado Springs,CO,80903-3664,UNITED STATES,www.echo-arch.com
"Echo Design + Architecture, P.C","349 5th Ave , # 712",New York,NY,10016-5019,UNITED STATES,www.echoda.com
ECI Alaska,"3909 Arctic Blvd , Ste 103",Anchorage,AK,99503-5769,UNITED STATES,ecialaska.com
ECI/Hyer Inc.,"3909 Arctic Blvd , Ste 103",Anchorage,AK,99503-5769,UNITED STATES,www.ecihyer.com
