Firm Name,Address Line 1,City,State,Zip Code,Country,Firm URL
Richard Manion Architecture Inc.,"11400 W Olympic Blvd , Ste 410",Los Angeles,CA,90064-1592,UNITED STATES,www.richardmanion.com
Richard Massa Architects,"470 W 24th St , Apt 3I",New York,NY,10011-1206,UNITED STATES,www.rma-nyc.com
"Richard Matz Design Associates, Inc.","901 Douglas Ave , Ste 203",Altamonte Springs,FL,32714-2057,UNITED STATES,
"Richard McElhiney Architect, LLC","450 Seventh Avenue, Suite 2701",New York,NY,10123,UNITED STATES,www.rmcelhiney.com
Richard Meier & Partners Architects,"475 10th Ave , Fl 6",New York,NY,10018-9721,UNITED STATES,www.richardmeier.com
RICHARD MEIER AND PARTNERS,"475 10th Ave , Ste 600",New York,NY,10018-1120,UNITED STATES,www.richardmeier.com
"Richard Merlau, Architect",16428 Bethel Rd,Elkhart Lake,WI,53020-1209,UNITED STATES,
Richard Mersiovsky Architect,2808 Rathlin Dr,Cedar Park,TX,78613-5730,UNITED STATES,www.richardmersiovskyarchitect.com
Richard Mogas & Associates Architects Inc. AIA,317 Lexington Ave Ste 1,San Antonio,TX,78215-1938,UNITED STATES,www.richardmogas.com
Richard Moore Environmental Consulting,20 E Milton Rd,Brookline,MA,02445-6997,UNITED STATES,www.richardmooreec.com
Richard Newlon AIA Architect,2216 Wakerobin Ln,Reston,VA,20191-4106,UNITED STATES,www.richardnewlonarchitect.com
"RICHARD PERRY,  ARCHITECT","920 Broadway , Ste 902",New York,NY,10010-6004,UNITED STATES,www.usgbc.org
Richard R. Bass Architects,220 Hawaii Loa St,Honolulu,HI,96821-2011,UNITED STATES,www.rrbarchitect.com
"Richard R. Brown Associates, P.C.",14918 Hertz Quail Springs Pkwy,Oklahoma City,OK,73134-2623,UNITED STATES,www.rbaarch.com
Richard R. Metzner Architect,36 Pinebrook Dr,Larchmont,NY,10538-2634,UNITED STATES,
Richard R. Moger Architect FAIA,9 Hampton Rd,Port Washington,NY,11050-3008,UNITED STATES,
Richard Renner Architects,133 S Main St,Sherborn,MA,01770-1431,UNITED STATES,rrennerarchitects.com
"Richard S. Gates, AIA, Inc.",13941 Sweetbriar Ln,Novelty,OH,44072-9716,UNITED STATES,www.richardsgatesarchitect.com
"Richard S. Zlatunich, Architect",PO Box 1090,Aptos,CA,95001-1090,UNITED STATES,
Richard Sabin Architect,"10 Concord Greene , Unit 1",Concord,MA,01742-3154,UNITED STATES,
"Richard Sasser, Architect","1766 Memorial Dr , Ste 1",Waycross,GA,31501-1098,UNITED STATES,www.richardsasser.com
Richard Schalk AIA,1606 Old Town Rd NW,Albuquerque,NM,87104-1361,UNITED STATES,www.richardschalk.com
Richard Skinner & Associates P.L.,1880 Shadowlawn St,Jacksonville,FL,32205,UNITED STATES,www.rs-architects.com
Richard Smits - Architect,18105 Wentworth Ave,Lansing,IL,60438-3922,UNITED STATES,
"Richard Stibolt, AIA",233 Wishing Well Ave,Newport,VT,05855-9631,UNITED STATES,
Richard Swann Architect,1727 Fairfield Beach Rd,Fairfield,CT,06824-6565,UNITED STATES,www.swannarchitect.com
"Richard T. Fiory Architect, AIA","55 New Montgomery St , Ste 805",San Francisco,CA,94105-3435,UNITED STATES,www.topflightspecs.com
"Richard Turlington Architects, Inc","55 Church St , Ste 201",New Haven,CT,06510-3014,UNITED STATES,www.richardturlingtonarchitects.com
"Richard Vitabile Architects, PC",820 W King Rd.,Malvern,PA,19355,UNITED STATES,
Richard W. Griffin Architect,37 Turner St,Salem,MA,01970-5626,UNITED STATES,www.rgriffinarchitects.com
"Richard W. Nelson, Architect",37 Lakewood Dr,Mountain Lakes,NJ,07046-1724,UNITED STATES,www.rnelsonarchitect.com
"Richard W. Sauder, AIA Architect",2 S York Rd,Hatboro,PA,19040-3326,UNITED STATES,
"Richard W. Spears Architect, Inc.","156 Peachtree East Shopping Ctr , Ste 163",Peachtree City,GA,30269-4045,UNITED STATES,www.richardwspears.com
Richard Williams Architects,1909 Q St Nw Ste 200,Washington,DC,20009-1050,UNITED STATES,www.richardwilliamsarchitects.com
Richard Wittschiebe Hand,15 Simpson St NW,Atlanta,GA,30308-3010,UNITED STATES,www.rwhdesign.com
Richard+Bauer,"4450 N 12th St , Ste 200",Phoenix,AZ,85014-6012,UNITED STATES,www.richard-bauer.com
Richards Basmajian,"93-103 Wing Lok Street, 1F",Sheung Wan,,518063,CHINA,www.aaniao.com
Richards Bott Architects,620 24th St,Ogden,UT,84401-4322,UNITED STATES,www.bp-architects.net
Richardson & Associates,PO Box 907,Montgomery,AL,36101-0907,UNITED STATES,www.usgbc.org
Richardson Architecture,315 V Ave,Anacortes,WA,98221-1671,UNITED STATES,www.richardsonarchitecture.net
"Richardson Design Partnership, Inc.",510 S 600 E,Salt Lake City,UT,84102-2710,UNITED STATES,www.trdp.com
Richardson Properties Corporation,PO Box 546,Chester Heights,PA,19017-0546,UNITED STATES,www.rpcrealtors.com
Richardson Quann Associates Inc,814 E 100 S,Salt Lake City,UT,84102-4109,UNITED STATES,www.caphillcon.com
Richaven PLLC,9000 23rd Ave NW,Seattle,WA,98117-2717,UNITED STATES,www.richaven.com
Richert & Associates / Architects - Planners,"9311 SE 36th St , Ste 110",Mercer Island,WA,98040-3700,UNITED STATES,www.richertnet.com
Richlind Architects LLC,122 N Highland Ave,Lombard,IL,60148-2086,UNITED STATES,www.richlindarch.com
"Richter &  Cegan, Inc.",PO Box 567,Avon,CT,06001-0567,UNITED STATES,www.richtercegan.com
Richter Architects,201 S Upper Broadway St,Corpus Christi,TX,78401-3025,UNITED STATES,www.richterarchitects.com
Richter Architects,201 S Upper Broadway St,Corpus Christi,TX,78401-3025,UNITED STATES,www.richterarchitects.com
Richter Architects,201 S Upper Broadway St,Corpus Christi,TX,78401-3025,UNITED STATES,www.richterarchitects.com
