Firm Name,Address Line 1,City,State,Zip Code,Country,Firm URL
Paul Bailey Architect,110 Audubon St,New Haven,CT,06510-1206,UNITED STATES,www.pbbarchitect.com
Paul Berger & Associates,"1855 Saint Francis St , Apt 2011",Reston,VA,20190-6260,UNITED STATES,
"Paul Bleck AIA, Ltd.",3070 MANU HOPE PL,Kailua Kona,HI,96753,UNITED STATES,www.paulbleck.com
"Paul Braswell Architect, PA","1850 E 3rd St , Ste 320",Charlotte,NC,28204-3243,UNITED STATES,
Paul Briggs Architect,11500 NC Hwy 8  Sute C,Lexington,NC,27292,UNITED STATES,
Paul Buck Architects,132 E 28Th St,New York,NY,10016-8346,UNITED STATES,www.paulbuckarchitect.com
"Paul Castrucci, Architect","179 Rivington St , Apt 1A",New York,NY,10002-2601,UNITED STATES,www.castrucciarchitect.com
Paul Cataldo Architecture and Planning,PO Box 1,Rocky Point,NY,11778-0001,UNITED STATES,paulcataldora.com
Paul Cavin Architect LLC,51 Marilyn Mae Dr,Sparks,NV,89441-6236,UNITED STATES,www.paulcavindesign.com
Paul D. Daniel Architect,919 City Park Ave,Columbus,OH,43206-2511,UNITED STATES,
Paul Davis Architects,10575 W Pico Blvd,Los Angeles,CA,90064-2333,UNITED STATES,www.pauldavisarchitects.com
"Paul Deppe, Architect","5 Tanglewylde Ave , Apt 6E",Bronxville,NY,10708-3120,UNITED STATES,
Paul Dermanis Architects,116 NW 55th St,Seattle,WA,98107-2062,UNITED STATES,
Paul E. Casseb Jr AIA Inc,159 Cave Ln,San Antonio,TX,78209-2208,UNITED STATES,pecaia.com
"Paul E. Larson, Architect",257 Shore Road,WESTERLY,RI,02891-3925,UNITED STATES,
Paul E. Scoville Architect,303 Fuller Rd,Albany,NY,12203-3643,UNITED STATES,
Paul F. Hopper Associates,8 Oak St W,Greenwich,CT,06830-6886,UNITED STATES,
"Paul F. Weber, Architect, LLC",449 Thames St Unit 202,Newport,RI,02840-6750,UNITED STATES,www.paulweberarchitecture.com
Paul Francis Shurtleff Architect,64 Elm St,Lake Placid,NY,12946-3845,UNITED STATES,www.paulshurtleff.com/
"Paul Furia Consulting, Inc.",Not Available,Washington,DC,20006,UNITED STATES,
Paul Gates Architect,"2 E Franklin Ave , Ste 2",Minneapolis,MN,55404-2557,UNITED STATES,www.paulgatesarchitect.com
"Paul H. Barkley, FAIA Emeritus",311 Chestnut St,Falls Church,VA,22046-2404,UNITED STATES,
Paul H. Duckwall & Associates,567 Tara Trl,Atlanta,GA,30327-4927,UNITED STATES,
Paul Halajian Architects,389 Clovis Ave Ste 200,Clovis,CA,93612-1185,UNITED STATES,www.halajianarch.com
"Paul Homeyer, FAIA",607 W 35th St,Austin,TX,78705-1206,UNITED STATES,
"Paul J Hatem, AIA, Architect",17 Jason St,Arlington,MA,02476-6445,UNITED STATES,www.paulhatem-architect.com
"Paul J. Allain, Architect, Apac",109 N Weeks St,New Iberia,LA,70560-3746,UNITED STATES,www.pjallainarch.com
Paul J. Kelly Architecture,"300 S 19th St , Ste 318",Omaha,NE,68102-1924,UNITED STATES,pjkarchitecture.com
Paul J. Ricciuti FAIA Architect,4123 Sampson Rd,Youngstown,OH,44505-1301,UNITED STATES,
"Paul K. Curran, AIA Architect","5 Commodore Dr , Unit 410",Emeryville,CA,94608-1635,UNITED STATES,
"Paul K. Tiajoloff, Architect, LLC",360 Hawkins Pl # 2,Boonton,NJ,07005-1128,UNITED STATES,www.pktarchitecture.com
Paul L. Battaglia AIA,"31 Rose Ct , Apt 4",Snyder,NY,14226-3657,UNITED STATES,
"Paul L. Bentley, AIA, Architect, PC",673 CHEROKEE AVE,Roseburg,OR,97471,UNITED STATES,www.paulbentleyarchitect.com
Paul L. Davies & Associates Architects,"635 Rogers St , Ste 4",Lowell,MA,01852-3852,UNITED STATES,www.pdaviesarchitects.com
Paul Lamb Architects,"618 Lavaca St , Ste 1",Austin,TX,78701-2941,UNITED STATES,www.paullambarchitects.com
Paul Levine PC,14523 Woodcrest Dr,Rockville,MD,20853-2371,UNITED STATES,
"Paul Louie and Associates, Inc.",PO Box 11068,Honolulu,HI,96828-0068,UNITED STATES,
Paul Lukez Architecture,1310 Broadway,Somerville,MA,02144-1836,UNITED STATES,www.lukez.com
"Paul M. Black, AIA + Associates",5216 Willow Ridge Dr,Woodstock,GA,30188-4366,UNITED STATES,www.pmbplus.com/
"Paul M. Donoho, Architect",PO BOX 1727,Honokaa,HI,96727-1727,UNITED STATES,pmdarch.houzz.com/
Paul M. Falsetto Architect LLC,1605 NE Buffalo St,Portland,OR,97211-4717,UNITED STATES,
Paul M. Terrill AIA Architect,7270 Kenny Ln,Dallas,TX,75230-3100,UNITED STATES,
Paul Matthews Architects,PO Box 794,Rathdrum,ID,83858-0794,UNITED STATES,paulmatthewsarchitects.com
"Paul Meyer Architects, Inc.",15650 36Th Ave N Ste 170,Plymouth,MN,55446-2562,UNITED STATES,
Paul Murdoch Architects,"8820 Wilshire Blvd , Ste 330",Beverly Hills,CA,90211-2619,UNITED STATES,www.paulmurdocharchitects.com
Paul N. Richard Architect AIA,"125 E San Mateo Rd , # A",Santa Fe,NM,87505-4721,UNITED STATES,
"Paul North Architects, PC",1007 East St,Mansfield,MA,02048-3408,UNITED STATES,www.pnarchitects.com
"Paul North, Architect",132 Rodman Lane,North Kingstown,RI,02852,UNITED STATES,
"Paul P. Buda, Architect LLC",37 Lafayette St,Hopewell,NJ,08525-1815,UNITED STATES,ppbarchitect.com
Paul Pettigrew Architect,86 Rice St,Cambridge,MA,02140-1819,UNITED STATES,
