Firm Name,Address Line 1,City,State,Zip Code,Country,Firm URL
ForeFront Designs,614 Maye St,Westfield,NJ,07090-2423,UNITED STATES,www.forefront-designs.com
"Foreman Architects & Engineers, Inc.",PO Box 189,Zelienople,PA,16063-0189,UNITED STATES,www.foremangroup.com
Foreman Seeley Fountain Architecture,"3091 Governors Lake Dr , Ste 150",Peachtree Corners,GA,30071-1102,UNITED STATES,fsfarchitecture.com
"Forensic Building Experts, Inc.",19235 S Creekshore CT,Boca Raton,FL,33498,UNITED STATES,www.fbeusa.com
Forest City - New East Baltimore Partnership,1809 Ashland Ave,Baltimore,MD,21205-1505,UNITED STATES,www.ebdi.org
Forge Craft Architecture + Design,"608 W Monroe St , Ste C",Austin,TX,78704-3463,UNITED STATES,www.forgecraftarchitecture.com/
forK design,214 W Magnolia Avenue,Knoxville,TN,37917-7441,UNITED STATES,forkdesign.us
Forlenza Architecture PLLC,23 Bluestone Rd,Woodstock,NY,12498-1732,UNITED STATES,
"Form & Function Architecture, PC","9 W Walnut St , Ste 3B",Asheville,NC,28801-2869,UNITED STATES,www.ffarchitecture.com
Form + Function Architecture,"1800 Westlake Ave N , Ste 205",Seattle,WA,98109-2782,UNITED STATES,formplusfunctionarch.com
Form 4 Inc.,"126 Post St , Fl 3",San Francisco,CA,94108-4704,UNITED STATES,www.form4inc.com
FORM Architects,1777 N Kent St Ste 150,Arlington,VA,22209-2133,UNITED STATES,www.form-architects.com
FORM Architects PLLC,"1777 N Kent St , Ste 150",Arlington,VA,22209-2162,UNITED STATES,www.form-architects.com
Form Architectural Inc.,PO BOX 260192,Encino,CA,91426-0192,UNITED STATES,
Form Architecture + Interiors,88 E 10th St,New York,NY,10003-5455,UNITED STATES,formarch.com
FORM Design + Build,418 Broadway,Chico,CA,95928,UNITED STATES,www.formdesignbuild.com
"Form4 Architecture, Inc.","126 Post St , Fl 3",San Francisco,CA,94108-4704,UNITED STATES,www.form4inc.com
"Form5 Architecture Studio, Inc.",PO Box 22260,Mesa,AZ,85277-2260,UNITED STATES,
FORM64 Architecture,"301 North Palm Canyon Drive, Suites #103-207",Palm Springs,CA,92262,UNITED STATES,http://form64.com
Forma Architecture,"155 N Michigan Ave , Ste 417",Chicago,IL,60601-7511,UNITED STATES,www.formaarch.com
"FORMA Design, Inc.","1524 U St NW , Ste 200",Washington,DC,20009-3955,UNITED STATES,www.formaonline.com
Format Architecture Office,"9 4th St , Apt 4",Brooklyn,NY,11231-4563,UNITED STATES,www.format.nyc
"Formation Architects, Inc.",208 Pine St,Highland,IL,62249-1249,UNITED STATES,www.formationai.com
"Formation Association Architecture, Inc.",970 N Broadway Ste 209,Los Angeles,CA,90012-1784,UNITED STATES,www.formationassociation.com
"formation, llc",3401 Florida Dr,Loveland,CO,80538-2442,UNITED STATES,www.format.io/
Formative Architecture PC,209 Gold Ave SW,Albuquerque,NM,87102-3319,UNITED STATES,www.formativearchitecture.com
Formelier Architecture,"2950 Merced St , Ste 200",San Leandro,CA,94577-5641,UNITED STATES,www.formelier.com
FormLine Architecture and Urbanism,"100 Park Pl , Ste 1104",West Vancouver,BC,V6B 1T6,CANADA,formline.ca
"Formus Inc. Architecture, Planning, interior Design","119 S Court Sq , Ste 200",Memphis,TN,38103-2293,UNITED STATES,
Formwork Design Office llc,"619 E High St , Ste A",Charlottesville,VA,22902-5135,UNITED STATES,www.formworkusa.com
"Formworks Architects, Inc.",3000 7th Ave S,Birmingham,AL,35233-3503,UNITED STATES,formworks.biz
"FORNEY + architecture, LLC",421 Emmerson Ave,Kirkwood,MO,63122-3418,UNITED STATES,www.forneyplus.com
Forrec Ltd.,219 Dufferin St,Toronto,ON,M6K 3J1,CANADA,www.forrec.com
"Forrest Coile Associates, P.C.","154 Yeardley Dr , Apt 5",Newport News,VA,23601-3238,UNITED STATES,
Forrest Whitescarver Architect,217 Turpin Dr,Highland Village,TX,75077-7228,UNITED STATES,
Fors Architecture,2810 E 4Th St,Tucson,AZ,85716-4422,UNITED STATES,www.forsarchitecture.com
Forsgate Industrial Partners,400 Hollister Rd,Teterboro,NJ,07608-1147,UNITED STATES,www.forsgate.com
"Forst Consulting & Architecture, PLLC","19 W 44th St , Ste 611",New York,NY,10036-5900,UNITED STATES,www.forstconsultingusa.com
Fort Bend ISD Design & Construction Department,2323 Texas Pkwy,Missouri City,TX,77489-4045,UNITED STATES,www.fortbendisd.com
"Forte Architects, Inc.",240 N Wenatchee Ave,Wenatchee,WA,98801-2010,UNITED STATES,www.fortearchitects.com
Forte Architecture & Design,PO BOX 30073,Jamaica Plain,MA,02130,UNITED STATES,www.fortearch.com
"FORTEarchitecture, ltd.",2008 Isabella St,Evanston,IL,60201-1525,UNITED STATES,www.fortearchitecture.com
Fortunato Architecture,13 Tamarack Cir,Skillman,NJ,08558-2019,UNITED STATES,www.fortunatoarchitecture.com
Fortune Architects,"8510 McAlpine Park Dr , Ste 204",Charlotte,NC,28211-6250,UNITED STATES,www.fortune-architects.com
FortyEighty Architecture,4 Smithfield St Fl 6,Pittsburgh,PA,15222-2226,UNITED STATES,www.fortyeighty.com
"Forum Architects and Consultants, Inc.","8800 Highway 7 , Ste 307",St Louis Park,MN,55426-3928,UNITED STATES,www.forumarchitects.net
Forum Architects LLC,PO Box 306,Mishawaka,IN,46546-0306,UNITED STATES,www.forumarchitectsllc.com
"Forum Architecture & Interior Design, Inc.","237 S Westmonte Dr , Ste 220",Altamonte Springs,FL,32714-4263,UNITED STATES,www.forumarchitecture.com
"Forum Architecture & Interior Design, Inc.","237 S Westmonte Dr , Ste 220",Altamonte Springs,FL,32714-4263,UNITED STATES,www.forumarchitecture.com
Forum Architecture and Interior Design,237 S. Westmonte Drive. #220,Altamonte Springs,FL,32714,UNITED STATES,www.forumarchitecture.com
